{
    "type": "FeatureCollection",
    "features": [
        {
            "type": "Feature",
            "geometry": {
                "type": "LineString",
                "coordinates": [
                    [
                        2.236962,
                        48.891964
                    ],
                    [
                        2.24044,
                        48.890873
                    ],
                    [
                        2.243153,
                        48.890236
                    ],
                    [
                        2.24815,
                        48.888638
                    ],
                    [
                        2.249327,
                        48.888226
                    ],
                    [
                        2.250062,
                        48.887993
                    ],
                    [
                        2.250062,
                        48.887993
                    ],
                    [
                        2.250654,
                        48.88781
                    ],
                    [
                        2.251145,
                        48.887688
                    ],
                    [
                        2.251501,
                        48.887589
                    ],
                    [
                        2.257308,
                        48.885754
                    ],
                    [
                        2.257478,
                        48.885696
                    ],
                    [
                        2.258977,
                        48.885109
                    ],
                    [
                        2.259408,
                        48.88496
                    ],
                    [
                        2.261054,
                        48.884441
                    ],
                    [
                        2.261054,
                        48.884441
                    ],
                    [
                        2.272224,
                        48.880924
                    ],
                    [
                        2.272224,
                        48.880924
                    ],
                    [
                        2.272998,
                        48.880684
                    ],
                    [
                        2.273703,
                        48.880424
                    ],
                    [
                        2.276013,
                        48.879684
                    ],
                    [
                        2.27633,
                        48.879597
                    ],
                    [
                        2.277338,
                        48.879353
                    ],
                    [
                        2.277736,
                        48.879246
                    ],
                    [
                        2.278463,
                        48.879009
                    ],
                    [
                        2.280691,
                        48.878315
                    ],
                    [
                        2.281166,
                        48.878109
                    ],
                    [
                        2.282453,
                        48.877686
                    ],
                    [
                        2.282453,
                        48.877686
                    ],
                    [
                        2.282753,
                        48.877594
                    ],
                    [
                        2.283488,
                        48.877438
                    ],
                    [
                        2.286597,
                        48.876442
                    ],
                    [
                        2.290129,
                        48.875324
                    ],
                    [
                        2.290129,
                        48.875324
                    ],
                    [
                        2.290676,
                        48.875149
                    ],
                    [
                        2.291062,
                        48.875004
                    ],
                    [
                        2.292099,
                        48.874531
                    ],
                    [
                        2.292314,
                        48.874451
                    ],
                    [
                        2.292538,
                        48.874386
                    ],
                    [
                        2.292782,
                        48.874352
                    ],
                    [
                        2.293021,
                        48.874344
                    ],
                    [
                        2.293236,
                        48.874367
                    ],
                    [
                        2.293436,
                        48.874405
                    ],
                    [
                        2.29411,
                        48.874588
                    ],
                    [
                        2.294238,
                        48.874607
                    ],
                    [
                        2.294504,
                        48.874619
                    ],
                    [
                        2.294769,
                        48.874599
                    ],
                    [
                        2.294862,
                        48.874584
                    ],
                    [
                        2.295135,
                        48.874516
                    ],
                    [
                        2.295504,
                        48.874397
                    ],
                    [
                        2.295504,
                        48.874397
                    ],
                    [
                        2.296031,
                        48.874229
                    ],
                    [
                        2.296121,
                        48.874191
                    ],
                    [
                        2.296206,
                        48.874142
                    ],
                    [
                        2.296346,
                        48.874027
                    ],
                    [
                        2.296452,
                        48.873894
                    ],
                    [
                        2.296492,
                        48.873821
                    ],
                    [
                        2.296526,
                        48.873745
                    ],
                    [
                        2.29664,
                        48.873398
                    ],
                    [
                        2.296723,
                        48.87323
                    ],
                    [
                        2.296873,
                        48.873085
                    ],
                    [
                        2.297055,
                        48.872963
                    ],
                    [
                        2.297273,
                        48.872883
                    ],
                    [
                        2.298836,
                        48.87254
                    ],
                    [
                        2.299172,
                        48.872452
                    ],
                    [
                        2.300415,
                        48.872063
                    ],
                    [
                        2.300415,
                        48.872063
                    ],
                    [
                        2.304579,
                        48.870747
                    ],
                    [
                        2.307479,
                        48.869801
                    ],
                    [
                        2.309739,
                        48.86908
                    ],
                    [
                        2.309739,
                        48.86908
                    ],
                    [
                        2.309921,
                        48.869022
                    ],
                    [
                        2.313169,
                        48.867771
                    ],
                    [
                        2.314063,
                        48.867481
                    ],
                    [
                        2.314063,
                        48.867481
                    ],
                    [
                        2.316077,
                        48.866837
                    ],
                    [
                        2.316735,
                        48.866665
                    ],
                    [
                        2.317969,
                        48.86644
                    ],
                    [
                        2.318893,
                        48.866264
                    ],
                    [
                        2.319295,
                        48.866207
                    ],
                    [
                        2.319687,
                        48.866173
                    ],
                    [
                        2.32009,
                        48.866161
                    ],
                    [
                        2.320412,
                        48.866188
                    ],
                    [
                        2.320767,
                        48.866238
                    ],
                    [
                        2.321229,
                        48.866344
                    ],
                    [
                        2.321622,
                        48.866405
                    ],
                    [
                        2.322216,
                        48.866463
                    ],
                    [
                        2.322734,
                        48.866474
                    ],
                    [
                        2.323139,
                        48.866455
                    ],
                    [
                        2.323453,
                        48.866421
                    ],
                    [
                        2.323725,
                        48.866379
                    ],
                    [
                        2.323983,
                        48.866325
                    ],
                    [
                        2.324213,
                        48.866264
                    ],
                    [
                        2.324417,
                        48.866199
                    ],
                    [
                        2.324417,
                        48.866199
                    ],
                    [
                        2.326839,
                        48.865402
                    ],
                    [
                        2.329659,
                        48.864502
                    ],
                    [
                        2.329659,
                        48.864502
                    ],
                    [
                        2.332476,
                        48.86359
                    ],
                    [
                        2.333513,
                        48.863277
                    ],
                    [
                        2.33593,
                        48.862514
                    ],
                    [
                        2.33593,
                        48.862514
                    ],
                    [
                        2.337612,
                        48.861973
                    ],
                    [
                        2.340084,
                        48.861141
                    ],
                    [
                        2.341124,
                        48.860802
                    ],
                    [
                        2.341124,
                        48.860802
                    ],
                    [
                        2.347413,
                        48.858761
                    ],
                    [
                        2.347413,
                        48.858761
                    ],
                    [
                        2.351033,
                        48.85759
                    ],
                    [
                        2.35143,
                        48.857475
                    ],
                    [
                        2.352059,
                        48.85733
                    ],
                    [
                        2.352059,
                        48.85733
                    ],
                    [
                        2.360402,
                        48.855366
                    ],
                    [
                        2.360402,
                        48.855366
                    ],
                    [
                        2.361264,
                        48.855156
                    ],
                    [
                        2.361679,
                        48.855038
                    ],
                    [
                        2.362039,
                        48.854919
                    ],
                    [
                        2.362458,
                        48.854767
                    ],
                    [
                        2.362828,
                        48.854614
                    ],
                    [
                        2.364164,
                        48.854134
                    ],
                    [
                        2.364769,
                        48.853943
                    ],
                    [
                        2.365696,
                        48.853691
                    ],
                    [
                        2.366253,
                        48.853561
                    ],
                    [
                        2.366603,
                        48.853493
                    ],
                    [
                        2.366947,
                        48.853447
                    ],
                    [
                        2.367752,
                        48.853378
                    ],
                    [
                        2.367843,
                        48.853359
                    ],
                    [
                        2.367928,
                        48.853333
                    ],
                    [
                        2.368006,
                        48.853298
                    ],
                    [
                        2.368076,
                        48.853256
                    ],
                    [
                        2.368134,
                        48.853207
                    ],
                    [
                        2.368182,
                        48.853153
                    ],
                    [
                        2.368216,
                        48.853092
                    ],
                    [
                        2.368237,
                        48.853031
                    ],
                    [
                        2.368243,
                        48.85297
                    ],
                    [
                        2.368235,
                        48.852909
                    ],
                    [
                        2.36808,
                        48.852528
                    ],
                    [
                        2.368069,
                        48.852463
                    ],
                    [
                        2.368072,
                        48.852398
                    ],
                    [
                        2.368089,
                        48.852333
                    ],
                    [
                        2.36812,
                        48.852268
                    ],
                    [
                        2.368164,
                        48.852211
                    ],
                    [
                        2.368221,
                        48.852158
                    ],
                    [
                        2.368294,
                        48.852108
                    ],
                    [
                        2.368377,
                        48.852062
                    ],
                    [
                        2.36847,
                        48.852028
                    ],
                    [
                        2.368665,
                        48.851986
                    ],
                    [
                        2.368665,
                        48.851986
                    ],
                    [
                        2.369121,
                        48.851902
                    ],
                    [
                        2.369418,
                        48.851833
                    ],
                    [
                        2.369605,
                        48.851765
                    ],
                    [
                        2.369678,
                        48.851727
                    ],
                    [
                        2.369776,
                        48.851658
                    ],
                    [
                        2.369842,
                        48.851593
                    ],
                    [
                        2.369906,
                        48.851509
                    ],
                    [
                        2.369951,
                        48.851414
                    ],
                    [
                        2.370102,
                        48.850925
                    ],
                    [
                        2.370151,
                        48.850796
                    ],
                    [
                        2.370812,
                        48.849285
                    ],
                    [
                        2.371454,
                        48.847931
                    ],
                    [
                        2.371745,
                        48.847248
                    ],
                    [
                        2.371906,
                        48.846794
                    ],
                    [
                        2.371952,
                        48.846588
                    ],
                    [
                        2.371984,
                        48.846397
                    ],
                    [
                        2.372026,
                        48.846256
                    ],
                    [
                        2.372171,
                        48.846016
                    ],
                    [
                        2.372288,
                        48.845917
                    ],
                    [
                        2.372418,
                        48.845844
                    ],
                    [
                        2.372563,
                        48.845783
                    ],
                    [
                        2.372746,
                        48.845749
                    ],
                    [
                        2.372915,
                        48.845749
                    ],
                    [
                        2.373785,
                        48.845848
                    ],
                    [
                        2.373785,
                        48.845848
                    ],
                    [
                        2.374431,
                        48.845921
                    ],
                    [
                        2.374835,
                        48.845955
                    ],
                    [
                        2.376184,
                        48.846104
                    ],
                    [
                        2.376916,
                        48.84621
                    ],
                    [
                        2.377201,
                        48.846233
                    ],
                    [
                        2.385002,
                        48.847137
                    ],
                    [
                        2.385002,
                        48.847137
                    ],
                    [
                        2.386798,
                        48.847359
                    ],
                    [
                        2.386802,
                        48.847351
                    ],
                    [
                        2.388554,
                        48.847546
                    ],
                    [
                        2.393764,
                        48.848129
                    ],
                    [
                        2.393926,
                        48.848133
                    ],
                    [
                        2.394115,
                        48.848129
                    ],
                    [
                        2.394274,
                        48.848103
                    ],
                    [
                        2.395206,
                        48.847897
                    ],
                    [
                        2.395538,
                        48.847843
                    ],
                    [
                        2.395822,
                        48.847816
                    ],
                    [
                        2.396101,
                        48.847809
                    ],
                    [
                        2.396101,
                        48.847809
                    ],
                    [
                        2.396368,
                        48.84782
                    ],
                    [
                        2.396676,
                        48.847858
                    ],
                    [
                        2.397871,
                        48.848064
                    ],
                    [
                        2.398146,
                        48.848099
                    ],
                    [
                        2.398366,
                        48.848118
                    ],
                    [
                        2.398591,
                        48.848122
                    ],
                    [
                        2.398815,
                        48.848114
                    ],
                    [
                        2.406569,
                        48.847427
                    ],
                    [
                        2.407345,
                        48.847343
                    ],
                    [
                        2.407461,
                        48.847324
                    ],
                    [
                        2.408028,
                        48.847195
                    ],
                    [
                        2.408028,
                        48.847195
                    ],
                    [
                        2.408482,
                        48.847088
                    ],
                    [
                        2.408722,
                        48.847046
                    ],
                    [
                        2.408851,
                        48.847027
                    ],
                    [
                        2.410052,
                        48.84692
                    ],
                    [
                        2.410214,
                        48.846909
                    ],
                    [
                        2.410533,
                        48.846905
                    ],
                    [
                        2.410692,
                        48.846916
                    ],
                    [
                        2.411327,
                        48.846981
                    ],
                    [
                        2.411496,
                        48.846981
                    ],
                    [
                        2.411769,
                        48.846966
                    ],
                    [
                        2.418703,
                        48.846352
                    ],
                    [
                        2.418703,
                        48.846352
                    ],
                    [
                        2.429297,
                        48.845413
                    ],
                    [
                        2.429297,
                        48.845413
                    ],
                    [
                        2.438904,
                        48.844563
                    ]
                ]
            },
            "properties": {
                "id": "metro-1",
                "source": "Ile-de-France Mobilites GTFS (data.iledefrance-mobilites.fr), Mobility License"
            }
        },
        {
            "type": "Feature",
            "geometry": {
                "type": "Point",
                "coordinates": [
                    2.2370151812077856,
                    48.89213543098125
                ]
            },
            "properties": {
                "name": "La Défense"
            }
        },
        {
            "type": "Feature",
            "geometry": {
                "type": "Point",
                "coordinates": [
                    2.2500587372950065,
                    48.88800894593748
                ]
            },
            "properties": {
                "name": "Esplanade de la Défense"
            }
        },
        {
            "type": "Feature",
            "geometry": {
                "type": "Point",
                "coordinates": [
                    2.26068954435901,
                    48.88463060023443
                ]
            },
            "properties": {
                "name": "Pont de Neuilly"
            }
        },
        {
            "type": "Feature",
            "geometry": {
                "type": "Point",
                "coordinates": [
                    2.272277675288795,
                    48.88095135639308
                ]
            },
            "properties": {
                "name": "Les Sablons"
            }
        },
        {
            "type": "Feature",
            "geometry": {
                "type": "Point",
                "coordinates": [
                    2.2824120580347764,
                    48.877765914127366
                ]
            },
            "properties": {
                "name": "Porte Maillot"
            }
        },
        {
            "type": "Feature",
            "geometry": {
                "type": "Point",
                "coordinates": [
                    2.290095209729821,
                    48.87527558076666
                ]
            },
            "properties": {
                "name": "Argentine"
            }
        },
        {
            "type": "Feature",
            "geometry": {
                "type": "Point",
                "coordinates": [
                    2.2958783604223547,
                    48.87511188226749
                ]
            },
            "properties": {
                "name": "Charles de Gaulle - Étoile"
            }
        },
        {
            "type": "Feature",
            "geometry": {
                "type": "Point",
                "coordinates": [
                    2.300295922410982,
                    48.872062034264175
                ]
            },
            "properties": {
                "name": "George V"
            }
        },
        {
            "type": "Feature",
            "geometry": {
                "type": "Point",
                "coordinates": [
                    2.309729269438982,
                    48.86905004286815
                ]
            },
            "properties": {
                "name": "Franklin D. Roosevelt"
            }
        },
        {
            "type": "Feature",
            "geometry": {
                "type": "Point",
                "coordinates": [
                    2.3143149128844804,
                    48.867628454929594
                ]
            },
            "properties": {
                "name": "Champs-Élysées - Clemenceau"
            }
        },
        {
            "type": "Feature",
            "geometry": {
                "type": "Point",
                "coordinates": [
                    2.324531487080287,
                    48.866112694397074
                ]
            },
            "properties": {
                "name": "Concorde"
            }
        },
        {
            "type": "Feature",
            "geometry": {
                "type": "Point",
                "coordinates": [
                    2.329048894665331,
                    48.86464518947193
                ]
            },
            "properties": {
                "name": "Tuileries"
            }
        },
        {
            "type": "Feature",
            "geometry": {
                "type": "Point",
                "coordinates": [
                    2.335276120074395,
                    48.86269238136798
                ]
            },
            "properties": {
                "name": "Palais Royal - Musée du Louvre"
            }
        },
        {
            "type": "Feature",
            "geometry": {
                "type": "Point",
                "coordinates": [
                    2.3401628634830325,
                    48.86107361739893
                ]
            },
            "properties": {
                "name": "Louvre - Rivoli"
            }
        },
        {
            "type": "Feature",
            "geometry": {
                "type": "Point",
                "coordinates": [
                    2.347881677716951,
                    48.858579763589525
                ]
            },
            "properties": {
                "name": "Châtelet"
            }
        },
        {
            "type": "Feature",
            "geometry": {
                "type": "Point",
                "coordinates": [
                    2.352956655702459,
                    48.85710539723286
                ]
            },
            "properties": {
                "name": "Hôtel de Ville"
            }
        },
        {
            "type": "Feature",
            "geometry": {
                "type": "Point",
                "coordinates": [
                    2.3608852562751967,
                    48.85518742160445
                ]
            },
            "properties": {
                "name": "Saint-Paul (Le Marais)"
            }
        },
        {
            "type": "Feature",
            "geometry": {
                "type": "Point",
                "coordinates": [
                    2.368692796099789,
                    48.85196422011205
                ]
            },
            "properties": {
                "name": "Bastille"
            }
        },
        {
            "type": "Feature",
            "geometry": {
                "type": "Point",
                "coordinates": [
                    2.3736730684982223,
                    48.84579383469821
                ]
            },
            "properties": {
                "name": "Gare de Lyon"
            }
        },
        {
            "type": "Feature",
            "geometry": {
                "type": "Point",
                "coordinates": [
                    2.385158021366095,
                    48.847130496202226
                ]
            },
            "properties": {
                "name": "Reuilly - Diderot"
            }
        },
        {
            "type": "Feature",
            "geometry": {
                "type": "Point",
                "coordinates": [
                    2.3963815574262974,
                    48.847556384308284
                ]
            },
            "properties": {
                "name": "Nation"
            }
        },
        {
            "type": "Feature",
            "geometry": {
                "type": "Point",
                "coordinates": [
                    2.4079949837065446,
                    48.84726366558476
                ]
            },
            "properties": {
                "name": "Porte de Vincennes"
            }
        },
        {
            "type": "Feature",
            "geometry": {
                "type": "Point",
                "coordinates": [
                    2.4190018282327004,
                    48.84636430926393
                ]
            },
            "properties": {
                "name": "Saint-Mandé"
            }
        },
        {
            "type": "Feature",
            "geometry": {
                "type": "Point",
                "coordinates": [
                    2.4289728467242204,
                    48.84545000833376
                ]
            },
            "properties": {
                "name": "Bérault"
            }
        },
        {
            "type": "Feature",
            "geometry": {
                "type": "Point",
                "coordinates": [
                    2.4387524697059666,
                    48.84456096014731
                ]
            },
            "properties": {
                "name": "Château de Vincennes"
            }
        }
    ]
}