{"type": "FeatureCollection", "features": [{"type": "Feature", "geometry": {"type": "LineString", "coordinates": [[2.295461, 48.874256], [2.294844, 48.874451], [2.294601, 48.874493], [2.294491, 48.874504], [2.29427, 48.874496], [2.294044, 48.874454], [2.293936, 48.87442], [2.293839, 48.874378], [2.293702, 48.874279], [2.293648, 48.874222], [2.293599, 48.874142], [2.293566, 48.874065], [2.293548, 48.873974], [2.293545, 48.873882], [2.293572, 48.873779], [2.293624, 48.87368], [2.294132, 48.873138], [2.294191, 48.873055], [2.294233, 48.872967], [2.294254, 48.872871], [2.294264, 48.872776], [2.294255, 48.872707], [2.294221, 48.872635], [2.292957, 48.870964], [2.292957, 48.870964], [2.290114, 48.867035], [2.290114, 48.867035], [2.28747, 48.863361], [2.28747, 48.863361], [2.286961, 48.862652], [2.28688, 48.862511], [2.286831, 48.8624], [2.286786, 48.86227], [2.286587, 48.861469], [2.286548, 48.861374], [2.286498, 48.861282], [2.2848, 48.858963], [2.284755, 48.858894], [2.284713, 48.858772], [2.284708, 48.858646], [2.284718, 48.858589], [2.284746, 48.858524], [2.28479, 48.858467], [2.285946, 48.857311], [2.285946, 48.857311], [2.288994, 48.854256], [2.289365, 48.853874], [2.289365, 48.853874], [2.292059, 48.85117], [2.292252, 48.850979], [2.292349, 48.850895], [2.292491, 48.8508], [2.29262, 48.850735], [2.292706, 48.8507], [2.293658, 48.850399], [2.293658, 48.850399], [2.294458, 48.850151], [2.295165, 48.849915], [2.297162, 48.849277], [2.297745, 48.849102], [2.297987, 48.849022], [2.298968, 48.848721], [2.298968, 48.848721], [2.301867, 48.847824], [2.302942, 48.847511], [2.302942, 48.847511], [2.306028, 48.846603], [2.309955, 48.845497], [2.309955, 48.845497], [2.310369, 48.845379], [2.310497, 48.845333], [2.31064, 48.845268], [2.310686, 48.845238], [2.310785, 48.845161], [2.310875, 48.845062], [2.311461, 48.84433], [2.312971, 48.842419], [2.312971, 48.842419], [2.31369, 48.841537], [2.3142, 48.840981], [2.314299, 48.840897], [2.314418, 48.84082], [2.314559, 48.840763], [2.314717, 48.840717], [2.31502, 48.84066], [2.315182, 48.840645], [2.315323, 48.840649], [2.315455, 48.840664], [2.315552, 48.840672], [2.315692, 48.840698], [2.320512, 48.842098], [2.320742, 48.842148], [2.320948, 48.842178], [2.321261, 48.842205], [2.321261, 48.842205], [2.32136, 48.842213], [2.321611, 48.842209], [2.321932, 48.842167], [2.322143, 48.842121], [2.322346, 48.842056], [2.325072, 48.841099], [2.325072, 48.841099], [2.330117, 48.839432], [2.330345, 48.839317], [2.330459, 48.839222], [2.330547, 48.839119], [2.33061, 48.839008], [2.330652, 48.838902], [2.330652, 48.838902], [2.330819, 48.838474], [2.331575, 48.836475], [2.331953, 48.835445], [2.332198, 48.83485], [2.332266, 48.834736], [2.332349, 48.834644], [2.332453, 48.834541], [2.332637, 48.834396], [2.332722, 48.834343], [2.332722, 48.834343], [2.333117, 48.834106], [2.333344, 48.833988], [2.333577, 48.833889], [2.333809, 48.833805], [2.334071, 48.833721], [2.336816, 48.832966], [2.336816, 48.832966], [2.341161, 48.831779], [2.343487, 48.831131], [2.343487, 48.831131], [2.349152, 48.829575], [2.349267, 48.829556], [2.349429, 48.829536], [2.349548, 48.82954], [2.34965, 48.829548], [2.349772, 48.829571], [2.349957, 48.82962], [2.350489, 48.829792], [2.350489, 48.829792], [2.353422, 48.830719], [2.35361, 48.830772], [2.353767, 48.830799], [2.353928, 48.830811], [2.354078, 48.830811], [2.354226, 48.830799], [2.355006, 48.830696], [2.355219, 48.830688], [2.355411, 48.830696], [2.355796, 48.830746], [2.355971, 48.830784], [2.355971, 48.830784], [2.356261, 48.830868], [2.358027, 48.831573], [2.358406, 48.831711], [2.363158, 48.833298], [2.363158, 48.833298], [2.368107, 48.834934], [2.368107, 48.834934], [2.369565, 48.835434], [2.370657, 48.835903], [2.371122, 48.836121], [2.372435, 48.836819], [2.373166, 48.837177], [2.373166, 48.837177], [2.373806, 48.837467], [2.373993, 48.837559], [2.375547, 48.838406], [2.375799, 48.838535], [2.378712, 48.840126], [2.378953, 48.840244], [2.379105, 48.840294], [2.379306, 48.84034], [2.379498, 48.840366], [2.379668, 48.840374], [2.379894, 48.840374], [2.380037, 48.840363], [2.380192, 48.840343], [2.380592, 48.840271], [2.380592, 48.840271], [2.387821, 48.838982], [2.388136, 48.838943], [2.388367, 48.838932], [2.388723, 48.838943], [2.389702, 48.839008], [2.389702, 48.839008], [2.390227, 48.839046], [2.394234, 48.839375], [2.394912, 48.83942], [2.396587, 48.839516], [2.396587, 48.839516], [2.399464, 48.839611], [2.39967, 48.83963], [2.399768, 48.839649], [2.399896, 48.83968], [2.400036, 48.839725], [2.400183, 48.839802], [2.400305, 48.839893], [2.400399, 48.839996], [2.400481, 48.840126], [2.400926, 48.841335], [2.400926, 48.841335], [2.402099, 48.844494], [2.40213, 48.844604], [2.402136, 48.84465], [2.402128, 48.844734], [2.402075, 48.844841], [2.402014, 48.844902], [2.401954, 48.84494], [2.40185, 48.845001], [2.401732, 48.845051], [2.401509, 48.845116], [2.401236, 48.845154], [2.400524, 48.845188], [2.400524, 48.845188], [2.399696, 48.84523], [2.398772, 48.845356], [2.398647, 48.845383], [2.398529, 48.845417], [2.398404, 48.84547], [2.398312, 48.84552], [2.398221, 48.845581], [2.398144, 48.845654], [2.396878, 48.847305], [2.396776, 48.847408], [2.396704, 48.847458], [2.396541, 48.847546], [2.396322, 48.84761], [2.396178, 48.847637], [2.395527, 48.847717]]}, "properties": {"id": "metro-6", "source": "Ile-de-France Mobilites GTFS (data.iledefrance-mobilites.fr), Mobility License"}}, {"type": "Feature", "geometry": {"type": "Point", "coordinates": [2.294995735441831, 48.87383861478572]}, "properties": {"name": "Charles de Gaulle - Étoile"}}, {"type": "Feature", "geometry": {"type": "Point", "coordinates": [2.293230736951423, 48.87128306316444]}, "properties": {"name": "Kléber"}}, {"type": "Feature", "geometry": {"type": "Point", "coordinates": [2.2900328376074373, 48.8668483434173]}, "properties": {"name": "Boissière"}}, {"type": "Feature", "geometry": {"type": "Point", "coordinates": [2.287447817634774, 48.86348739722466]}, "properties": {"name": "Trocadéro"}}, {"type": "Feature", "geometry": {"type": "Point", "coordinates": [2.285730760446299, 48.85748746038011]}, "properties": {"name": "Passy"}}, {"type": "Feature", "geometry": {"type": "Point", "coordinates": [2.2892963570634604, 48.85388427726308]}, "properties": {"name": "Bir-Hakeim"}}, {"type": "Feature", "geometry": {"type": "Point", "coordinates": [2.293582210413948, 48.850393157306804]}, "properties": {"name": "Dupleix"}}, {"type": "Feature", "geometry": {"type": "Point", "coordinates": [2.298906224573169, 48.848697697821954]}, "properties": {"name": "La Motte-Picquet - Grenelle"}}, {"type": "Feature", "geometry": {"type": "Point", "coordinates": [2.302898786915822, 48.84749339701438]}, "properties": {"name": "Cambronne"}}, {"type": "Feature", "geometry": {"type": "Point", "coordinates": [2.3094812736820387, 48.84559344181696]}, "properties": {"name": "Sèvres-Lecourbe"}}, {"type": "Feature", "geometry": {"type": "Point", "coordinates": [2.312792651441268, 48.842482718285865]}, "properties": {"name": "Pasteur"}}, {"type": "Feature", "geometry": {"type": "Point", "coordinates": [2.321273396249205, 48.84205447194666]}, "properties": {"name": "Montparnasse Bienvenue"}}, {"type": "Feature", "geometry": {"type": "Point", "coordinates": [2.325539385877001, 48.8409094241733]}, "properties": {"name": "Edgar Quinet"}}, {"type": "Feature", "geometry": {"type": "Point", "coordinates": [2.3306746998287577, 48.83889670536719]}, "properties": {"name": "Raspail"}}, {"type": "Feature", "geometry": {"type": "Point", "coordinates": [2.332803776289825, 48.83424986732888]}, "properties": {"name": "Denfert-Rochereau"}}, {"type": "Feature", "geometry": {"type": "Point", "coordinates": [2.3370965389054956, 48.832857226540206]}, "properties": {"name": "Saint-Jacques"}}, {"type": "Feature", "geometry": {"type": "Point", "coordinates": [2.343438236678704, 48.831115947616446]}, "properties": {"name": "Glacière"}}, {"type": "Feature", "geometry": {"type": "Point", "coordinates": [2.3504625110108375, 48.82976926843797]}, "properties": {"name": "Corvisart"}}, {"type": "Feature", "geometry": {"type": "Point", "coordinates": [2.356101612721528, 48.830914982874944]}, "properties": {"name": "Place d'Italie"}}, {"type": "Feature", "geometry": {"type": "Point", "coordinates": [2.362857958087621, 48.83318160406702]}, "properties": {"name": "Nationale"}}, {"type": "Feature", "geometry": {"type": "Point", "coordinates": [2.3681361010524644, 48.834936390694416]}, "properties": {"name": "Chevaleret"}}, {"type": "Feature", "geometry": {"type": "Point", "coordinates": [2.372825013717543, 48.83700262953923]}, "properties": {"name": "Quai de la Gare"}}, {"type": "Feature", "geometry": {"type": "Point", "coordinates": [2.379463070185257, 48.840176028121896]}, "properties": {"name": "Bercy"}}, {"type": "Feature", "geometry": {"type": "Point", "coordinates": [2.3899129608386627, 48.83905161650721]}, "properties": {"name": "Dugommier"}}, {"type": "Feature", "geometry": {"type": "Point", "coordinates": [2.396148628489371, 48.839434008053175]}, "properties": {"name": "Daumesnil"}}, {"type": "Feature", "geometry": {"type": "Point", "coordinates": [2.40096353707475, 48.841337879121916]}, "properties": {"name": "Bel-Air"}}, {"type": "Feature", "geometry": {"type": "Point", "coordinates": [2.4012745388223746, 48.84510324750185]}, "properties": {"name": "Picpus"}}, {"type": "Feature", "geometry": {"type": "Point", "coordinates": [2.3957883190257903, 48.84789064769285]}, "properties": {"name": "Nation"}}]}