{"type": "FeatureCollection", "features": [{"type": "Feature", "geometry": {"type": "LineString", "coordinates": [[2.346606, 48.9174], [2.342185, 48.917381], [2.341558, 48.917328], [2.340733, 48.917091], [2.340315, 48.916889], [2.33988, 48.916599], [2.338947, 48.915794], [2.33833, 48.915413], [2.336657, 48.914623], [2.335908, 48.914242], [2.334667, 48.913231], [2.334667, 48.913231], [2.333819, 48.91254], [2.332421, 48.911354], [2.331864, 48.910965], [2.326076, 48.907299], [2.322193, 48.904785], [2.322193, 48.904785], [2.320959, 48.904015], [2.320602, 48.903801], [2.318901, 48.902744], [2.317962, 48.902267], [2.31708, 48.901947], [2.315556, 48.901535], [2.31377, 48.901081], [2.31186, 48.900494], [2.310863, 48.900101], [2.310348, 48.899815], [2.309924, 48.899475], [2.309731, 48.89917], [2.309575, 48.89872], [2.309629, 48.898228], [2.309713, 48.897884], [2.309862, 48.89753], [2.310085, 48.897068], [2.3105, 48.896416], [2.313221, 48.894817], [2.313221, 48.894817], [2.313496, 48.894665], [2.313912, 48.894222], [2.314182, 48.893753], [2.31432, 48.893291], [2.314432, 48.891972], [2.314675, 48.890903], [2.314775, 48.890522], [2.314889, 48.890133], [2.315262, 48.889507], [2.315262, 48.889507], [2.315513, 48.889111], [2.315686, 48.888824], [2.315842, 48.888542], [2.316149, 48.887924], [2.316796, 48.88694], [2.317107, 48.886593], [2.318088, 48.885727], [2.31878, 48.885223], [2.319564, 48.88475], [2.320079, 48.884388], [2.321044, 48.883682], [2.322171, 48.882999], [2.323093, 48.88253], [2.323469, 48.882351], [2.323887, 48.882164], [2.324558, 48.881985], [2.32496, 48.881927], [2.325701, 48.881863], [2.326199, 48.881748], [2.326618, 48.881577], [2.326999, 48.881313], [2.327358, 48.880852], [2.327503, 48.880535], [2.327589, 48.880165], [2.32761, 48.879383], [2.327562, 48.879082], [2.327369, 48.878784], [2.326907, 48.878487], [2.326466, 48.878162], [2.324667, 48.876244], [2.3241, 48.875614], [2.3241, 48.875614], [2.323444, 48.874897], [2.323244, 48.874653], [2.32308, 48.874405], [2.322948, 48.874153], [2.322854, 48.873901], [2.322781, 48.8736], [2.322757, 48.873306], [2.322787, 48.872974], [2.322873, 48.87265], [2.322993, 48.87236], [2.323157, 48.872086], [2.323386, 48.871822], [2.323674, 48.871567], [2.324025, 48.871342], [2.324418, 48.871147], [2.324808, 48.870998], [2.326565, 48.870399], [2.326565, 48.870399], [2.327426, 48.870113], [2.32768, 48.870022], [2.327946, 48.8699], [2.330124, 48.868397], [2.334267, 48.86586], [2.33452, 48.865688], [2.33452, 48.865688], [2.335896, 48.864662], [2.336751, 48.864117], [2.337992, 48.863579], [2.33894, 48.863239], [2.339876, 48.862919], [2.34247, 48.862144], [2.343014, 48.861946], [2.343433, 48.861778], [2.343877, 48.861565], [2.344304, 48.861256], [2.345837, 48.859715], [2.345837, 48.859715], [2.347798, 48.857746], [2.348167, 48.857437], [2.348574, 48.857159], [2.349064, 48.85688], [2.34985, 48.856579], [2.351347, 48.856026], [2.355744, 48.854301], [2.360044, 48.852726], [2.360508, 48.852531], [2.360944, 48.85231], [2.364157, 48.84977], [2.364979, 48.848816], [2.36661, 48.847561], [2.369629, 48.845959], [2.37067, 48.845276], [2.372243, 48.844353], [2.37396, 48.843399], [2.37396, 48.843399], [2.376003, 48.842281], [2.376889, 48.841736], [2.379137, 48.840294], [2.379581, 48.839981], [2.379581, 48.839981], [2.380116, 48.83955], [2.381274, 48.838657], [2.38184, 48.838272], [2.382378, 48.838043], [2.383986, 48.837517], [2.385291, 48.837048], [2.3859, 48.836861], [2.3865, 48.836601], [2.386746, 48.83643], [2.387262, 48.835949], [2.387306, 48.835827], [2.387341, 48.835327], [2.387283, 48.835087], [2.387159, 48.834843], [2.38689, 48.834564], [2.386555, 48.834194], [2.386181, 48.833809], [2.385954, 48.833549], [2.385954, 48.833549], [2.385691, 48.833218], [2.385254, 48.83284], [2.384695, 48.832424], [2.384339, 48.832218], [2.383997, 48.832073], [2.383156, 48.831791], [2.38238, 48.831562], [2.38161, 48.831375], [2.379549, 48.831066], [2.376717, 48.829929], [2.376717, 48.829929], [2.375848, 48.829571], [2.372461, 48.828255], [2.371716, 48.827866], [2.371476, 48.827778], [2.371247, 48.827705], [2.370936, 48.827633], [2.366416, 48.827034], [2.366416, 48.827034], [2.36375, 48.826645], [2.362897, 48.826393], [2.361852, 48.825851], [2.360729, 48.825108], [2.359604, 48.823875], [2.359314, 48.823502], [2.359094, 48.82312], [2.358885, 48.82254], [2.358842, 48.82201], [2.358958, 48.82156], [2.358958, 48.82156], [2.35915, 48.820904], [2.359169, 48.820648], [2.359089, 48.819744], [2.359105, 48.819412], [2.359202, 48.819019], [2.359389, 48.818325], [2.359394, 48.818027], [2.35933, 48.817726], [2.358054, 48.814758], [2.357866, 48.814438], [2.357672, 48.814217], [2.357286, 48.813854], [2.356715, 48.813435], [2.355436, 48.812744], [2.354167, 48.812405], [2.353105, 48.812111], [2.352147, 48.811726], [2.351321, 48.811211], [2.350643, 48.810673], [2.349844, 48.809975], [2.349844, 48.809975], [2.348664, 48.8088], [2.348295, 48.808281], [2.348038, 48.807739], [2.347963, 48.807152], [2.347992, 48.806557], [2.348149, 48.805893], [2.348204, 48.805447], [2.348172, 48.805027], [2.347995, 48.804234], [2.347984, 48.803875], [2.348049, 48.803562], [2.348172, 48.803276], [2.348757, 48.802299], [2.348961, 48.80188], [2.349124, 48.801247], [2.349343, 48.793053], [2.349343, 48.793053], [2.349368, 48.792538], [2.349395, 48.791729], [2.349347, 48.791195], [2.34925, 48.790665], [2.348617, 48.788723], [2.348467, 48.788113], [2.348116, 48.785576], [2.348102, 48.784958], [2.348167, 48.784393], [2.348338, 48.783859], [2.348998, 48.78252], [2.349245, 48.782059], [2.349577, 48.78162], [2.34994, 48.78125], [2.35009, 48.781105], [2.350763, 48.780403], [2.35109, 48.779919], [2.35137, 48.779434], [2.352008, 48.777843], [2.352405, 48.777298], [2.353672, 48.775982], [2.354177, 48.775471], [2.354177, 48.775471], [2.354817, 48.774796], [2.355055, 48.774475], [2.355237, 48.774174], [2.355736, 48.773289], [2.35617, 48.772545], [2.356697, 48.771748], [2.358303, 48.76936], [2.359134, 48.768188], [2.359346, 48.767815], [2.359845, 48.766853], [2.360158, 48.766407], [2.361659, 48.764893], [2.362297, 48.764385], [2.363037, 48.763939], [2.363713, 48.763649], [2.365081, 48.763176], [2.365648, 48.762875], [2.366143, 48.762451], [2.366331, 48.762272], [2.366599, 48.761959], [2.366803, 48.761589], [2.366902, 48.761242], [2.367014, 48.759468], [2.367063, 48.758427], [2.367063, 48.758427], [2.367095, 48.757767], [2.367245, 48.75695], [2.367602, 48.75626], [2.368278, 48.755489], [2.369741, 48.754082], [2.371552, 48.752396], [2.372071, 48.751648], [2.372435, 48.750778], [2.372618, 48.749958], [2.372748, 48.748749], [2.372823, 48.747196], [2.372823, 48.747196], [2.372888, 48.745296], [2.372858, 48.744366], [2.372823, 48.743977], [2.372769, 48.743649], [2.372678, 48.743225], [2.37255, 48.74279], [2.37237, 48.742317], [2.372134, 48.741814], [2.371888, 48.741379], [2.371577, 48.740906], [2.371208, 48.740425], [2.370747, 48.739906], [2.370448, 48.739555], [2.369497, 48.73856], [2.368953, 48.738049], [2.368289, 48.737495], [2.367755, 48.737064], [2.363498, 48.733707], [2.36328, 48.733509], [2.363095, 48.733326], [2.362844, 48.733028], [2.362646, 48.732735], [2.362502, 48.732456], [2.362376, 48.732128], [2.362314, 48.731869], [2.362273, 48.731499], [2.362278, 48.731205], [2.362304, 48.730843], [2.362535, 48.728443]]}, "properties": {"id": "metro-14", "source": "Ile-de-France Mobilites GTFS (data.iledefrance-mobilites.fr), Mobility License"}}, {"type": "Feature", "geometry": {"type": "Point", "coordinates": [2.3458061046356975, 48.9175012758304]}, "properties": {"name": "Saint-Denis - Pleyel"}}, {"type": "Feature", "geometry": {"type": "Point", "coordinates": [2.334239472763733, 48.912878083666286]}, "properties": {"name": "Mairie de Saint-Ouen"}}, {"type": "Feature", "geometry": {"type": "Point", "coordinates": [2.3219576914000415, 48.90466143759184]}, "properties": {"name": "Saint-Ouen"}}, {"type": "Feature", "geometry": {"type": "Point", "coordinates": [2.3126172426195786, 48.8950394367423]}, "properties": {"name": "Porte de Clichy"}}, {"type": "Feature", "geometry": {"type": "Point", "coordinates": [2.3154088539592554, 48.88915585090584]}, "properties": {"name": "Pont Cardinet"}}, {"type": "Feature", "geometry": {"type": "Point", "coordinates": [2.324242279449081, 48.875796977111676]}, "properties": {"name": "Saint-Lazare"}}, {"type": "Feature", "geometry": {"type": "Point", "coordinates": [2.3265207734656794, 48.87040478302905]}, "properties": {"name": "Madeleine"}}, {"type": "Feature", "geometry": {"type": "Point", "coordinates": [2.3343918830069637, 48.86575423889825]}, "properties": {"name": "Pyramides"}}, {"type": "Feature", "geometry": {"type": "Point", "coordinates": [2.3461754428173194, 48.85986551680226]}, "properties": {"name": "Châtelet"}}, {"type": "Feature", "geometry": {"type": "Point", "coordinates": [2.3734393741436146, 48.84369710501924]}, "properties": {"name": "Gare de Lyon"}}, {"type": "Feature", "geometry": {"type": "Point", "coordinates": [2.380247773108027, 48.839496580934615]}, "properties": {"name": "Bercy"}}, {"type": "Feature", "geometry": {"type": "Point", "coordinates": [2.3865201396841957, 48.83328732487048]}, "properties": {"name": "Cour Saint-Emilion"}}, {"type": "Feature", "geometry": {"type": "Point", "coordinates": [2.3762167319668155, 48.8302301405883]}, "properties": {"name": "Bibliothèque François Mitterrand"}}, {"type": "Feature", "geometry": {"type": "Point", "coordinates": [2.367045489555525, 48.827142076614436]}, "properties": {"name": "Olympiades"}}, {"type": "Feature", "geometry": {"type": "Point", "coordinates": [2.35899710021638, 48.82144212979931]}, "properties": {"name": "Maison Blanche"}}, {"type": "Feature", "geometry": {"type": "Point", "coordinates": [2.349891844199236, 48.809988781117895]}, "properties": {"name": "Hôpital Bicêtre"}}, {"type": "Feature", "geometry": {"type": "Point", "coordinates": [2.3492973088672584, 48.79324779560297]}, "properties": {"name": "Villejuif - Gustave Roussy"}}, {"type": "Feature", "geometry": {"type": "Point", "coordinates": [2.3540770810846245, 48.77551939649038]}, "properties": {"name": "L'Haÿ-les-Roses"}}, {"type": "Feature", "geometry": {"type": "Point", "coordinates": [2.366460269684053, 48.758721560089825]}, "properties": {"name": "Chevilly-Larue (Marché International)"}}, {"type": "Feature", "geometry": {"type": "Point", "coordinates": [2.372761331581903, 48.7471881284398]}, "properties": {"name": "Thiais - Orly (Pont de Rungis)"}}, {"type": "Feature", "geometry": {"type": "Point", "coordinates": [2.362533612659413, 48.72824562683868]}, "properties": {"name": "Aéroport d'Orly"}}]}