{"type": "FeatureCollection", "features": [{"type": "Feature", "geometry": {"type": "LineString", "coordinates": [[2.364329, 48.881191], [2.365743, 48.881569], [2.366307, 48.881767], [2.367374, 48.882023], [2.369099, 48.882473], [2.369381, 48.882515], [2.369689, 48.882534], [2.369938, 48.882523], [2.370183, 48.882496], [2.370295, 48.882469], [2.370295, 48.882469], [2.370463, 48.882427], [2.370731, 48.882328], [2.373908, 48.880928], [2.373908, 48.880928], [2.378006, 48.879116], [2.378375, 48.878937], [2.379614, 48.878277], [2.37976, 48.878227], [2.37988, 48.878197], [2.380026, 48.878174], [2.380226, 48.878181], [2.380432, 48.878204], [2.380738, 48.878273], [2.381201, 48.878395], [2.381201, 48.878395], [2.382004, 48.878628], [2.383254, 48.879032], [2.383515, 48.879097], [2.38386, 48.879173], [2.384286, 48.879257], [2.384948, 48.879353], [2.38534, 48.879398], [2.386254, 48.879475], [2.387608, 48.879513], [2.388587, 48.879513], [2.388587, 48.879513], [2.389214, 48.879509], [2.389433, 48.879467], [2.389579, 48.879421], [2.389709, 48.879364], [2.389827, 48.879272], [2.390988, 48.878254], [2.392102, 48.877247], [2.392216, 48.877155], [2.392309, 48.877098], [2.392529, 48.877007], [2.392746, 48.876957], [2.392998, 48.876926], [2.393267, 48.876915], [2.393267, 48.876915], [2.393589, 48.876926], [2.393819, 48.876949], [2.393923, 48.876965], [2.394117, 48.877026], [2.395109, 48.877487], [2.395469, 48.877625], [2.395836, 48.877747], [2.39769, 48.87817], [2.398009, 48.878235], [2.398318, 48.878284], [2.399603, 48.878471], [2.399754, 48.878506], [2.399904, 48.878559], [2.400035, 48.878624], [2.400154, 48.878712], [2.400258, 48.878822], [2.400324, 48.878933], [2.400359, 48.879051], [2.400361, 48.879173], [2.400326, 48.879299], [2.400249, 48.879429], [2.400143, 48.879536], [2.400007, 48.879627], [2.398843, 48.880249]]}, "properties": {"id": "metro-7bis", "source": "Ile-de-France Mobilites GTFS (data.iledefrance-mobilites.fr), Mobility License"}}, {"type": "Feature", "geometry": {"type": "Point", "coordinates": [2.3645611012811827, 48.88121592831257]}, "properties": {"name": "Louis Blanc"}}, {"type": "Feature", "geometry": {"type": "Point", "coordinates": [2.3704923133622087, 48.88237142343693]}, "properties": {"name": "Jaurès"}}, {"type": "Feature", "geometry": {"type": "Point", "coordinates": [2.374124871187542, 48.88078966297506]}, "properties": {"name": "Bolivar"}}, {"type": "Feature", "geometry": {"type": "Point", "coordinates": [2.3813935592653217, 48.878417237849874]}, "properties": {"name": "Buttes Chaumont"}}, {"type": "Feature", "geometry": {"type": "Point", "coordinates": [2.388703278207692, 48.87946203574071]}, "properties": {"name": "Botzaris"}}, {"type": "Feature", "geometry": {"type": "Point", "coordinates": [2.3930553673117325, 48.87691209561659]}, "properties": {"name": "Place des Fêtes"}}, {"type": "Feature", "geometry": {"type": "Point", "coordinates": [2.398580770693528, 48.8801595806643]}, "properties": {"name": "Pré-Saint-Gervais"}}]}