{"type": "FeatureCollection", "features": [{"type": "Feature", "geometry": {"type": "LineString", "coordinates": [[2.441569, 48.862598], [2.441382, 48.861984], [2.43677, 48.858208], [2.43575, 48.857979], [2.43575, 48.857979], [2.423711, 48.855816], [2.423711, 48.855816], [2.416857, 48.854607], [2.410651, 48.853523], [2.410651, 48.853523], [2.407488, 48.85294], [2.406731, 48.852802], [2.406115, 48.852707], [2.406115, 48.852707], [2.401376, 48.851818], [2.401376, 48.851818], [2.400978, 48.851749], [2.398912, 48.850529], [2.397143, 48.849228], [2.397058, 48.849182], [2.396878, 48.849117], [2.39663, 48.849049], [2.396362, 48.848991], [2.396107, 48.848953], [2.396107, 48.848953], [2.395772, 48.848942], [2.395421, 48.848961], [2.395095, 48.84901], [2.394951, 48.849049], [2.394814, 48.849091], [2.394693, 48.849144], [2.394575, 48.849216], [2.390465, 48.85154], [2.388791, 48.852581], [2.388791, 48.852581], [2.385356, 48.854744], [2.385356, 48.854744], [2.380627, 48.857635], [2.379804, 48.858158], [2.379804, 48.858158], [2.374796, 48.861053], [2.374796, 48.861053], [2.369543, 48.864113], [2.368234, 48.864891], [2.368234, 48.864891], [2.367507, 48.865322], [2.367166, 48.865597], [2.366209, 48.866177], [2.365506, 48.866467], [2.364288, 48.86692], [2.364138, 48.866989], [2.363983, 48.867073], [2.36365, 48.867302], [2.362913, 48.867744], [2.362913, 48.867744], [2.362622, 48.867905], [2.362412, 48.868008], [2.362287, 48.868061], [2.362186, 48.868092], [2.362076, 48.868118], [2.360068, 48.868343], [2.359381, 48.868393], [2.357698, 48.868637], [2.356237, 48.868866], [2.355752, 48.868958], [2.355112, 48.869095], [2.353726, 48.869411], [2.353726, 48.869411], [2.351023, 48.870033], [2.348944, 48.870476], [2.348944, 48.870476], [2.347917, 48.870674], [2.347406, 48.870758], [2.343572, 48.871433], [2.343572, 48.871433], [2.342227, 48.87167], [2.340649, 48.871922], [2.340265, 48.872009], [2.340007, 48.872055], [2.338802, 48.872211], [2.338802, 48.872211], [2.338032, 48.872311], [2.336455, 48.872494], [2.335153, 48.872665], [2.333872, 48.872879], [2.333872, 48.872879], [2.333257, 48.87294], [2.333017, 48.872986], [2.32743, 48.873753], [2.32743, 48.873753], [2.326984, 48.873837], [2.326773, 48.873863], [2.326146, 48.873875], [2.325905, 48.87389], [2.325646, 48.873913], [2.325366, 48.873955], [2.324872, 48.87405], [2.32131, 48.874535], [2.32131, 48.874535], [2.320366, 48.874664], [2.320113, 48.874676], [2.319974, 48.874668], [2.319819, 48.874649], [2.319669, 48.874619], [2.318716, 48.874393], [2.315215, 48.873798], [2.315215, 48.873798], [2.312414, 48.873302], [2.310805, 48.872921], [2.310599, 48.87286], [2.310414, 48.872784], [2.310306, 48.872715], [2.310219, 48.872639], [2.310159, 48.87257], [2.310106, 48.872482], [2.310067, 48.872379], [2.31005, 48.872234], [2.31005, 48.872234], [2.310066, 48.869633], [2.31006, 48.869514], [2.310036, 48.869396], [2.309984, 48.869194], [2.309927, 48.869034], [2.309927, 48.869034], [2.309873, 48.868935], [2.30978, 48.868835], [2.309712, 48.868774], [2.309522, 48.868645], [2.308509, 48.868114], [2.303015, 48.865345], [2.302926, 48.865253], [2.302746, 48.864948], [2.302671, 48.864868], [2.302505, 48.864742], [2.302153, 48.864544], [2.301958, 48.864491], [2.301754, 48.864471], [2.301322, 48.864502], [2.300863, 48.864624], [2.300292, 48.864868], [2.300292, 48.864868], [2.299702, 48.865112], [2.299399, 48.865173], [2.29905, 48.865196], [2.294268, 48.864716], [2.293734, 48.864613], [2.293734, 48.864613], [2.292562, 48.864384], [2.287906, 48.863152], [2.287571, 48.863121], [2.287226, 48.863113], [2.287226, 48.863113], [2.286232, 48.863136], [2.285868, 48.863152], [2.28394, 48.863335], [2.279665, 48.863827], [2.278149, 48.864067], [2.278149, 48.864067], [2.277833, 48.864067], [2.277644, 48.864052], [2.277521, 48.864021], [2.277408, 48.863979], [2.277212, 48.863865], [2.277105, 48.863773], [2.27676, 48.863426], [2.27665, 48.863308], [2.276546, 48.863171], [2.276459, 48.863041], [2.27542, 48.861225], [2.27512, 48.86068], [2.275011, 48.860416], [2.274994, 48.860321], [2.275027, 48.860203], [2.275168, 48.859875], [2.275212, 48.859684], [2.275211, 48.859493], [2.275082, 48.85894], [2.274996, 48.858658], [2.274967, 48.858467], [2.274928, 48.858368], [2.274864, 48.858292], [2.274738, 48.858234], [2.274604, 48.8582], [2.274474, 48.858185], [2.274344, 48.858135], [2.274203, 48.858074], [2.274062, 48.857975], [2.274062, 48.857975], [2.270217, 48.855576], [2.270217, 48.855576], [2.270095, 48.855469], [2.269302, 48.85466], [2.26818, 48.852558], [2.26818, 48.852558], [2.266347, 48.849144], [2.26625, 48.849007], [2.266167, 48.848949], [2.264981, 48.848377], [2.264545, 48.84819], [2.264287, 48.848061], [2.264287, 48.848061], [2.264134, 48.847942], [2.263943, 48.84774], [2.261491, 48.844753], [2.261491, 48.844753], [2.260047, 48.843006], [2.260047, 48.843006], [2.259092, 48.841797], [2.258257, 48.840519], [2.257442, 48.83876], [2.25728, 48.838463], [2.256558, 48.837795], [2.256558, 48.837795], [2.25649, 48.837738], [2.256301, 48.837624], [2.253377, 48.836742], [2.253163, 48.836628], [2.243593, 48.833649], [2.243593, 48.833649], [2.23978, 48.832512], [2.238029, 48.831959], [2.23735, 48.831753], [2.23735, 48.831753], [2.236666, 48.831547], [2.232851, 48.830303], [2.230576, 48.829586]]}, "properties": {"id": "metro-9", "source": "Ile-de-France Mobilites GTFS (data.iledefrance-mobilites.fr), Mobility License"}}, {"type": "Feature", "geometry": {"type": "Point", "coordinates": [2.4414920644998293, 48.86229089668202]}, "properties": {"name": "Mairie de Montreuil"}}, {"type": "Feature", "geometry": {"type": "Point", "coordinates": [2.4358546126745826, 48.857992585158016]}, "properties": {"name": "Croix de Chavaux"}}, {"type": "Feature", "geometry": {"type": "Point", "coordinates": [2.4228907193765097, 48.855727372069104]}, "properties": {"name": "Robespierre"}}, {"type": "Feature", "geometry": {"type": "Point", "coordinates": [2.4107036110235414, 48.853563500943025]}, "properties": {"name": "Porte de Montreuil"}}, {"type": "Feature", "geometry": {"type": "Point", "coordinates": [2.406038544798052, 48.85273102047999]}, "properties": {"name": "Maraîchers"}}, {"type": "Feature", "geometry": {"type": "Point", "coordinates": [2.401170769368413, 48.85176243983227]}, "properties": {"name": "Buzenval"}}, {"type": "Feature", "geometry": {"type": "Point", "coordinates": [2.395847397651762, 48.84896567387026]}, "properties": {"name": "Nation"}}, {"type": "Feature", "geometry": {"type": "Point", "coordinates": [2.389429968854563, 48.85236862327955]}, "properties": {"name": "Rue des Boulets"}}, {"type": "Feature", "geometry": {"type": "Point", "coordinates": [2.3849153670338272, 48.85498959126104]}, "properties": {"name": "Charonne"}}, {"type": "Feature", "geometry": {"type": "Point", "coordinates": [2.3800699052713505, 48.85788746926412]}, "properties": {"name": "Voltaire"}}, {"type": "Feature", "geometry": {"type": "Point", "coordinates": [2.3739964519221886, 48.861480218467655]}, "properties": {"name": "Saint-Ambroise"}}, {"type": "Feature", "geometry": {"type": "Point", "coordinates": [2.3682236708807456, 48.86487188759515]}, "properties": {"name": "Oberkampf"}}, {"type": "Feature", "geometry": {"type": "Point", "coordinates": [2.3633023407804536, 48.86751235781114]}, "properties": {"name": "République"}}, {"type": "Feature", "geometry": {"type": "Point", "coordinates": [2.353634821486943, 48.869457077556724]}, "properties": {"name": "Strasbourg - Saint-Denis"}}, {"type": "Feature", "geometry": {"type": "Point", "coordinates": [2.3484940979375373, 48.8706433160169]}, "properties": {"name": "Bonne Nouvelle"}}, {"type": "Feature", "geometry": {"type": "Point", "coordinates": [2.3432202183423976, 48.871558801223806]}, "properties": {"name": "Grands Boulevards"}}, {"type": "Feature", "geometry": {"type": "Point", "coordinates": [2.3386163553228103, 48.87223943327036]}, "properties": {"name": "Richelieu - Drouot"}}, {"type": "Feature", "geometry": {"type": "Point", "coordinates": [2.333782253062422, 48.872918607275146]}, "properties": {"name": "Chaussée d'Antin - La Fayette"}}, {"type": "Feature", "geometry": {"type": "Point", "coordinates": [2.327677208279404, 48.8737568325288]}, "properties": {"name": "Havre-Caumartin"}}, {"type": "Feature", "geometry": {"type": "Point", "coordinates": [2.321031570403537, 48.874632152132925]}, "properties": {"name": "Saint-Augustin"}}, {"type": "Feature", "geometry": {"type": "Point", "coordinates": [2.314956477016244, 48.87378363680945]}, "properties": {"name": "Miromesnil"}}, {"type": "Feature", "geometry": {"type": "Point", "coordinates": [2.310003605630067, 48.872010466196734]}, "properties": {"name": "Saint-Philippe-du-Roule"}}, {"type": "Feature", "geometry": {"type": "Point", "coordinates": [2.309488192337113, 48.86872488799857]}, "properties": {"name": "Franklin D. Roosevelt"}}, {"type": "Feature", "geometry": {"type": "Point", "coordinates": [2.301130527470699, 48.8647282422178]}, "properties": {"name": "Alma - Marceau"}}, {"type": "Feature", "geometry": {"type": "Point", "coordinates": [2.2938642256822708, 48.864780022257456]}, "properties": {"name": "Iéna"}}, {"type": "Feature", "geometry": {"type": "Point", "coordinates": [2.2868262498013006, 48.86308797989344]}, "properties": {"name": "Trocadéro"}}, {"type": "Feature", "geometry": {"type": "Point", "coordinates": [2.277916063289398, 48.86403732937509]}, "properties": {"name": "Rue de la Pompe"}}, {"type": "Feature", "geometry": {"type": "Point", "coordinates": [2.2740962446697224, 48.85809196689865]}, "properties": {"name": "La Muette"}}, {"type": "Feature", "geometry": {"type": "Point", "coordinates": [2.269948157934635, 48.85550355839564]}, "properties": {"name": "Ranelagh"}}, {"type": "Feature", "geometry": {"type": "Point", "coordinates": [2.267933291647067, 48.85243341872557]}, "properties": {"name": "Jasmin"}}, {"type": "Feature", "geometry": {"type": "Point", "coordinates": [2.2638093220226634, 48.84770893216831]}, "properties": {"name": "Michel-Ange - Auteuil"}}, {"type": "Feature", "geometry": {"type": "Point", "coordinates": [2.261459837479309, 48.844740025814346]}, "properties": {"name": "Michel-Ange - Molitor"}}, {"type": "Feature", "geometry": {"type": "Point", "coordinates": [2.2596118894611203, 48.84245319490149]}, "properties": {"name": "Exelmans"}}, {"type": "Feature", "geometry": {"type": "Point", "coordinates": [2.257046962033948, 48.83790444784959]}, "properties": {"name": "Porte de Saint-Cloud"}}, {"type": "Feature", "geometry": {"type": "Point", "coordinates": [2.24346821405889, 48.83380810724753]}, "properties": {"name": "Marcel Sembat"}}, {"type": "Feature", "geometry": {"type": "Point", "coordinates": [2.237891101038026, 48.83191997405451]}, "properties": {"name": "Billancourt"}}, {"type": "Feature", "geometry": {"type": "Point", "coordinates": [2.2305052170885546, 48.82966919074605]}, "properties": {"name": "Pont de Sèvres"}}]}