{"type": "FeatureCollection", "features": [{"type": "Feature", "geometry": {"type": "LineString", "coordinates": [[2.40649, 48.876255], [2.406033, 48.875671], [2.40594, 48.875542], [2.405863, 48.875416], [2.405733, 48.87516], [2.404538, 48.872154], [2.404402, 48.871723], [2.40431, 48.871521], [2.40431, 48.871521], [2.402774, 48.869785], [2.401315, 48.868099], [2.401315, 48.868099], [2.401062, 48.867798], [2.400435, 48.867153], [2.399507, 48.866051], [2.398918, 48.865387]]}, "properties": {"id": "metro-3bis", "source": "Ile-de-France Mobilites GTFS (data.iledefrance-mobilites.fr), Mobility License"}}, {"type": "Feature", "geometry": {"type": "Point", "coordinates": [2.4069512666209, 48.87663999703494]}, "properties": {"name": "Porte des Lilas"}}, {"type": "Feature", "geometry": {"type": "Point", "coordinates": [2.4042952390665273, 48.871707462278586]}, "properties": {"name": "Saint-Fargeau"}}, {"type": "Feature", "geometry": {"type": "Point", "coordinates": [2.40137638177115, 48.86826643066837]}, "properties": {"name": "Pelleport"}}, {"type": "Feature", "geometry": {"type": "Point", "coordinates": [2.3987264742864007, 48.865177409391045]}, "properties": {"name": "Gambetta"}}]}