{"type": "FeatureCollection", "features": [{"type": "Feature", "geometry": {"type": "LineString", "coordinates": [[2.380912, 48.914276], [2.38048, 48.91346], [2.380123, 48.912697], [2.379697, 48.911659], [2.37916, 48.910568], [2.378774, 48.909847], [2.378366, 48.908939], [2.377851, 48.908226], [2.377851, 48.908226], [2.374961, 48.905483], [2.374279, 48.905186], [2.373487, 48.905087], [2.372992, 48.905159], [2.372525, 48.905323], [2.371664, 48.906006], [2.371173, 48.906258], [2.370528, 48.906425], [2.365916, 48.906563], [2.365916, 48.906563], [2.362318, 48.906197], [2.361539, 48.906105], [2.361035, 48.905998], [2.360602, 48.905865], [2.360286, 48.905731], [2.35995, 48.905552], [2.359648, 48.905342], [2.359416, 48.905125], [2.359197, 48.904865], [2.359049, 48.904625], [2.358943, 48.904373], [2.358877, 48.904091], [2.358874, 48.903755], [2.358892, 48.903496], [2.359227, 48.900063], [2.359194, 48.898853], [2.359197, 48.898438], [2.359259, 48.897694], [2.359259, 48.897694], [2.359428, 48.894905], [2.359781, 48.893642], [2.359966, 48.892014], [2.359997, 48.890507], [2.359997, 48.890507], [2.359991, 48.8904], [2.359965, 48.890347], [2.359923, 48.890293], [2.359856, 48.890251], [2.359787, 48.890221], [2.359612, 48.890198], [2.35935, 48.890205], [2.358701, 48.890209], [2.356876, 48.890251], [2.356403, 48.890274], [2.355848, 48.890362], [2.355279, 48.890465], [2.34973, 48.891483], [2.34973, 48.891483], [2.347051, 48.891979], [2.346486, 48.89209], [2.345271, 48.892349], [2.344639, 48.892464], [2.344639, 48.892464], [2.34428, 48.892525], [2.343787, 48.892578], [2.342398, 48.89275], [2.342123, 48.892731], [2.342019, 48.892708], [2.341922, 48.892677], [2.341801, 48.89262], [2.341665, 48.892536], [2.340088, 48.891434], [2.339831, 48.89119], [2.339596, 48.890877], [2.338825, 48.889755], [2.338825, 48.889755], [2.338459, 48.889236], [2.338357, 48.888969], [2.338288, 48.888596], [2.338845, 48.885368], [2.338843, 48.885262], [2.338814, 48.885147], [2.338642, 48.884804], [2.338642, 48.884804], [2.338428, 48.884377], [2.338354, 48.884274], [2.338172, 48.884083], [2.338061, 48.883934], [2.337265, 48.882591], [2.337211, 48.882462], [2.337192, 48.882385], [2.337172, 48.882217], [2.337172, 48.882217], [2.337178, 48.882072], [2.337208, 48.881924], [2.337242, 48.881824], [2.33769, 48.881081], [2.337719, 48.881016], [2.337735, 48.880939], [2.337727, 48.880856], [2.337684, 48.880745], [2.33696, 48.87928], [2.336924, 48.879162], [2.33692, 48.879093], [2.336946, 48.878899], [2.33697, 48.878834], [2.337062, 48.878719], [2.337146, 48.878639], [2.337415, 48.878422], [2.337415, 48.878422], [2.337723, 48.878178], [2.337821, 48.87809], [2.338023, 48.877888], [2.338211, 48.877735], [2.338933, 48.877014], [2.339164, 48.876831], [2.339214, 48.876778], [2.339251, 48.876717], [2.339275, 48.876656], [2.339285, 48.876591], [2.339281, 48.876526], [2.3392, 48.876286], [2.33917, 48.876225], [2.339128, 48.876167], [2.339073, 48.876114], [2.339008, 48.876064], [2.338933, 48.876026], [2.33885, 48.875992], [2.33876, 48.875965], [2.338666, 48.87595], [2.338569, 48.875942], [2.338472, 48.875942], [2.338025, 48.875999], [2.337422, 48.876041], [2.337422, 48.876041], [2.332634, 48.876362], [2.332634, 48.876362], [2.332326, 48.876366], [2.332106, 48.876354], [2.331815, 48.876316], [2.331538, 48.876255], [2.331031, 48.87611], [2.330799, 48.876057], [2.330563, 48.876019], [2.328854, 48.875801], [2.328385, 48.875771], [2.327841, 48.875702], [2.327841, 48.875702], [2.327279, 48.875629], [2.327151, 48.875603], [2.327043, 48.875568], [2.326956, 48.875526], [2.32679, 48.875393], [2.326719, 48.875301], [2.326677, 48.875214], [2.326663, 48.875134], [2.326665, 48.875015], [2.326706, 48.874847], [2.326917, 48.874329], [2.326953, 48.874153], [2.326965, 48.873985], [2.32695, 48.873787], [2.326905, 48.873585], [2.326833, 48.873375], [2.326741, 48.873188], [2.32661, 48.873001], [2.325258, 48.871277], [2.325211, 48.871162], [2.325191, 48.871052], [2.325194, 48.870945], [2.325249, 48.870625], [2.325261, 48.870476], [2.32526, 48.870319], [2.32526, 48.870319], [2.325247, 48.870152], [2.325169, 48.869759], [2.325159, 48.869621], [2.325182, 48.86948], [2.325272, 48.869198], [2.32529, 48.869083], [2.325277, 48.86898], [2.325243, 48.868881], [2.32519, 48.86879], [2.324852, 48.86834], [2.323561, 48.866547], [2.323486, 48.866447], [2.323398, 48.866356], [2.323164, 48.866131], [2.323063, 48.86602], [2.322817, 48.865719], [2.322817, 48.865719], [2.322578, 48.865429], [2.322315, 48.8652], [2.321994, 48.864944], [2.321896, 48.864849], [2.31992, 48.862701], [2.319821, 48.862553], [2.319762, 48.862415], [2.319735, 48.862286], [2.31973, 48.862167], [2.319748, 48.862041], [2.319799, 48.861893], [2.319883, 48.861752], [2.319993, 48.861622], [2.320399, 48.861248], [2.320494, 48.861168], [2.320713, 48.861015], [2.320821, 48.860924], [2.32117, 48.860577], [2.32117, 48.860577], [2.322994, 48.858658], [2.322994, 48.858658], [2.32319, 48.858444], [2.323208, 48.858398], [2.324389, 48.85714], [2.324493, 48.85704], [2.325229, 48.856483], [2.325353, 48.856365], [2.325434, 48.856232], [2.325488, 48.856106], [2.325754, 48.855183], [2.325754, 48.855183], [2.326634, 48.852161], [2.326803, 48.85162], [2.326803, 48.85162], [2.326914, 48.851231], [2.327157, 48.850273], [2.32761, 48.848618], [2.327737, 48.848209], [2.327737, 48.848209], [2.327989, 48.847389], [2.328785, 48.844685], [2.328785, 48.844685], [2.328809, 48.844597], [2.328825, 48.844467], [2.328802, 48.844368], [2.328747, 48.84428], [2.328709, 48.844242], [2.327712, 48.843357], [2.327563, 48.84325], [2.327389, 48.843159], [2.327194, 48.84309], [2.326987, 48.84304], [2.326769, 48.843018], [2.326546, 48.843018], [2.326323, 48.84304], [2.32611, 48.843086], [2.324807, 48.843491], [2.324045, 48.843781], [2.324045, 48.843781], [2.323356, 48.84404], [2.321411, 48.844688], [2.320486, 48.845013], [2.320324, 48.845036], [2.320184, 48.845043], [2.320007, 48.845043], [2.319843, 48.84502], [2.317932, 48.844505], [2.317932, 48.844505], [2.317642, 48.844425], [2.317228, 48.844349], [2.316888, 48.844246], [2.316582, 48.844135], [2.312822, 48.843006], [2.312822, 48.843006], [2.311525, 48.842583], [2.310962, 48.842419], [2.308003, 48.841518], [2.308003, 48.841518], [2.30675, 48.841137], [2.305165, 48.840672], [2.301814, 48.839745], [2.301292, 48.839577], [2.301292, 48.839577], [2.300374, 48.839268], [2.299238, 48.838696], [2.297583, 48.837837], [2.296626, 48.837311], [2.296626, 48.837311], [2.295721, 48.836849], [2.294726, 48.836407], [2.293825, 48.836018], [2.293216, 48.83572], [2.292769, 48.83548], [2.292205, 48.835155], [2.290863, 48.834332], [2.28799, 48.832428], [2.28799, 48.832428], [2.285082, 48.830509], [2.283926, 48.829765], [2.282701, 48.828995], [2.279375, 48.827053], [2.279375, 48.827053], [2.278036, 48.826111], [2.277337, 48.825745], [2.275952, 48.825062], [2.273171, 48.824146]]}, "properties": {"id": "metro-12", "source": "Ile-de-France Mobilites GTFS (data.iledefrance-mobilites.fr), Mobility License"}}, {"type": "Feature", "geometry": {"type": "Point", "coordinates": [2.3806611929109462, 48.913630681483276]}, "properties": {"name": "Mairie d'Aubervilliers"}}, {"type": "Feature", "geometry": {"type": "Point", "coordinates": [2.37776552117174, 48.90818387770811]}, "properties": {"name": "Aimé Césaire"}}, {"type": "Feature", "geometry": {"type": "Point", "coordinates": [2.3658067611641695, 48.906574349911224]}, "properties": {"name": "Front Populaire"}}, {"type": "Feature", "geometry": {"type": "Point", "coordinates": [2.359103857300198, 48.89741064164834]}, "properties": {"name": "Porte de la Chapelle"}}, {"type": "Feature", "geometry": {"type": "Point", "coordinates": [2.359808478084024, 48.89057957856722]}, "properties": {"name": "Marx Dormoy"}}, {"type": "Feature", "geometry": {"type": "Point", "coordinates": [2.3500246218070155, 48.89154760285429]}, "properties": {"name": "Marcadet - Poissonniers"}}, {"type": "Feature", "geometry": {"type": "Point", "coordinates": [2.3445930113536537, 48.892475776148665]}, "properties": {"name": "Jules Joffrin"}}, {"type": "Feature", "geometry": {"type": "Point", "coordinates": [2.338463589982122, 48.889699132276796]}, "properties": {"name": "Lamarck - Caulaincourt"}}, {"type": "Feature", "geometry": {"type": "Point", "coordinates": [2.338394635220906, 48.884392717991425]}, "properties": {"name": "Abbesses"}}, {"type": "Feature", "geometry": {"type": "Point", "coordinates": [2.337222739640063, 48.882182875876346]}, "properties": {"name": "Pigalle"}}, {"type": "Feature", "geometry": {"type": "Point", "coordinates": [2.3374546190400913, 48.87836199275949]}, "properties": {"name": "Saint-Georges"}}, {"type": "Feature", "geometry": {"type": "Point", "coordinates": [2.3378736192226386, 48.8760350312806]}, "properties": {"name": "Notre-Dame-de-Lorette"}}, {"type": "Feature", "geometry": {"type": "Point", "coordinates": [2.3333022683310225, 48.87633342046079]}, "properties": {"name": "Trinité - d'Estienne d'Orves"}}, {"type": "Feature", "geometry": {"type": "Point", "coordinates": [2.327584547959951, 48.87565391692647]}, "properties": {"name": "Saint-Lazare"}}, {"type": "Feature", "geometry": {"type": "Point", "coordinates": [2.325131827413437, 48.87028004533676]}, "properties": {"name": "Madeleine"}}, {"type": "Feature", "geometry": {"type": "Point", "coordinates": [2.323058362902906, 48.8661808158217]}, "properties": {"name": "Concorde"}}, {"type": "Feature", "geometry": {"type": "Point", "coordinates": [2.320575836647556, 48.861071939526084]}, "properties": {"name": "Assemblée Nationale"}}, {"type": "Feature", "geometry": {"type": "Point", "coordinates": [2.3230759642515415, 48.85853194972854]}, "properties": {"name": "Solférino"}}, {"type": "Feature", "geometry": {"type": "Point", "coordinates": [2.3256998984524113, 48.85588467848543]}, "properties": {"name": "Rue du Bac"}}, {"type": "Feature", "geometry": {"type": "Point", "coordinates": [2.3268171555028045, 48.85169097730401]}, "properties": {"name": "Sèvres - Babylone"}}, {"type": "Feature", "geometry": {"type": "Point", "coordinates": [2.3277871847873874, 48.84833282904063]}, "properties": {"name": "Rennes"}}, {"type": "Feature", "geometry": {"type": "Point", "coordinates": [2.328564944227944, 48.84508150807547]}, "properties": {"name": "Notre-Dame-des-Champs"}}, {"type": "Feature", "geometry": {"type": "Point", "coordinates": [2.323865393384996, 48.84391284808313]}, "properties": {"name": "Montparnasse Bienvenue"}}, {"type": "Feature", "geometry": {"type": "Point", "coordinates": [2.3175087114640447, 48.84444335195695]}, "properties": {"name": "Falguière"}}, {"type": "Feature", "geometry": {"type": "Point", "coordinates": [2.312554745666783, 48.842958015471986]}, "properties": {"name": "Pasteur"}}, {"type": "Feature", "geometry": {"type": "Point", "coordinates": [2.3079137063600563, 48.84152824313428]}, "properties": {"name": "Volontaires"}}, {"type": "Feature", "geometry": {"type": "Point", "coordinates": [2.300977822126098, 48.83953628376544]}, "properties": {"name": "Vaugirard"}}, {"type": "Feature", "geometry": {"type": "Point", "coordinates": [2.2963913864809173, 48.83713505380496]}, "properties": {"name": "Convention"}}, {"type": "Feature", "geometry": {"type": "Point", "coordinates": [2.28806213329644, 48.83249895584159]}, "properties": {"name": "Porte de Versailles"}}, {"type": "Feature", "geometry": {"type": "Point", "coordinates": [2.2789586605256367, 48.826823295159116]}, "properties": {"name": "Corentin Celton"}}, {"type": "Feature", "geometry": {"type": "Point", "coordinates": [2.273640262967315, 48.82431780479707]}, "properties": {"name": "Mairie d'Issy"}}]}