{"type": "FeatureCollection", "features": [{"type": "Feature", "geometry": {"type": "LineString", "coordinates": [[2.410766, 48.920761], [2.403807, 48.914257], [2.403807, 48.914257], [2.3952, 48.90638], [2.395074, 48.906288], [2.393284, 48.904507], [2.392376, 48.903744], [2.39225, 48.903629], [2.39225, 48.903629], [2.391725, 48.903099], [2.391341, 48.902725], [2.38846, 48.900085], [2.388221, 48.899879], [2.385591, 48.897404], [2.385591, 48.897404], [2.382305, 48.89473], [2.382305, 48.89473], [2.377368, 48.89085], [2.377368, 48.89085], [2.374223, 48.888481], [2.374223, 48.888481], [2.372717, 48.887218], [2.371737, 48.886429], [2.369061, 48.884178], [2.369061, 48.884178], [2.368623, 48.883812], [2.366938, 48.882534], [2.366055, 48.88187], [2.365935, 48.881794], [2.365679, 48.88166], [2.365541, 48.881599], [2.365333, 48.881523], [2.364308, 48.881229], [2.364308, 48.881229], [2.3629, 48.880882], [2.362778, 48.880844], [2.362638, 48.880795], [2.36255, 48.880745], [2.362466, 48.88068], [2.36234, 48.880562], [2.362247, 48.880405], [2.362198, 48.880287], [2.362192, 48.880219], [2.362236, 48.880028], [2.362328, 48.879498], [2.36243, 48.879173], [2.36243, 48.879101], [2.362375, 48.878929], [2.362375, 48.878929], [2.36235, 48.878857], [2.362286, 48.878727], [2.360535, 48.877224], [2.360509, 48.877216], [2.359858, 48.876663], [2.359742, 48.876587], [2.359591, 48.876522], [2.35943, 48.876484], [2.359264, 48.876472], [2.358513, 48.876499], [2.358184, 48.876495], [2.35804, 48.876488], [2.35804, 48.876488], [2.357162, 48.8764], [2.357001, 48.8764], [2.356853, 48.876411], [2.356325, 48.876503], [2.356192, 48.876518], [2.35606, 48.876526], [2.355676, 48.876534], [2.355526, 48.876545], [2.355376, 48.876564], [2.349824, 48.877331], [2.349716, 48.877338], [2.34959, 48.877335], [2.349467, 48.877319], [2.348741, 48.877136], [2.348741, 48.877136], [2.34706, 48.87669], [2.34429, 48.875973], [2.34429, 48.875973], [2.339957, 48.87484], [2.339957, 48.87484], [2.333701, 48.873203], [2.333701, 48.873203], [2.333565, 48.873161], [2.333451, 48.873116], [2.333345, 48.873058], [2.333249, 48.872997], [2.333164, 48.872929], [2.33309, 48.872856], [2.33303, 48.872776], [2.332982, 48.872692], [2.332949, 48.872608], [2.332746, 48.871979], [2.332355, 48.871017], [2.332286, 48.87072], [2.332274, 48.870544], [2.33228, 48.870384], [2.332318, 48.870232], [2.332355, 48.870132], [2.332507, 48.869804], [2.332507, 48.869804], [2.333281, 48.868256], [2.334308, 48.866028], [2.334532, 48.86552], [2.334532, 48.86552], [2.335386, 48.863583], [2.335601, 48.863354], [2.336015, 48.863148], [2.336639, 48.862892], [2.336639, 48.862892], [2.339672, 48.862068], [2.339896, 48.861931], [2.340029, 48.861759], [2.340106, 48.861584], [2.340134, 48.861393], [2.340148, 48.86113], [2.340026, 48.859463], [2.340054, 48.859226], [2.340137, 48.859089], [2.340286, 48.858967], [2.34046, 48.858887], [2.340694, 48.858818], [2.341057, 48.858784], [2.341839, 48.858673], [2.341839, 48.858673], [2.34248, 48.858543], [2.342625, 48.858501], [2.344986, 48.8578], [2.346514, 48.857391], [2.348342, 48.856853], [2.348342, 48.856853], [2.349235, 48.856583], [2.350705, 48.856071], [2.353946, 48.854797], [2.356591, 48.853786], [2.356591, 48.853786], [2.360243, 48.85244], [2.360734, 48.852207], [2.361165, 48.851917], [2.361817, 48.851395], [2.361817, 48.851395], [2.36343, 48.850029], [2.363542, 48.849846], [2.363558, 48.849667], [2.363497, 48.849495], [2.363397, 48.849365], [2.360209, 48.847301], [2.359017, 48.84655], [2.358696, 48.846378], [2.358461, 48.846283], [2.35822, 48.846195], [2.357807, 48.846088], [2.357274, 48.845989], [2.3571, 48.845966], [2.356821, 48.84594], [2.35656, 48.845943], [2.355351, 48.845997], [2.355112, 48.845993], [2.354801, 48.845963], [2.354801, 48.845963], [2.354563, 48.845917], [2.354382, 48.845856], [2.354257, 48.845802], [2.354137, 48.845737], [2.353586, 48.845417], [2.352716, 48.844883], [2.352596, 48.844772], [2.352527, 48.844643], [2.352488, 48.844547], [2.352461, 48.844437], [2.352396, 48.843967], [2.352277, 48.842907], [2.352277, 48.842907], [2.351933, 48.840649], [2.351933, 48.840649], [2.350974, 48.838692], [2.350919, 48.838501], [2.352674, 48.835629], [2.352674, 48.835629], [2.353556, 48.834362], [2.353575, 48.834366], [2.354195, 48.833469], [2.35533, 48.831467], [2.355595, 48.830997], [2.355686, 48.830765], [2.355958, 48.83028], [2.356029, 48.830139], [2.356079, 48.830006], [2.35641, 48.828949], [2.356448, 48.828957], [2.356117, 48.830013], [2.356066, 48.830147], [2.355994, 48.830292], [2.35533, 48.831467], [2.35533, 48.831467], [2.354195, 48.833469], [2.353575, 48.834366], [2.353539, 48.834354], [2.354159, 48.833462], [2.355958, 48.83028], [2.356029, 48.830139], [2.356079, 48.830006], [2.35641, 48.828949], [2.356429, 48.828953], [2.357162, 48.826698], [2.357351, 48.826092], [2.357351, 48.826092], [2.358482, 48.822544], [2.358787, 48.821465], [2.358787, 48.821465], [2.359533, 48.819088], [2.360055, 48.817493], [2.360595, 48.815414], [2.360656, 48.815228], [2.360761, 48.814835], [2.361763, 48.81192], [2.361902, 48.811382], [2.362236, 48.810329], [2.362236, 48.810329], [2.362379, 48.809788], [2.363052, 48.80761], [2.36379, 48.80513], [2.36379, 48.80513], [2.364757, 48.801975], [2.364869, 48.801678], [2.364943, 48.801434], [2.365152, 48.800671], [2.365302, 48.80019], [2.365374, 48.800049], [2.365445, 48.799946], [2.365527, 48.799858], [2.365663, 48.799747], [2.365816, 48.799637], [2.366933, 48.798866], [2.367185, 48.798653], [2.367426, 48.798389], [2.367584, 48.798145], [2.368011, 48.797138], [2.368356, 48.796154], [2.368356, 48.796154], [2.368577, 48.79546], [2.369015, 48.794155], [2.369658, 48.791653], [2.369504, 48.791088], [2.368406, 48.788963], [2.368183, 48.788589], [2.367386, 48.786942]]}, "properties": {"id": "metro-7", "source": "Ile-de-France Mobilites GTFS (data.iledefrance-mobilites.fr), Mobility License"}}, {"type": "Feature", "geometry": {"type": "Point", "coordinates": [2.410008476572451, 48.92037064946693]}, "properties": {"name": "La Courneuve - 8 Mai 1945"}}, {"type": "Feature", "geometry": {"type": "Point", "coordinates": [2.404075377271855, 48.91475665506255]}, "properties": {"name": "Fort d'Aubervilliers"}}, {"type": "Feature", "geometry": {"type": "Point", "coordinates": [2.3921143824978492, 48.90379699038963]}, "properties": {"name": "Aubervilliers - Pantin - Quatre Chemins"}}, {"type": "Feature", "geometry": {"type": "Point", "coordinates": [2.3857788171360426, 48.897865181710756]}, "properties": {"name": "Porte de la Villette"}}, {"type": "Feature", "geometry": {"type": "Point", "coordinates": [2.382291557164633, 48.89467266005628]}, "properties": {"name": "Corentin Cariou"}}, {"type": "Feature", "geometry": {"type": "Point", "coordinates": [2.376977079603683, 48.8908500011999]}, "properties": {"name": "Crimée"}}, {"type": "Feature", "geometry": {"type": "Point", "coordinates": [2.373397585816476, 48.88797147826378]}, "properties": {"name": "Riquet"}}, {"type": "Feature", "geometry": {"type": "Point", "coordinates": [2.3688985490576733, 48.88437303056126]}, "properties": {"name": "Stalingrad"}}, {"type": "Feature", "geometry": {"type": "Point", "coordinates": [2.3643562491890786, 48.88124182075271]}, "properties": {"name": "Louis Blanc"}}, {"type": "Feature", "geometry": {"type": "Point", "coordinates": [2.362016833907376, 48.87853138310796]}, "properties": {"name": "Château Landon"}}, {"type": "Feature", "geometry": {"type": "Point", "coordinates": [2.3581030566976637, 48.876361054333444]}, "properties": {"name": "Gare de l'Est"}}, {"type": "Feature", "geometry": {"type": "Point", "coordinates": [2.3486179472197333, 48.877092239756735]}, "properties": {"name": "Poissonnière"}}, {"type": "Feature", "geometry": {"type": "Point", "coordinates": [2.3445682185845564, 48.87602690614649]}, "properties": {"name": "Cadet"}}, {"type": "Feature", "geometry": {"type": "Point", "coordinates": [2.3401505597063736, 48.874959406040965]}, "properties": {"name": "Le Peletier"}}, {"type": "Feature", "geometry": {"type": "Point", "coordinates": [2.333669568112413, 48.873201272012516]}, "properties": {"name": "Chaussée d'Antin - La Fayette"}}, {"type": "Feature", "geometry": {"type": "Point", "coordinates": [2.332523799098475, 48.87005169228101]}, "properties": {"name": "Opéra"}}, {"type": "Feature", "geometry": {"type": "Point", "coordinates": [2.3343922277134226, 48.86572726045214]}, "properties": {"name": "Pyramides"}}, {"type": "Feature", "geometry": {"type": "Point", "coordinates": [2.336883197034159, 48.86280022507881]}, "properties": {"name": "Palais Royal - Musée du Louvre"}}, {"type": "Feature", "geometry": {"type": "Point", "coordinates": [2.3417089232034765, 48.858456031111984]}, "properties": {"name": "Pont Neuf"}}, {"type": "Feature", "geometry": {"type": "Point", "coordinates": [2.3481614412596072, 48.85691748918578]}, "properties": {"name": "Châtelet"}}, {"type": "Feature", "geometry": {"type": "Point", "coordinates": [2.357225878180536, 48.853530998742485]}, "properties": {"name": "Pont Marie (Cité des Arts)"}}, {"type": "Feature", "geometry": {"type": "Point", "coordinates": [2.3617770095283794, 48.851369931170915]}, "properties": {"name": "Sully - Morland"}}, {"type": "Feature", "geometry": {"type": "Point", "coordinates": [2.354798309820857, 48.84596333903808]}, "properties": {"name": "Jussieu"}}, {"type": "Feature", "geometry": {"type": "Point", "coordinates": [2.3520055901754713, 48.842683564383904]}, "properties": {"name": "Place Monge"}}, {"type": "Feature", "geometry": {"type": "Point", "coordinates": [2.351495277596339, 48.84026600820119]}, "properties": {"name": "Censier - Daubenton"}}, {"type": "Feature", "geometry": {"type": "Point", "coordinates": [2.352580500913751, 48.83582452114678]}, "properties": {"name": "Les Gobelins"}}, {"type": "Feature", "geometry": {"type": "Point", "coordinates": [2.3554652304882717, 48.831703001759486]}, "properties": {"name": "Place d'Italie"}}, {"type": "Feature", "geometry": {"type": "Point", "coordinates": [2.357018567738162, 48.82615323734341]}, "properties": {"name": "Tolbiac"}}, {"type": "Feature", "geometry": {"type": "Point", "coordinates": [2.3584964076718387, 48.82228486058752]}, "properties": {"name": "Maison Blanche"}}, {"type": "Feature", "geometry": {"type": "Point", "coordinates": [2.3621424901753403, 48.81037855146343]}, "properties": {"name": "Le Kremlin-Bicêtre"}}, {"type": "Feature", "geometry": {"type": "Point", "coordinates": [2.3639317476477353, 48.80435318028833]}, "properties": {"name": "Villejuif Léo Lagrange"}}, {"type": "Feature", "geometry": {"type": "Point", "coordinates": [2.368262666952309, 48.79638952164656]}, "properties": {"name": "Villejuif Paul Vaillant-Couturier"}}, {"type": "Feature", "geometry": {"type": "Point", "coordinates": [2.3677168990538426, 48.787572501132765]}, "properties": {"name": "Villejuif - Louis Aragon"}}]}