{"type": "FeatureCollection", "features": [{"type": "Feature", "geometry": {"type": "LineString", "coordinates": [[2.36443, 48.842449], [2.364164, 48.842857], [2.364119, 48.842937], [2.364084, 48.843018], [2.364061, 48.843102], [2.36405, 48.843189], [2.36405, 48.843269], [2.36406, 48.843349], [2.364092, 48.843456], [2.364277, 48.843895], [2.364319, 48.844013], [2.364345, 48.844128], [2.364347, 48.844215], [2.364335, 48.844303], [2.364309, 48.844391], [2.36427, 48.844479], [2.364217, 48.844559], [2.364152, 48.844639], [2.364074, 48.844711], [2.363986, 48.84478], [2.363971, 48.844772], [2.362293, 48.845898], [2.360949, 48.846813], [2.36073, 48.846973], [2.360554, 48.847115], [2.360408, 48.847252], [2.360309, 48.847324], [2.360196, 48.847382], [2.360057, 48.847424], [2.359872, 48.847462], [2.359653, 48.847481], [2.359456, 48.847477], [2.359252, 48.847443], [2.359065, 48.847393], [2.35888, 48.847309], [2.357463, 48.846386], [2.357336, 48.846321], [2.357123, 48.846245], [2.356858, 48.846176], [2.356661, 48.846142], [2.356424, 48.846127], [2.355986, 48.846134], [2.355986, 48.846134], [2.35546, 48.846153], [2.354789, 48.846149], [2.354643, 48.846134], [2.354436, 48.846088], [2.354294, 48.846039], [2.354024, 48.845921], [2.353915, 48.845882], [2.353641, 48.845829], [2.353383, 48.845818], [2.353218, 48.845833], [2.353108, 48.845848], [2.352987, 48.845879], [2.352856, 48.845924], [2.352713, 48.845985], [2.351764, 48.846508], [2.351764, 48.846508], [2.351622, 48.846657], [2.349433, 48.849457], [2.349138, 48.849842], [2.349093, 48.849888], [2.349032, 48.849937], [2.348967, 48.849976], [2.348887, 48.850002], [2.348371, 48.850105], [2.348371, 48.850105], [2.34421, 48.851105], [2.34421, 48.851105], [2.343497, 48.851295], [2.339329, 48.852222], [2.339329, 48.852222], [2.338004, 48.85257], [2.337339, 48.852737], [2.336365, 48.853004], [2.336129, 48.853046], [2.335816, 48.853058], [2.335501, 48.853016], [2.334984, 48.852901], [2.334984, 48.852901], [2.334414, 48.852798], [2.333586, 48.852684], [2.333235, 48.852669], [2.332826, 48.852619], [2.328785, 48.851902], [2.328371, 48.851803], [2.327756, 48.851685], [2.327336, 48.851612], [2.326899, 48.851471], [2.326092, 48.85107], [2.326092, 48.85107], [2.325821, 48.850933], [2.323772, 48.850067], [2.323122, 48.849751], [2.32188, 48.849121], [2.32188, 48.849121], [2.321172, 48.84877], [2.320061, 48.848175], [2.319371, 48.847889], [2.31837, 48.847488], [2.316776, 48.846905], [2.316628, 48.846832], [2.315973, 48.84663], [2.315973, 48.84663], [2.311989, 48.845409], [2.311683, 48.845352], [2.311429, 48.845329], [2.311187, 48.845329], [2.310916, 48.845364], [2.310655, 48.845425], [2.309623, 48.845734], [2.309548, 48.84576], [2.309322, 48.845856], [2.307482, 48.846989], [2.307482, 48.846989], [2.304531, 48.848896], [2.301524, 48.850811], [2.301337, 48.850895], [2.301125, 48.850937], [2.3009, 48.850948], [2.300736, 48.850925], [2.300531, 48.850872], [2.300382, 48.85078], [2.298096, 48.849209], [2.298026, 48.849144], [2.298026, 48.849144], [2.296916, 48.848164], [2.29611, 48.847301], [2.295988, 48.84721], [2.295841, 48.847126], [2.295723, 48.84708], [2.295539, 48.847031], [2.295311, 48.846992], [2.295311, 48.846992], [2.29207, 48.846836], [2.285872, 48.846504], [2.285872, 48.846504], [2.282265, 48.846344], [2.278296, 48.846138], [2.278296, 48.846138], [2.278066, 48.846146], [2.277667, 48.846115], [2.276882, 48.845978], [2.276451, 48.845982], [2.276189, 48.846031], [2.275951, 48.8461], [2.273955, 48.846947], [2.273629, 48.847069], [2.273271, 48.847137], [2.272901, 48.847137], [2.272505, 48.847057], [2.272048, 48.846935], [2.2711, 48.846622], [2.270782, 48.846573], [2.270468, 48.846592], [2.270246, 48.846615], [2.270018, 48.846676], [2.26988, 48.846725], [2.268693, 48.84734], [2.268693, 48.84734], [2.268494, 48.847431], [2.268264, 48.8475], [2.268071, 48.847546], [2.267872, 48.847557], [2.267083, 48.847496], [2.266823, 48.847507], [2.266448, 48.847553], [2.265584, 48.847725], [2.265044, 48.847866], [2.264892, 48.847931], [2.264584, 48.848026], [2.264317, 48.848072], [2.264158, 48.848072], [2.263897, 48.848057], [2.263897, 48.848057], [2.262713, 48.847973], [2.262049, 48.847935], [2.2617, 48.847923], [2.260475, 48.847916], [2.259965, 48.847935], [2.25877, 48.848068], [2.25877, 48.848068], [2.257955, 48.848156], [2.257795, 48.848156], [2.257595, 48.848129], [2.257507, 48.848103], [2.257315, 48.84803], [2.257218, 48.847973], [2.257135, 48.847904], [2.257024, 48.847782], [2.256992, 48.847733], [2.256579, 48.846996], [2.256413, 48.846642], [2.256197, 48.846115], [2.256073, 48.84594], [2.255991, 48.84576], [2.255924, 48.84565], [2.255867, 48.845585], [2.255777, 48.845516], [2.255632, 48.845444], [2.255412, 48.845371], [2.250185, 48.844257], [2.246283, 48.843452], [2.240462, 48.842331], [2.240001, 48.842258], [2.239354, 48.842136], [2.239354, 48.842136], [2.238865, 48.842045], [2.238553, 48.841965], [2.2374, 48.841743], [2.2371, 48.84169], [2.236921, 48.841679], [2.234731, 48.84161], [2.232354, 48.841469], [2.231578, 48.841415], [2.231396, 48.841396], [2.23123, 48.84137], [2.229294, 48.840935], [2.229136, 48.840908], [2.228941, 48.840889], [2.22884, 48.840885], [2.228326, 48.840897]]}, "properties": {"id": "metro-10", "source": "Ile-de-France Mobilites GTFS (data.iledefrance-mobilites.fr), Mobility License"}}, {"type": "Feature", "geometry": {"type": "Point", "coordinates": [2.3645307640842486, 48.842355035073275]}, "properties": {"name": "Gare d'Austerlitz"}}, {"type": "Feature", "geometry": {"type": "Point", "coordinates": [2.354891240074385, 48.8461616992531]}, "properties": {"name": "Jussieu"}}, {"type": "Feature", "geometry": {"type": "Point", "coordinates": [2.3513280016731763, 48.84670003526311]}, "properties": {"name": "Cardinal Lemoine"}}, {"type": "Feature", "geometry": {"type": "Point", "coordinates": [2.3480007542648047, 48.85015347137307]}, "properties": {"name": "Maubert - Mutualité"}}, {"type": "Feature", "geometry": {"type": "Point", "coordinates": [2.3447064289544377, 48.85095388861443]}, "properties": {"name": "Cluny - La Sorbonne"}}, {"type": "Feature", "geometry": {"type": "Point", "coordinates": [2.340692291066523, 48.85202455451491]}, "properties": {"name": "Odéon"}}, {"type": "Feature", "geometry": {"type": "Point", "coordinates": [2.3349511176985804, 48.85291462140914]}, "properties": {"name": "Mabillon"}}, {"type": "Feature", "geometry": {"type": "Point", "coordinates": [2.326103178026289, 48.85104841403781]}, "properties": {"name": "Sèvres - Babylone"}}, {"type": "Feature", "geometry": {"type": "Point", "coordinates": [2.3214968472830684, 48.8489628479053]}, "properties": {"name": "Vaneau"}}, {"type": "Feature", "geometry": {"type": "Point", "coordinates": [2.3162247549746047, 48.84675637808778]}, "properties": {"name": "Duroc"}}, {"type": "Feature", "geometry": {"type": "Point", "coordinates": [2.3070325060290395, 48.84734203567811]}, "properties": {"name": "Ségur"}}, {"type": "Feature", "geometry": {"type": "Point", "coordinates": [2.2985257262366363, 48.84963080443241]}, "properties": {"name": "La Motte-Picquet - Grenelle"}}, {"type": "Feature", "geometry": {"type": "Point", "coordinates": [2.2946367205063405, 48.84699079226385]}, "properties": {"name": "Avenue Émile Zola"}}, {"type": "Feature", "geometry": {"type": "Point", "coordinates": [2.2856210133667174, 48.84660453239739]}, "properties": {"name": "Charles Michels"}}, {"type": "Feature", "geometry": {"type": "Point", "coordinates": [2.2776967318842414, 48.84613424996646]}, "properties": {"name": "Javel - André Citroën"}}, {"type": "Feature", "geometry": {"type": "Point", "coordinates": [2.269220521505225, 48.84713503444338]}, "properties": {"name": "Église d'Auteuil"}}, {"type": "Feature", "geometry": {"type": "Point", "coordinates": [2.2636623741296225, 48.84798233481017]}, "properties": {"name": "Michel-Ange - Auteuil"}}, {"type": "Feature", "geometry": {"type": "Point", "coordinates": [2.2584433605569973, 48.8479680874005]}, "properties": {"name": "Porte d'Auteuil"}}, {"type": "Feature", "geometry": {"type": "Point", "coordinates": [2.239395985554318, 48.842128505113145]}, "properties": {"name": "Boulogne Jean Jaurès"}}, {"type": "Feature", "geometry": {"type": "Point", "coordinates": [2.2285564914411955, 48.84076399289471]}, "properties": {"name": "Boulogne Pont de Saint-Cloud"}}]}