{"type": "FeatureCollection", "features": [{"type": "Feature", "geometry": {"type": "LineString", "coordinates": [[2.449179, 48.906338], [2.449181, 48.906044], [2.449201, 48.906044], [2.449207, 48.905193], [2.449232, 48.903606], [2.449225, 48.903179], [2.449217, 48.903065], [2.449198, 48.902946], [2.449146, 48.90271], [2.449066, 48.902493], [2.448895, 48.90218], [2.448794, 48.902042], [2.44856, 48.901772], [2.448444, 48.901665], [2.448192, 48.901463], [2.447903, 48.901276], [2.447593, 48.901112], [2.447195, 48.90094], [2.44686, 48.900829], [2.446541, 48.900745], [2.443031, 48.899914], [2.442614, 48.899818], [2.439517, 48.899212], [2.438516, 48.89904], [2.436676, 48.898678], [2.434269, 48.898174], [2.431705, 48.897655], [2.431684, 48.897636], [2.431461, 48.897598], [2.431201, 48.897514], [2.4308, 48.897366], [2.430171, 48.897118], [2.429523, 48.896847], [2.427962, 48.896164], [2.42729, 48.895912], [2.426883, 48.895779], [2.426482, 48.895668], [2.425955, 48.895554], [2.425193, 48.895435], [2.425193, 48.895435], [2.422511, 48.895008], [2.419837, 48.894527], [2.416019, 48.893791], [2.413311, 48.893257], [2.413311, 48.893257], [2.40609, 48.891872], [2.403944, 48.891472], [2.402844, 48.891338], [2.402538, 48.891281], [2.402538, 48.891281], [2.397294, 48.889858], [2.394936, 48.889248], [2.392674, 48.888649], [2.392674, 48.888649], [2.386678, 48.887062], [2.386678, 48.887062], [2.382356, 48.885918], [2.38078, 48.885513], [2.379461, 48.885162], [2.379461, 48.885162], [2.37577, 48.884205], [2.373561, 48.883614], [2.372397, 48.883312], [2.372397, 48.883312], [2.371737, 48.883156], [2.371431, 48.883121], [2.371176, 48.883125], [2.370643, 48.883224], [2.3704, 48.883316], [2.370168, 48.883446], [2.369717, 48.883793], [2.369473, 48.883923], [2.369158, 48.88406], [2.368846, 48.884155], [2.368526, 48.884228], [2.368209, 48.884266], [2.367081, 48.884346], [2.367081, 48.884346], [2.364979, 48.88448], [2.363339, 48.884525], [2.362993, 48.88451], [2.362632, 48.884483], [2.362341, 48.884438], [2.362025, 48.884369], [2.361717, 48.884262], [2.361396, 48.884113], [2.35939, 48.882965], [2.359217, 48.882881], [2.359061, 48.882774], [2.358913, 48.882645], [2.358815, 48.88253], [2.358137, 48.881371], [2.357369, 48.879906], [2.357245, 48.879677], [2.357192, 48.879597], [2.357192, 48.879597], [2.357147, 48.879528], [2.35704, 48.879406], [2.356858, 48.879299], [2.356648, 48.879227], [2.356157, 48.879101], [2.356005, 48.87904], [2.355872, 48.878963], [2.355772, 48.878872], [2.3557, 48.878754], [2.355333, 48.877499], [2.355314, 48.877354], [2.355323, 48.877209], [2.355374, 48.877052], [2.355465, 48.876915], [2.355651, 48.876709], [2.355768, 48.876614], [2.35589, 48.876549], [2.356056, 48.876469], [2.356213, 48.876419], [2.356848, 48.876312], [2.357068, 48.876301], [2.357605, 48.876339], [2.35779, 48.876343], [2.35779, 48.876343], [2.358126, 48.876343], [2.358366, 48.876324], [2.358685, 48.87627], [2.358869, 48.876225], [2.358967, 48.876194], [2.359084, 48.876141], [2.359201, 48.876072], [2.359421, 48.8759], [2.359519, 48.875771], [2.359544, 48.87569], [2.359506, 48.875591], [2.358807, 48.874454], [2.358656, 48.874191], [2.358572, 48.874027], [2.358547, 48.873901], [2.358546, 48.873775], [2.358579, 48.873615], [2.358667, 48.873447], [2.360754, 48.87112], [2.360754, 48.87112], [2.36174, 48.869946], [2.361809, 48.869843], [2.362454, 48.869076], [2.362693, 48.868816], [2.362956, 48.868576], [2.363311, 48.868279], [2.363853, 48.867867], [2.363853, 48.867867], [2.365144, 48.866867], [2.365992, 48.866165], [2.367051, 48.865501], [2.369404, 48.864044], [2.369404, 48.864044], [2.37101, 48.863052], [2.371355, 48.862823], [2.371494, 48.862709], [2.371657, 48.862553], [2.371939, 48.862194], [2.372068, 48.861916], [2.372174, 48.861626], [2.372197, 48.86137], [2.372202, 48.860893], [2.372172, 48.860638], [2.372139, 48.8605], [2.372089, 48.860363], [2.372025, 48.860222], [2.372025, 48.860222], [2.370794, 48.857521], [2.370398, 48.85664], [2.370398, 48.85664], [2.369209, 48.854088], [2.369106, 48.853981], [2.368815, 48.853745], [2.368698, 48.8536], [2.368527, 48.853252], [2.368527, 48.853252], [2.368382, 48.852962], [2.368256, 48.852779], [2.367927, 48.85247], [2.367884, 48.852417], [2.367763, 48.852226], [2.365899, 48.848179], [2.365746, 48.847862], [2.365517, 48.847435], [2.365479, 48.847301], [2.365476, 48.847195], [2.365492, 48.84708], [2.36554, 48.846928], [2.36562, 48.846756], [2.36567, 48.846684], [2.365779, 48.846561], [2.365886, 48.846474], [2.365886, 48.846474], [2.366902, 48.84568], [2.367071, 48.845581], [2.367317, 48.84547], [2.368162, 48.845188], [2.368279, 48.845135], [2.368634, 48.844872], [2.368707, 48.844803], [2.368762, 48.84473], [2.368792, 48.844688], [2.368845, 48.844574], [2.368864, 48.84446], [2.368859, 48.844387], [2.368826, 48.844265], [2.368792, 48.844204], [2.368743, 48.844135], [2.368683, 48.844074], [2.368576, 48.843987], [2.368514, 48.843948], [2.366516, 48.842773], [2.366292, 48.842667], [2.365556, 48.842377], [2.365556, 48.842377], [2.365035, 48.842175], [2.364807, 48.842098], [2.364569, 48.842033], [2.363972, 48.841904], [2.363769, 48.84185], [2.36364, 48.841805], [2.36354, 48.841755], [2.363393, 48.841663], [2.363306, 48.841576], [2.363187, 48.841442], [2.363032, 48.841248], [2.362028, 48.839893], [2.360819, 48.838287], [2.360819, 48.838287], [2.359257, 48.836559], [2.358184, 48.835121], [2.358184, 48.835121], [2.357813, 48.834633], [2.357111, 48.833881], [2.356982, 48.833733], [2.356866, 48.833588], [2.356277, 48.832794], [2.355994, 48.832382], [2.355858, 48.832245], [2.355778, 48.832195], [2.355686, 48.83215], [2.354877, 48.831932], [2.354724, 48.831879], [2.354615, 48.831821], [2.354519, 48.831757], [2.354428, 48.831669], [2.35436, 48.83157], [2.354328, 48.831467], [2.354323, 48.831364], [2.354343, 48.831245], [2.35438, 48.831169], [2.354431, 48.8311], [2.354488, 48.831043], [2.354666, 48.830936], [2.354754, 48.830898], [2.354854, 48.830872], [2.354983, 48.830856], [2.355119, 48.830849], [2.355325, 48.830853], [2.35557, 48.830872], [2.35571, 48.830894]]}, "properties": {"id": "metro-5", "source": "Ile-de-France Mobilites GTFS (data.iledefrance-mobilites.fr), Mobility License"}}, {"type": "Feature", "geometry": {"type": "Point", "coordinates": [2.4491504864191898, 48.9063121432738]}, "properties": {"name": "Bobigny - Pablo Picasso"}}, {"type": "Feature", "geometry": {"type": "Point", "coordinates": [2.426277595760804, 48.89563789793626]}, "properties": {"name": "Bobigny-Pantin - Raymond Queneau"}}, {"type": "Feature", "geometry": {"type": "Point", "coordinates": [2.413074999597678, 48.89324469416795]}, "properties": {"name": "Église de Pantin"}}, {"type": "Feature", "geometry": {"type": "Point", "coordinates": [2.403114154894396, 48.891495749437304]}, "properties": {"name": "Hoche"}}, {"type": "Feature", "geometry": {"type": "Point", "coordinates": [2.3919250813799326, 48.88847169637618]}, "properties": {"name": "Porte de Pantin"}}, {"type": "Feature", "geometry": {"type": "Point", "coordinates": [2.3866765356019912, 48.88714990283661]}, "properties": {"name": "Ourcq"}}, {"type": "Feature", "geometry": {"type": "Point", "coordinates": [2.3793117790180993, 48.88520088689033]}, "properties": {"name": "Laumière"}}, {"type": "Feature", "geometry": {"type": "Point", "coordinates": [2.371383333112514, 48.88311355416086]}, "properties": {"name": "Jaurès"}}, {"type": "Feature", "geometry": {"type": "Point", "coordinates": [2.367348121277192, 48.8841445128949]}, "properties": {"name": "Stalingrad"}}, {"type": "Feature", "geometry": {"type": "Point", "coordinates": [2.3572164888604563, 48.87970181695894]}, "properties": {"name": "Gare du Nord"}}, {"type": "Feature", "geometry": {"type": "Point", "coordinates": [2.357982972943156, 48.876081616617256]}, "properties": {"name": "Gare de l'Est"}}, {"type": "Feature", "geometry": {"type": "Point", "coordinates": [2.361023902048923, 48.870620926265296]}, "properties": {"name": "Jacques Bonsergent"}}, {"type": "Feature", "geometry": {"type": "Point", "coordinates": [2.3640990472225725, 48.867687468165165]}, "properties": {"name": "République"}}, {"type": "Feature", "geometry": {"type": "Point", "coordinates": [2.3685262686038397, 48.864581198067484]}, "properties": {"name": "Oberkampf"}}, {"type": "Feature", "geometry": {"type": "Point", "coordinates": [2.371814064197053, 48.859840966276586]}, "properties": {"name": "Richard-Lenoir"}}, {"type": "Feature", "geometry": {"type": "Point", "coordinates": [2.370168390294205, 48.856162974889436]}, "properties": {"name": "Bréguet-Sabin"}}, {"type": "Feature", "geometry": {"type": "Point", "coordinates": [2.3687984466220384, 48.85330031648217]}, "properties": {"name": "Bastille"}}, {"type": "Feature", "geometry": {"type": "Point", "coordinates": [2.365884650750405, 48.846427325479766]}, "properties": {"name": "Quai de la Rapée"}}, {"type": "Feature", "geometry": {"type": "Point", "coordinates": [2.3654431802574227, 48.842395852858516]}, "properties": {"name": "Gare d'Austerlitz"}}, {"type": "Feature", "geometry": {"type": "Point", "coordinates": [2.3606397867113924, 48.83853898898134]}, "properties": {"name": "Saint-Marcel"}}, {"type": "Feature", "geometry": {"type": "Point", "coordinates": [2.358468834639247, 48.835595431233266]}, "properties": {"name": "Campo-Formio"}}, {"type": "Feature", "geometry": {"type": "Point", "coordinates": [2.355501591481485, 48.830965713292656]}, "properties": {"name": "Place d'Italie"}}]}