{"type": "FeatureCollection", "features": [{"type": "Feature", "geometry": {"type": "LineString", "coordinates": [[2.280397, 48.897141], [2.284613, 48.892502], [2.285032, 48.892052], [2.285032, 48.892052], [2.285583, 48.891457], [2.286923, 48.889969], [2.287771, 48.889046], [2.28847, 48.888245], [2.28847, 48.888245], [2.289876, 48.886658], [2.290287, 48.886169], [2.290405, 48.886047], [2.290502, 48.885963], [2.290634, 48.885876], [2.290772, 48.885799], [2.291103, 48.885685], [2.291281, 48.885647], [2.291615, 48.88562], [2.292113, 48.885643], [2.292113, 48.885643], [2.29258, 48.885662], [2.293204, 48.885796], [2.294618, 48.886143], [2.29494, 48.886246], [2.29506, 48.886276], [2.295179, 48.886299], [2.295274, 48.886307], [2.295412, 48.886311], [2.295541, 48.886295], [2.295684, 48.886269], [2.295838, 48.886227], [2.295963, 48.886166], [2.296072, 48.886082], [2.29677, 48.885391], [2.296888, 48.885284], [2.296986, 48.885204], [2.297105, 48.885128], [2.297212, 48.885071], [2.297368, 48.884991], [2.297554, 48.884918], [2.297715, 48.884865], [2.297934, 48.884827], [2.298595, 48.884731], [2.298595, 48.884731], [2.300721, 48.884434], [2.301853, 48.884296], [2.302372, 48.884224], [2.303648, 48.883987], [2.30411, 48.883892], [2.30411, 48.883892], [2.305883, 48.88353], [2.309325, 48.882797], [2.309325, 48.882797], [2.309723, 48.882706], [2.309954, 48.882648], [2.310205, 48.882565], [2.310422, 48.882473], [2.310617, 48.88237], [2.310843, 48.882202], [2.312305, 48.881012], [2.312403, 48.880951], [2.312564, 48.880875], [2.312796, 48.88081], [2.312904, 48.880791], [2.31303, 48.880783], [2.313201, 48.880787], [2.313823, 48.880886], [2.314804, 48.881008], [2.315264, 48.881058], [2.315264, 48.881058], [2.316144, 48.881153], [2.316306, 48.881161], [2.316463, 48.881157], [2.316807, 48.881115], [2.316966, 48.881081], [2.320042, 48.880074], [2.320315, 48.880013], [2.321687, 48.879562], [2.321844, 48.879463], [2.321966, 48.879337], [2.322264, 48.878769], [2.322264, 48.878769], [2.323909, 48.875641], [2.324051, 48.875454], [2.324186, 48.875313], [2.324412, 48.875114], [2.324412, 48.875114], [2.325785, 48.874142], [2.325912, 48.874065], [2.326059, 48.873989], [2.326235, 48.873928], [2.326859, 48.873756], [2.327094, 48.873684], [2.327312, 48.8736], [2.327569, 48.873474], [2.328024, 48.873222], [2.328024, 48.873222], [2.328633, 48.872887], [2.331227, 48.871418], [2.331746, 48.871101], [2.331746, 48.871101], [2.332663, 48.870415], [2.332831, 48.870312], [2.333006, 48.870255], [2.335903, 48.869595], [2.335903, 48.869595], [2.338809, 48.869141], [2.340889, 48.868748], [2.341354, 48.868652], [2.341354, 48.868652], [2.341868, 48.868546], [2.342865, 48.868317], [2.345747, 48.86771], [2.345812, 48.867683], [2.346565, 48.867519], [2.346565, 48.867519], [2.351786, 48.86639], [2.351786, 48.86639], [2.355485, 48.865589], [2.355799, 48.86554], [2.356019, 48.865528], [2.356178, 48.865532], [2.356178, 48.865532], [2.356519, 48.865551], [2.356734, 48.865589], [2.360882, 48.866524], [2.360882, 48.866524], [2.361497, 48.866676], [2.36171, 48.866745], [2.362873, 48.867195], [2.363015, 48.867241], [2.363158, 48.867275], [2.363308, 48.867298], [2.363467, 48.86731], [2.363605, 48.86731], [2.363748, 48.867302], [2.363885, 48.867283], [2.364392, 48.867188], [2.364392, 48.867188], [2.368117, 48.866463], [2.370711, 48.865997], [2.373911, 48.865379], [2.373911, 48.865379], [2.379481, 48.864334], [2.379481, 48.864334], [2.386384, 48.863029], [2.386384, 48.863029], [2.386569, 48.862995], [2.386824, 48.862961], [2.387155, 48.862942], [2.387412, 48.862949], [2.387664, 48.862972], [2.387937, 48.863018], [2.388401, 48.863129], [2.391407, 48.863873], [2.394822, 48.86475], [2.395506, 48.864918], [2.395894, 48.864979], [2.396352, 48.864986], [2.397002, 48.864971], [2.397821, 48.864941], [2.397821, 48.864941], [2.398944, 48.864891], [2.400311, 48.864864], [2.403704, 48.864746], [2.405505, 48.864658], [2.408302, 48.864552], [2.408806, 48.864586], [2.408806, 48.864586], [2.409131, 48.864609], [2.409658, 48.8647], [2.411294, 48.865036], [2.411501, 48.865067], [2.411918, 48.865074], [2.412258, 48.865059], [2.412434, 48.86504], [2.414144, 48.864979], [2.415477, 48.864937]]}, "properties": {"id": "metro-3", "source": "Ile-de-France Mobilites GTFS (data.iledefrance-mobilites.fr), Mobility License"}}, {"type": "Feature", "geometry": {"type": "Point", "coordinates": [2.2804129300725515, 48.89712554969418]}, "properties": {"name": "Pont de Levallois - Bécon"}}, {"type": "Feature", "geometry": {"type": "Point", "coordinates": [2.28488635655016, 48.89219705500698]}, "properties": {"name": "Anatole France"}}, {"type": "Feature", "geometry": {"type": "Point", "coordinates": [2.2882653186751325, 48.88845798688394]}, "properties": {"name": "Louise Michel"}}, {"type": "Feature", "geometry": {"type": "Point", "coordinates": [2.2921124821588448, 48.885652393133846]}, "properties": {"name": "Porte de Champerret"}}, {"type": "Feature", "geometry": {"type": "Point", "coordinates": [2.2976831860125837, 48.88484432273985]}, "properties": {"name": "Pereire"}}, {"type": "Feature", "geometry": {"type": "Point", "coordinates": [2.3046251407269573, 48.88376067556563]}, "properties": {"name": "Wagram"}}, {"type": "Feature", "geometry": {"type": "Point", "coordinates": [2.309410662965853, 48.88279910736547]}, "properties": {"name": "Malesherbes"}}, {"type": "Feature", "geometry": {"type": "Point", "coordinates": [2.315815092646378, 48.88107318307563]}, "properties": {"name": "Villiers"}}, {"type": "Feature", "geometry": {"type": "Point", "coordinates": [2.3221849832116224, 48.87882510562309]}, "properties": {"name": "Europe"}}, {"type": "Feature", "geometry": {"type": "Point", "coordinates": [2.3244924701707954, 48.87496650103443]}, "properties": {"name": "Saint-Lazare"}}, {"type": "Feature", "geometry": {"type": "Point", "coordinates": [2.3274627984235092, 48.87346783937801]}, "properties": {"name": "Havre-Caumartin"}}, {"type": "Feature", "geometry": {"type": "Point", "coordinates": [2.331047286711241, 48.87143742899726]}, "properties": {"name": "Opéra"}}, {"type": "Feature", "geometry": {"type": "Point", "coordinates": [2.3364150746107506, 48.86958768416464]}, "properties": {"name": "Quatre Septembre"}}, {"type": "Feature", "geometry": {"type": "Point", "coordinates": [2.3406519668083314, 48.868738736969725]}, "properties": {"name": "Bourse"}}, {"type": "Feature", "geometry": {"type": "Point", "coordinates": [2.3475137108219895, 48.86728343166051]}, "properties": {"name": "Sentier"}}, {"type": "Feature", "geometry": {"type": "Point", "coordinates": [2.3520239377964742, 48.86628268363084]}, "properties": {"name": "Réaumur - Sébastopol"}}, {"type": "Feature", "geometry": {"type": "Point", "coordinates": [2.3567233472754983, 48.86553459885931]}, "properties": {"name": "Arts et Métiers"}}, {"type": "Feature", "geometry": {"type": "Point", "coordinates": [2.3615893783321895, 48.86668483219092]}, "properties": {"name": "Temple"}}, {"type": "Feature", "geometry": {"type": "Point", "coordinates": [2.364283168306328, 48.86712186124499]}, "properties": {"name": "République"}}, {"type": "Feature", "geometry": {"type": "Point", "coordinates": [2.3746806763746613, 48.865162111168765]}, "properties": {"name": "Parmentier"}}, {"type": "Feature", "geometry": {"type": "Point", "coordinates": [2.3804600339610773, 48.86405000324374]}, "properties": {"name": "Rue Saint-Maur"}}, {"type": "Feature", "geometry": {"type": "Point", "coordinates": [2.386538795193789, 48.862957138362546]}, "properties": {"name": "Père Lachaise"}}, {"type": "Feature", "geometry": {"type": "Point", "coordinates": [2.397353102563538, 48.86488271295642]}, "properties": {"name": "Gambetta"}}, {"type": "Feature", "geometry": {"type": "Point", "coordinates": [2.4088234090802456, 48.86432836987192]}, "properties": {"name": "Porte de Bagnolet"}}, {"type": "Feature", "geometry": {"type": "Point", "coordinates": [2.4159299613832097, 48.86512770051251]}, "properties": {"name": "Gallieni"}}]}