{"type": "FeatureCollection", "features": [{"type": "Feature", "geometry": {"type": "LineString", "coordinates": [[2.364651, 48.945881], [2.36384, 48.945721], [2.362378, 48.945461], [2.361981, 48.945354], [2.361639, 48.945221], [2.361335, 48.94503], [2.361145, 48.944817], [2.361006, 48.944561], [2.360941, 48.944313], [2.360935, 48.94405], [2.360994, 48.943836], [2.362197, 48.941566], [2.362345, 48.941208], [2.362445, 48.940929], [2.362495, 48.940666], [2.36251, 48.940414], [2.362459, 48.94009], [2.36231, 48.939697], [2.362076, 48.939369], [2.361635, 48.93895], [2.360281, 48.937958], [2.359946, 48.937649], [2.359663, 48.937294], [2.359475, 48.936977], [2.359265, 48.936638], [2.359265, 48.936638], [2.358753, 48.935799], [2.3583, 48.934826], [2.356408, 48.930367], [2.356198, 48.929905], [2.356198, 48.929905], [2.355827, 48.929085], [2.355612, 48.928726], [2.355363, 48.928383], [2.355078, 48.928051], [2.35476, 48.927727], [2.350895, 48.924404], [2.350197, 48.923958], [2.34941, 48.923576], [2.347808, 48.922977], [2.347254, 48.922703], [2.346755, 48.922401], [2.345443, 48.921364], [2.342211, 48.918774], [2.342211, 48.918774], [2.340149, 48.917141], [2.335885, 48.913609], [2.335598, 48.913403], [2.33493, 48.912956], [2.334739, 48.912807], [2.334577, 48.912655], [2.333997, 48.912037], [2.333997, 48.912037], [2.333922, 48.911953], [2.333798, 48.911797], [2.333691, 48.911633], [2.333598, 48.911453], [2.333516, 48.911247], [2.333253, 48.910313], [2.331713, 48.905773], [2.331713, 48.905773], [2.328821, 48.897194], [2.328821, 48.897194], [2.327315, 48.892727], [2.327315, 48.892727], [2.326411, 48.88995], [2.326227, 48.889515], [2.325649, 48.887791], [2.32562, 48.887642], [2.325618, 48.887489], [2.325651, 48.887329], [2.32571, 48.887173], [2.325793, 48.886982], [2.325793, 48.886982], [2.326078, 48.886341], [2.32621, 48.885963], [2.326521, 48.885258], [2.326696, 48.884991], [2.327286, 48.883823], [2.32731, 48.883644], [2.327279, 48.883492], [2.327279, 48.883492], [2.3272, 48.883224], [2.327024, 48.879604], [2.327024, 48.879604], [2.326981, 48.878532], [2.32686, 48.876175], [2.326844, 48.876057], [2.326807, 48.875927], [2.32673, 48.875805], [2.326535, 48.875641], [2.32638, 48.875557], [2.326279, 48.875519], [2.326163, 48.875484], [2.326015, 48.875458], [2.325001, 48.875309], [2.325001, 48.875309], [2.324161, 48.875179], [2.323849, 48.875149], [2.32354, 48.875134], [2.322609, 48.875122], [2.322138, 48.875095], [2.319806, 48.874859], [2.319546, 48.874844], [2.319264, 48.874851], [2.319035, 48.874874], [2.316835, 48.875172], [2.316273, 48.87529], [2.315947, 48.87534], [2.315628, 48.875351], [2.315354, 48.87532], [2.315081, 48.875244], [2.314842, 48.875137], [2.314626, 48.874989], [2.31447, 48.874825], [2.314358, 48.874641], [2.314315, 48.874508], [2.314316, 48.87434], [2.314532, 48.873348], [2.314532, 48.873348], [2.314636, 48.872871], [2.314656, 48.872746], [2.314656, 48.872627], [2.314642, 48.872517], [2.314611, 48.87241], [2.314553, 48.872284], [2.314133, 48.871647], [2.313884, 48.871334], [2.313596, 48.871056], [2.313322, 48.870846], [2.312958, 48.870609], [2.312737, 48.870434], [2.312556, 48.870232], [2.31244, 48.870007], [2.312382, 48.869778], [2.31238, 48.869549], [2.312437, 48.86932], [2.313405, 48.867168], [2.313405, 48.867168], [2.314002, 48.865845], [2.314169, 48.865402], [2.314279, 48.864952], [2.314331, 48.864498], [2.314281, 48.861637], [2.314354, 48.860764], [2.31435, 48.860584], [2.314295, 48.860203], [2.314295, 48.860203], [2.314168, 48.859276], [2.314161, 48.859032], [2.314201, 48.858807], [2.314282, 48.858597], [2.314578, 48.858101], [2.314682, 48.857864], [2.314957, 48.856842], [2.314978, 48.856701], [2.314982, 48.85656], [2.314947, 48.856228], [2.314947, 48.856228], [2.314855, 48.855358], [2.314401, 48.851398], [2.314401, 48.851398], [2.314372, 48.851166], [2.314388, 48.850967], [2.314428, 48.850784], [2.314502, 48.850597], [2.316002, 48.847832], [2.316228, 48.847401], [2.316228, 48.847401], [2.316412, 48.847073], [2.316509, 48.846958], [2.316624, 48.84684], [2.316814, 48.846722], [2.319408, 48.84539], [2.319566, 48.845287], [2.319709, 48.845161], [2.319772, 48.845093], [2.319866, 48.844967], [2.31996, 48.844795], [2.320509, 48.843361], [2.320887, 48.842323], [2.320966, 48.842136], [2.320966, 48.842136], [2.32125, 48.841457], [2.322487, 48.838634], [2.322487, 48.838634], [2.323138, 48.837059], [2.32315, 48.837013], [2.323148, 48.836899], [2.323111, 48.836811], [2.322978, 48.836693], [2.322662, 48.836487], [2.320407, 48.835163], [2.318958, 48.834404], [2.318188, 48.833988], [2.318188, 48.833988], [2.314029, 48.831776], [2.314029, 48.831776], [2.310386, 48.830067], [2.307638, 48.828754], [2.305934, 48.827976], [2.305306, 48.827667], [2.305306, 48.827667], [2.304809, 48.827408], [2.304523, 48.82724], [2.302768, 48.826077], [2.298483, 48.822502], [2.298483, 48.822502], [2.297284, 48.821613], [2.29635, 48.820896], [2.296073, 48.82066], [2.295891, 48.820484], [2.295792, 48.820374], [2.295708, 48.820259], [2.295557, 48.819992], [2.295456, 48.819794], [2.295386, 48.819626], [2.295316, 48.819378], [2.295282, 48.819057], [2.295279, 48.818733], [2.295287, 48.818436], [2.295308, 48.818275], [2.295357, 48.817997], [2.295391, 48.817841], [2.295471, 48.817562], [2.295632, 48.817177], [2.29585, 48.816776], [2.296069, 48.816448], [2.29631, 48.81612], [2.296747, 48.815632], [2.297306, 48.815067], [2.297306, 48.815067], [2.298378, 48.814003], [2.299576, 48.812843], [2.300624, 48.811897], [2.300946, 48.811577], [2.301242, 48.811256], [2.301587, 48.81081]]}, "properties": {"id": "metro-13", "source": "Ile-de-France Mobilites GTFS (data.iledefrance-mobilites.fr), Mobility License"}}, {"type": "Feature", "geometry": {"type": "Point", "coordinates": [2.3645493372261845, 48.945875779628096]}, "properties": {"name": "Saint-Denis - Université"}}, {"type": "Feature", "geometry": {"type": "Point", "coordinates": [2.359202621115829, 48.93659371717278]}, "properties": {"name": "Basilique de Saint-Denis"}}, {"type": "Feature", "geometry": {"type": "Point", "coordinates": [2.356103685447694, 48.93000331459435]}, "properties": {"name": "Saint-Denis - Porte de Paris"}}, {"type": "Feature", "geometry": {"type": "Point", "coordinates": [2.3425256824012224, 48.919021124459626]}, "properties": {"name": "Carrefour Pleyel"}}, {"type": "Feature", "geometry": {"type": "Point", "coordinates": [2.3336955324299224, 48.91166998763851]}, "properties": {"name": "Mairie de Saint-Ouen"}}, {"type": "Feature", "geometry": {"type": "Point", "coordinates": [2.3314859001183095, 48.90524559144653]}, "properties": {"name": "Garibaldi"}}, {"type": "Feature", "geometry": {"type": "Point", "coordinates": [2.328939112292642, 48.897506218529124]}, "properties": {"name": "Porte de Saint-Ouen"}}, {"type": "Feature", "geometry": {"type": "Point", "coordinates": [2.327483258626126, 48.8930014419616]}, "properties": {"name": "Guy Môquet"}}, {"type": "Feature", "geometry": {"type": "Point", "coordinates": [2.325815743000763, 48.88695758474682]}, "properties": {"name": "La Fourche"}}, {"type": "Feature", "geometry": {"type": "Point", "coordinates": [2.327200436207035, 48.88322415919443]}, "properties": {"name": "Place de Clichy"}}, {"type": "Feature", "geometry": {"type": "Point", "coordinates": [2.3270087300770395, 48.88012038230665]}, "properties": {"name": "Liège"}}, {"type": "Feature", "geometry": {"type": "Point", "coordinates": [2.3246298445298517, 48.87534949512342]}, "properties": {"name": "Saint-Lazare"}}, {"type": "Feature", "geometry": {"type": "Point", "coordinates": [2.314539776464459, 48.873331580854774]}, "properties": {"name": "Miromesnil"}}, {"type": "Feature", "geometry": {"type": "Point", "coordinates": [2.313854767904208, 48.867374001020366]}, "properties": {"name": "Champs-Élysées - Clemenceau"}}, {"type": "Feature", "geometry": {"type": "Point", "coordinates": [2.3142383345854878, 48.8599835499114]}, "properties": {"name": "Invalides"}}, {"type": "Feature", "geometry": {"type": "Point", "coordinates": [2.314939717979739, 48.85639914680456]}, "properties": {"name": "Varenne"}}, {"type": "Feature", "geometry": {"type": "Point", "coordinates": [2.3144121566045697, 48.85195330293081]}, "properties": {"name": "Saint-François-Xavier"}}, {"type": "Feature", "geometry": {"type": "Point", "coordinates": [2.3159655624315945, 48.84781614379645]}, "properties": {"name": "Duroc"}}, {"type": "Feature", "geometry": {"type": "Point", "coordinates": [2.320986109145286, 48.842142778205066]}, "properties": {"name": "Montparnasse Bienvenue"}}, {"type": "Feature", "geometry": {"type": "Point", "coordinates": [2.3223929960897602, 48.838733160711186]}, "properties": {"name": "Gaîté"}}, {"type": "Feature", "geometry": {"type": "Point", "coordinates": [2.3179465189168287, 48.83389625601307]}, "properties": {"name": "Pernety"}}, {"type": "Feature", "geometry": {"type": "Point", "coordinates": [2.3139011181482863, 48.831768583640276]}, "properties": {"name": "Plaisance"}}, {"type": "Feature", "geometry": {"type": "Point", "coordinates": [2.30472284886518, 48.82741655532592]}, "properties": {"name": "Porte de Vanves"}}, {"type": "Feature", "geometry": {"type": "Point", "coordinates": [2.2981988359336536, 48.822296939865105]}, "properties": {"name": "Malakoff - Plateau de Vanves"}}, {"type": "Feature", "geometry": {"type": "Point", "coordinates": [2.2970265700422705, 48.81529282360795]}, "properties": {"name": "Malakoff - Rue Étienne Dolet"}}, {"type": "Feature", "geometry": {"type": "Point", "coordinates": [2.301595459041787, 48.81072820779425]}, "properties": {"name": "Châtillon - Montrouge"}}]}