{"type": "FeatureCollection", "features": [{"type": "Feature", "geometry": {"type": "LineString", "coordinates": [[2.480362, 48.882957], [2.478871, 48.884705], [2.478609, 48.884945], [2.478444, 48.885052], [2.478223, 48.885166], [2.477965, 48.885288], [2.47634, 48.88583], [2.47607, 48.885872], [2.475681, 48.88591], [2.475238, 48.885937], [2.474987, 48.885921], [2.474682, 48.885891], [2.474019, 48.885765], [2.473693, 48.885643], [2.473421, 48.88549], [2.472988, 48.885136], [2.472572, 48.884766], [2.472149, 48.884441], [2.472041, 48.884373], [2.471913, 48.884312], [2.471804, 48.884251], [2.471566, 48.884148], [2.471436, 48.884106], [2.471162, 48.884037], [2.470256, 48.883892], [2.4699, 48.883831], [2.469477, 48.883717], [2.469276, 48.883648], [2.469082, 48.883572], [2.468896, 48.883484], [2.468718, 48.883389], [2.468551, 48.883289], [2.468397, 48.883183], [2.46825, 48.883068], [2.468113, 48.882946], [2.467445, 48.882282], [2.467445, 48.882282], [2.466919, 48.881756], [2.466824, 48.881645], [2.466742, 48.881531], [2.466674, 48.881413], [2.466619, 48.88129], [2.466577, 48.881165], [2.466551, 48.881039], [2.466511, 48.880688], [2.466459, 48.88039], [2.466422, 48.880245], [2.466327, 48.879974], [2.466273, 48.879848], [2.466091, 48.879478], [2.465997, 48.879326], [2.465682, 48.878887], [2.465585, 48.878735], [2.465502, 48.878582], [2.46541, 48.878361], [2.465273, 48.877922], [2.465273, 48.877922], [2.465037, 48.877155], [2.464922, 48.876884], [2.464777, 48.876621], [2.464696, 48.876495], [2.464604, 48.876369], [2.4645, 48.876251], [2.464385, 48.876133], [2.46426, 48.876022], [2.464124, 48.875916], [2.463979, 48.875816], [2.463825, 48.875721], [2.463662, 48.875633], [2.463492, 48.875553], [2.463314, 48.875481], [2.463127, 48.875412], [2.462935, 48.875351], [2.462738, 48.875301], [2.46233, 48.875221], [2.461911, 48.875179], [2.461487, 48.875168], [2.461187, 48.875183], [2.460441, 48.875282], [2.459907, 48.875477], [2.459465, 48.875732], [2.459101, 48.876026], [2.458457, 48.876774], [2.457932, 48.877308], [2.457721, 48.877499], [2.457489, 48.877655], [2.457236, 48.8778], [2.456959, 48.87793], [2.456656, 48.87804], [2.456353, 48.878124], [2.456013, 48.878193], [2.45568, 48.878235], [2.454626, 48.878319], [2.454626, 48.878319], [2.453328, 48.878433], [2.452621, 48.878517], [2.451924, 48.878651], [2.451252, 48.878834], [2.450613, 48.879059], [2.450013, 48.87933], [2.44946, 48.879639], [2.446884, 48.881325], [2.446352, 48.881626], [2.445996, 48.881794], [2.443455, 48.882732], [2.442811, 48.882908], [2.442156, 48.883041], [2.441458, 48.883125], [2.440563, 48.883194], [2.440563, 48.883194], [2.43924, 48.883293], [2.438508, 48.883289], [2.437828, 48.883228], [2.437152, 48.883125], [2.434004, 48.88253], [2.427426, 48.88139], [2.427426, 48.88139], [2.424469, 48.880878], [2.422024, 48.880486], [2.417798, 48.879902], [2.417196, 48.879807], [2.416859, 48.879772], [2.416111, 48.879654], [2.416111, 48.879654], [2.415467, 48.879555], [2.412244, 48.878838], [2.41131, 48.878616], [2.409927, 48.878246], [2.409626, 48.878128], [2.407416, 48.877453], [2.406416, 48.87714], [2.406416, 48.87714], [2.404523, 48.876556], [2.403246, 48.876175], [2.402673, 48.876026], [2.401964, 48.875916], [2.399032, 48.875523], [2.399032, 48.875523], [2.398771, 48.875496], [2.397704, 48.875484], [2.397471, 48.875504], [2.397218, 48.875553], [2.397028, 48.875614], [2.396809, 48.875717], [2.396687, 48.875801], [2.396597, 48.875889], [2.39652, 48.875984], [2.396272, 48.876373], [2.396202, 48.876465], [2.396113, 48.876556], [2.395994, 48.876644], [2.395858, 48.876724], [2.395745, 48.876778], [2.395602, 48.876827], [2.395399, 48.876877], [2.395235, 48.8769], [2.395053, 48.876911], [2.394891, 48.876907], [2.392993, 48.876743], [2.392993, 48.876743], [2.392365, 48.87669], [2.392186, 48.876663], [2.391985, 48.876621], [2.39183, 48.876568], [2.391674, 48.876499], [2.391536, 48.876415], [2.391406, 48.876316], [2.391307, 48.876217], [2.391072, 48.875923], [2.39097, 48.875813], [2.390879, 48.875736], [2.390781, 48.875675], [2.390197, 48.875443], [2.389623, 48.87529], [2.389246, 48.875107], [2.389246, 48.875107], [2.388912, 48.874954], [2.38858, 48.874832], [2.388402, 48.874786], [2.388188, 48.874741], [2.387304, 48.874676], [2.386989, 48.874638], [2.386689, 48.874573], [2.386475, 48.874496], [2.386288, 48.874416], [2.38552, 48.874016], [2.385257, 48.873905], [2.385257, 48.873905], [2.385015, 48.873817], [2.384583, 48.873707], [2.383164, 48.873505], [2.381307, 48.873161], [2.379694, 48.872841], [2.378867, 48.872646], [2.377749, 48.872349], [2.377114, 48.872162], [2.376533, 48.871944], [2.376533, 48.871944], [2.374197, 48.871082], [2.373641, 48.870846], [2.372852, 48.870564], [2.371176, 48.870056], [2.371176, 48.870056], [2.370149, 48.869743], [2.36934, 48.869469], [2.36832, 48.869099], [2.367574, 48.868851], [2.366429, 48.868507], [2.365959, 48.868351], [2.365088, 48.868034], [2.365088, 48.868034], [2.364633, 48.86787], [2.364314, 48.867771], [2.363697, 48.867641], [2.36349, 48.867577], [2.363345, 48.867508], [2.363222, 48.867432], [2.362425, 48.866882], [2.362286, 48.866798], [2.361346, 48.866295], [2.361053, 48.866081], [2.360654, 48.865665], [2.36048, 48.865417], [2.360241, 48.864983], [2.360148, 48.864906], [2.360044, 48.864841], [2.35991, 48.864799], [2.359756, 48.864773], [2.359594, 48.864765], [2.359424, 48.864773], [2.359243, 48.864792], [2.35694, 48.865295], [2.356609, 48.865372], [2.356609, 48.865372], [2.356384, 48.865421], [2.356255, 48.865437], [2.35611, 48.865448], [2.355965, 48.86544], [2.355825, 48.865414], [2.355691, 48.865353], [2.355606, 48.865276], [2.355543, 48.865181], [2.355397, 48.86475], [2.353822, 48.86182], [2.353822, 48.86182], [2.352861, 48.860054], [2.352704, 48.859779], [2.352117, 48.858711], [2.351626, 48.857803], [2.351494, 48.857651], [2.351388, 48.857582], [2.351388, 48.857582], [2.351291, 48.85754], [2.351105, 48.857494], [2.349955, 48.857304], [2.349657, 48.857277], [2.349463, 48.857288], [2.349243, 48.857327], [2.348719, 48.857456], [2.347523, 48.857819]]}, "properties": {"id": "metro-11", "source": "Ile-de-France Mobilites GTFS (data.iledefrance-mobilites.fr), Mobility License"}}, {"type": "Feature", "geometry": {"type": "Point", "coordinates": [2.4806093523524932, 48.88307064342213]}, "properties": {"name": "Rosny-Bois-Perrier"}}, {"type": "Feature", "geometry": {"type": "Point", "coordinates": [2.467417206083316, 48.88232920383497]}, "properties": {"name": "Coteaux Beauclair"}}, {"type": "Feature", "geometry": {"type": "Point", "coordinates": [2.465430413390637, 48.87794964257804]}, "properties": {"name": "La Dhuys"}}, {"type": "Feature", "geometry": {"type": "Point", "coordinates": [2.45460012310207, 48.878359446871926]}, "properties": {"name": "Montreuil - Hôpital"}}, {"type": "Feature", "geometry": {"type": "Point", "coordinates": [2.440689824547642, 48.88369120755144]}, "properties": {"name": "Romainville - Carnot"}}, {"type": "Feature", "geometry": {"type": "Point", "coordinates": [2.427229354265452, 48.881343288296286]}, "properties": {"name": "Serge Gainsbourg"}}, {"type": "Feature", "geometry": {"type": "Point", "coordinates": [2.4162978208011863, 48.87974365006289]}, "properties": {"name": "Mairie des Lilas"}}, {"type": "Feature", "geometry": {"type": "Point", "coordinates": [2.4065226763982275, 48.87723143067265]}, "properties": {"name": "Porte des Lilas"}}, {"type": "Feature", "geometry": {"type": "Point", "coordinates": [2.398593867851629, 48.87548313183459]}, "properties": {"name": "Télégraphe"}}, {"type": "Feature", "geometry": {"type": "Point", "coordinates": [2.393301403638089, 48.876859382930455]}, "properties": {"name": "Place des Fêtes"}}, {"type": "Feature", "geometry": {"type": "Point", "coordinates": [2.3895034554043044, 48.87517631033787]}, "properties": {"name": "Jourdain"}}, {"type": "Feature", "geometry": {"type": "Point", "coordinates": [2.3852649372318315, 48.87387756542708]}, "properties": {"name": "Pyrénées"}}, {"type": "Feature", "geometry": {"type": "Point", "coordinates": [2.376684607718542, 48.87198955568015]}, "properties": {"name": "Belleville"}}, {"type": "Feature", "geometry": {"type": "Point", "coordinates": [2.3706438118024113, 48.86983550931561]}, "properties": {"name": "Goncourt"}}, {"type": "Feature", "geometry": {"type": "Point", "coordinates": [2.3648187654839186, 48.86791612506399]}, "properties": {"name": "République"}}, {"type": "Feature", "geometry": {"type": "Point", "coordinates": [2.356535223129095, 48.865380699169286]}, "properties": {"name": "Arts et Métiers"}}, {"type": "Feature", "geometry": {"type": "Point", "coordinates": [2.3532739485947713, 48.86119015695036]}, "properties": {"name": "Rambuteau"}}, {"type": "Feature", "geometry": {"type": "Point", "coordinates": [2.3514239919428728, 48.85760073633446]}, "properties": {"name": "Hôtel de Ville"}}, {"type": "Feature", "geometry": {"type": "Point", "coordinates": [2.3481526656594456, 48.85761893516645]}, "properties": {"name": "Châtelet"}}]}