{"type": "FeatureCollection", "features": [{"type": "Feature", "geometry": {"type": "LineString", "coordinates": [[2.277437, 48.87146], [2.277668, 48.871407], [2.277826, 48.871361], [2.278095, 48.871258], [2.278294, 48.871204], [2.284632, 48.869812], [2.284905, 48.869774], [2.285174, 48.869762], [2.28539, 48.869762], [2.285609, 48.869801], [2.285855, 48.869858], [2.286074, 48.869934], [2.286074, 48.869934], [2.288764, 48.871082], [2.290539, 48.871872], [2.292501, 48.872719], [2.293204, 48.873035], [2.293469, 48.87318], [2.293698, 48.873329], [2.294487, 48.873878], [2.295388, 48.874443], [2.295554, 48.874573], [2.295655, 48.87466], [2.295743, 48.874748], [2.296007, 48.875084], [2.296007, 48.875084], [2.296428, 48.875641], [2.297807, 48.877506], [2.297949, 48.877682], [2.298063, 48.877792], [2.298181, 48.87788], [2.298282, 48.877949], [2.298409, 48.878021], [2.29857, 48.878094], [2.298928, 48.87822], [2.298928, 48.87822], [2.301318, 48.878716], [2.304588, 48.879414], [2.304588, 48.879414], [2.308326, 48.880211], [2.308802, 48.880302], [2.308802, 48.880302], [2.309088, 48.88036], [2.309949, 48.880497], [2.310612, 48.880581], [2.315236, 48.881123], [2.315236, 48.881123], [2.316725, 48.881298], [2.317151, 48.881371], [2.32166, 48.882282], [2.32166, 48.882282], [2.325417, 48.883038], [2.327299, 48.883434], [2.327299, 48.883434], [2.327416, 48.883461], [2.327841, 48.883583], [2.328011, 48.883652], [2.328204, 48.883762], [2.329007, 48.884254], [2.32914, 48.884319], [2.329269, 48.884369], [2.329516, 48.884418], [2.329651, 48.88443], [2.329837, 48.884422], [2.330005, 48.884392], [2.332017, 48.883911], [2.333699, 48.883438], [2.333699, 48.883438], [2.335139, 48.883011], [2.336783, 48.882511], [2.3371, 48.882435], [2.337317, 48.882389], [2.338084, 48.882263], [2.338084, 48.882263], [2.339251, 48.882084], [2.339494, 48.882057], [2.339889, 48.882053], [2.340037, 48.882061], [2.340348, 48.882092], [2.340481, 48.882114], [2.34205, 48.882439], [2.344257, 48.882877], [2.344257, 48.882877], [2.346847, 48.883381], [2.347038, 48.883411], [2.349326, 48.883698], [2.349697, 48.883736], [2.350996, 48.883835], [2.350996, 48.883835], [2.354515, 48.88409], [2.358666, 48.884377], [2.359043, 48.884396], [2.359238, 48.884399], [2.360306, 48.884399], [2.360306, 48.884399], [2.364133, 48.88438], [2.364487, 48.884369], [2.366551, 48.884232], [2.366551, 48.884232], [2.368075, 48.88414], [2.368227, 48.884125], [2.368343, 48.884102], [2.368452, 48.884071], [2.368618, 48.884003], [2.368813, 48.883877], [2.368913, 48.883774], [2.369227, 48.883369], [2.369342, 48.88327], [2.36991, 48.882904], [2.369997, 48.882839], [2.370047, 48.882793], [2.370157, 48.882648], [2.370186, 48.88258], [2.370203, 48.882511], [2.370223, 48.881733], [2.370223, 48.881733], [2.370252, 48.878567], [2.370298, 48.878311], [2.37038, 48.878113], [2.370566, 48.877785], [2.370984, 48.877407], [2.370984, 48.877407], [2.372108, 48.876347], [2.373627, 48.874966], [2.376504, 48.872406], [2.376504, 48.872406], [2.376896, 48.872051], [2.377979, 48.870972], [2.37909, 48.870098], [2.380182, 48.869232], [2.380439, 48.869041], [2.380439, 48.869041], [2.382798, 48.867294], [2.383039, 48.867134], [2.383317, 48.866699], [2.383317, 48.866699], [2.38358, 48.866299], [2.384235, 48.865704], [2.386584, 48.86364], [2.38738, 48.862923], [2.387529, 48.862675], [2.387684, 48.862331], [2.387684, 48.862331], [2.389493, 48.858612], [2.389558, 48.858517], [2.389697, 48.858433], [2.389891, 48.858322], [2.390153, 48.858231], [2.390153, 48.858231], [2.390413, 48.858143], [2.392131, 48.857651], [2.39243, 48.857513], [2.394241, 48.856544], [2.394394, 48.856377], [2.394457, 48.856297], [2.394457, 48.856297], [2.397599, 48.852257], [2.398163, 48.851486], [2.398163, 48.851486], [2.398295, 48.851307], [2.3986, 48.850674], [2.398635, 48.850468], [2.398607, 48.850273], [2.398526, 48.850117], [2.39838, 48.849949], [2.397646, 48.84943], [2.397417, 48.849323], [2.397135, 48.849262], [2.396854, 48.849255], [2.396578, 48.849289], [2.395987, 48.849407], [2.39576, 48.849434], [2.395552, 48.849426], [2.395323, 48.849384], [2.395072, 48.849289], [2.394872, 48.849155], [2.394721, 48.848957], [2.394672, 48.848774], [2.394698, 48.848583], [2.394804, 48.8484], [2.39491, 48.848282], [2.395084, 48.848156], [2.395269, 48.848076], [2.39543, 48.848038], [2.395598, 48.848011], [2.395917, 48.847984]]}, "properties": {"id": "metro-2", "source": "Ile-de-France Mobilites GTFS (data.iledefrance-mobilites.fr), Mobility License"}}, {"type": "Feature", "geometry": {"type": "Point", "coordinates": [2.2776327175452717, 48.871396795248316]}, "properties": {"name": "Porte Dauphine"}}, {"type": "Feature", "geometry": {"type": "Point", "coordinates": [2.2860235771477933, 48.869936238096244]}, "properties": {"name": "Victor Hugo"}}, {"type": "Feature", "geometry": {"type": "Point", "coordinates": [2.295868617636535, 48.874824035603844]}, "properties": {"name": "Charles de Gaulle - Étoile"}}, {"type": "Feature", "geometry": {"type": "Point", "coordinates": [2.2981136521983068, 48.8782007528283]}, "properties": {"name": "Ternes"}}, {"type": "Feature", "geometry": {"type": "Point", "coordinates": [2.3032943624252122, 48.87926525411311]}, "properties": {"name": "Courcelles"}}, {"type": "Feature", "geometry": {"type": "Point", "coordinates": [2.309412967374703, 48.880568770126835]}, "properties": {"name": "Monceau"}}, {"type": "Feature", "geometry": {"type": "Point", "coordinates": [2.3157614492393397, 48.88121227337839]}, "properties": {"name": "Villiers"}}, {"type": "Feature", "geometry": {"type": "Point", "coordinates": [2.3214039779193896, 48.882256139435015]}, "properties": {"name": "Rome"}}, {"type": "Feature", "geometry": {"type": "Point", "coordinates": [2.3279583280102196, 48.88366908827266]}, "properties": {"name": "Place de Clichy"}}, {"type": "Feature", "geometry": {"type": "Point", "coordinates": [2.3324843754343627, 48.88376635447715]}, "properties": {"name": "Blanche"}}, {"type": "Feature", "geometry": {"type": "Point", "coordinates": [2.3382179854559224, 48.88219737464818]}, "properties": {"name": "Pigalle"}}, {"type": "Feature", "geometry": {"type": "Point", "coordinates": [2.3441548403302916, 48.882868568843925]}, "properties": {"name": "Anvers"}}, {"type": "Feature", "geometry": {"type": "Point", "coordinates": [2.3506070793550977, 48.88377608955688]}, "properties": {"name": "Barbès - Rochechouart"}}, {"type": "Feature", "geometry": {"type": "Point", "coordinates": [2.360390754503212, 48.88436835263381]}, "properties": {"name": "La Chapelle"}}, {"type": "Feature", "geometry": {"type": "Point", "coordinates": [2.3658058722008413, 48.88425326618281]}, "properties": {"name": "Stalingrad"}}, {"type": "Feature", "geometry": {"type": "Point", "coordinates": [2.370174422778962, 48.88159632872844]}, "properties": {"name": "Jaurès"}}, {"type": "Feature", "geometry": {"type": "Point", "coordinates": [2.370467574793864, 48.87764980852146]}, "properties": {"name": "Colonel Fabien"}}, {"type": "Feature", "geometry": {"type": "Point", "coordinates": [2.376640589315146, 48.87225013398613]}, "properties": {"name": "Belleville"}}, {"type": "Feature", "geometry": {"type": "Point", "coordinates": [2.3802889829271936, 48.86919334513237]}, "properties": {"name": "Couronnes"}}, {"type": "Feature", "geometry": {"type": "Point", "coordinates": [2.3836913122141343, 48.866297053289806]}, "properties": {"name": "Ménilmontant"}}, {"type": "Feature", "geometry": {"type": "Point", "coordinates": [2.3878014305354482, 48.862226142597684]}, "properties": {"name": "Père Lachaise"}}, {"type": "Feature", "geometry": {"type": "Point", "coordinates": [2.390589328433105, 48.858112378986284]}, "properties": {"name": "Philippe Auguste"}}, {"type": "Feature", "geometry": {"type": "Point", "coordinates": [2.3948253985144294, 48.85600242440136]}, "properties": {"name": "Alexandre Dumas"}}, {"type": "Feature", "geometry": {"type": "Point", "coordinates": [2.3980220567979527, 48.85181858774317]}, "properties": {"name": "Avron"}}, {"type": "Feature", "geometry": {"type": "Point", "coordinates": [2.395925559927623, 48.848453436979646]}, "properties": {"name": "Nation"}}]}