{"type": "FeatureCollection", "features": [{"type": "Feature", "geometry": {"type": "LineString", "coordinates": [[2.317851, 48.803349], [2.31807, 48.803596], [2.318427, 48.804054], [2.318653, 48.804539], [2.318678, 48.804821], [2.318671, 48.805061], [2.318604, 48.805477], [2.318497, 48.805836], [2.318383, 48.806183], [2.318306, 48.806507], [2.317679, 48.809547], [2.317679, 48.809547], [2.317671, 48.809586], [2.317617, 48.809715], [2.317491, 48.809891], [2.317287, 48.810093], [2.316626, 48.810551], [2.316397, 48.810753], [2.316271, 48.810886], [2.316112, 48.811111], [2.315995, 48.811371], [2.315932, 48.811539], [2.315878, 48.811802], [2.315885, 48.812157], [2.315961, 48.81245], [2.316099, 48.812782], [2.316431, 48.813343], [2.318868, 48.817295], [2.3195, 48.81834], [2.3195, 48.81834], [2.320115, 48.81934], [2.320562, 48.820053], [2.320728, 48.820297], [2.320921, 48.820507], [2.321141, 48.820705], [2.321501, 48.820938], [2.321909, 48.821133], [2.32237, 48.821297], [2.324064, 48.821819], [2.324394, 48.821968], [2.324716, 48.822155], [2.324988, 48.822384], [2.325154, 48.822556], [2.325323, 48.8228], [2.325455, 48.823086], [2.325631, 48.823635], [2.325631, 48.823635], [2.326388, 48.826488], [2.326536, 48.826908], [2.326673, 48.827267], [2.326802, 48.827557], [2.326922, 48.827778], [2.327077, 48.828018], [2.327077, 48.828018], [2.327343, 48.828346], [2.328554, 48.829712], [2.329914, 48.831268], [2.329914, 48.831268], [2.330621, 48.832077], [2.332239, 48.833988], [2.33233, 48.834152], [2.332375, 48.834312], [2.332375, 48.834312], [2.332396, 48.834518], [2.3324, 48.834721], [2.332363, 48.834927], [2.332304, 48.835094], [2.33202, 48.8358], [2.330852, 48.838867], [2.33083, 48.838936], [2.33083, 48.838936], [2.330766, 48.839146], [2.330212, 48.840698], [2.329864, 48.841637], [2.329815, 48.841732], [2.329707, 48.841862], [2.329581, 48.841961], [2.329388, 48.842072], [2.328943, 48.842278], [2.328943, 48.842278], [2.328629, 48.842403], [2.328281, 48.842529], [2.324852, 48.843609], [2.324678, 48.843681], [2.324533, 48.843777], [2.324419, 48.843895], [2.324401, 48.843922], [2.324401, 48.843922], [2.324344, 48.844021], [2.324312, 48.844154], [2.324324, 48.844292], [2.324378, 48.844425], [2.324471, 48.844543], [2.326025, 48.846043], [2.327041, 48.847092], [2.327041, 48.847092], [2.327801, 48.847878], [2.329099, 48.849319], [2.330733, 48.851097], [2.330733, 48.851097], [2.332083, 48.852581], [2.332697, 48.853271], [2.332819, 48.853382], [2.332943, 48.853477], [2.333084, 48.853554], [2.333277, 48.85363], [2.333503, 48.85368], [2.333718, 48.853699], [2.333946, 48.853695], [2.334141, 48.85368], [2.334464, 48.853619], [2.334464, 48.853619], [2.334846, 48.853535], [2.335152, 48.853451], [2.335672, 48.853291], [2.336488, 48.853073], [2.339393, 48.852352], [2.339393, 48.852352], [2.339908, 48.852234], [2.340151, 48.8522], [2.340315, 48.852188], [2.34055, 48.852196], [2.340785, 48.852219], [2.341367, 48.852341], [2.341657, 48.852413], [2.34182, 48.85247], [2.342227, 48.852657], [2.343746, 48.85339], [2.343951, 48.853474], [2.343951, 48.853474], [2.344289, 48.853584], [2.344512, 48.853638], [2.344781, 48.853687], [2.345527, 48.853851], [2.345764, 48.853909], [2.346002, 48.853977], [2.346231, 48.854057], [2.346447, 48.854149], [2.34662, 48.854233], [2.346786, 48.854328], [2.34706, 48.854542], [2.347237, 48.854736], [2.347316, 48.854847], [2.347405, 48.855], [2.34756, 48.855324], [2.34756, 48.855324], [2.347686, 48.855644], [2.34775, 48.855885], [2.347772, 48.856087], [2.34778, 48.856358], [2.347759, 48.856621], [2.347722, 48.856812], [2.347651, 48.857029], [2.347377, 48.857674], [2.347352, 48.857777], [2.34734, 48.857883], [2.347341, 48.85799], [2.347424, 48.858459], [2.347436, 48.858582], [2.347432, 48.8587], [2.347419, 48.85878], [2.347381, 48.858925], [2.347333, 48.859035], [2.347271, 48.859146], [2.347187, 48.859261], [2.346427, 48.860104], [2.346427, 48.860104], [2.345631, 48.860992], [2.345561, 48.861111], [2.345528, 48.861237], [2.345534, 48.861366], [2.345576, 48.861488], [2.346214, 48.862701], [2.346214, 48.862701], [2.346368, 48.862991], [2.346435, 48.863079], [2.346508, 48.863144], [2.346653, 48.863251], [2.346734, 48.8633], [2.346824, 48.863338], [2.346905, 48.863361], [2.349852, 48.864025], [2.349852, 48.864025], [2.351061, 48.864292], [2.351187, 48.864326], [2.351473, 48.864429], [2.351627, 48.864517], [2.351731, 48.864594], [2.351804, 48.864677], [2.35263, 48.866188], [2.35263, 48.866188], [2.352911, 48.866703], [2.35377, 48.868214], [2.354383, 48.869377], [2.354383, 48.869377], [2.355403, 48.87109], [2.356069, 48.872307], [2.356396, 48.872879], [2.356396, 48.872879], [2.357312, 48.874504], [2.357593, 48.875069], [2.357706, 48.875465], [2.357746, 48.8759], [2.357791, 48.876221], [2.357791, 48.876221], [2.357924, 48.877079], [2.357964, 48.877193], [2.358016, 48.8773], [2.358193, 48.877594], [2.358275, 48.877758], [2.358634, 48.878738], [2.358662, 48.878891], [2.358645, 48.879051], [2.358558, 48.879196], [2.358404, 48.879307], [2.358204, 48.879368], [2.357215, 48.879581], [2.357215, 48.879581], [2.356771, 48.879673], [2.35661, 48.8797], [2.354986, 48.879898], [2.354724, 48.879944], [2.354464, 48.880009], [2.353803, 48.880211], [2.353532, 48.880276], [2.352654, 48.880459], [2.352468, 48.88052], [2.352304, 48.8806], [2.35202, 48.880806], [2.351346, 48.88155], [2.350919, 48.881992], [2.349976, 48.883034], [2.349747, 48.883324], [2.349625, 48.883488], [2.349553, 48.883636], [2.349507, 48.883785], [2.349507, 48.883785], [2.349495, 48.883938], [2.349537, 48.886372], [2.349562, 48.887135], [2.349575, 48.887287], [2.349575, 48.887287], [2.349727, 48.889126], [2.34974, 48.89114], [2.34974, 48.89114], [2.349746, 48.891338], [2.34973, 48.891483], [2.349705, 48.891594], [2.349655, 48.891693], [2.349582, 48.891811], [2.347841, 48.893848], [2.347841, 48.893848], [2.344852, 48.897396]]}, "properties": {"id": "metro-4", "source": "Ile-de-France Mobilites GTFS (data.iledefrance-mobilites.fr), Mobility License"}}, {"type": "Feature", "geometry": {"type": "Point", "coordinates": [2.3179078752210414, 48.803532800531336]}, "properties": {"name": "Bagneux - Lucie Aubrac"}}, {"type": "Feature", "geometry": {"type": "Point", "coordinates": [2.3174992240284045, 48.80979025430712]}, "properties": {"name": "Barbara"}}, {"type": "Feature", "geometry": {"type": "Point", "coordinates": [2.3196193991237846, 48.818454456190004]}, "properties": {"name": "Mairie de Montrouge"}}, {"type": "Feature", "geometry": {"type": "Point", "coordinates": [2.325623760353114, 48.823394602620716]}, "properties": {"name": "Porte d'Orléans"}}, {"type": "Feature", "geometry": {"type": "Point", "coordinates": [2.3271926250651647, 48.828152157703514]}, "properties": {"name": "Alésia"}}, {"type": "Feature", "geometry": {"type": "Point", "coordinates": [2.329887640408421, 48.83133758557153]}, "properties": {"name": "Mouton-Duvernet"}}, {"type": "Feature", "geometry": {"type": "Point", "coordinates": [2.332156211836421, 48.83385952369506]}, "properties": {"name": "Denfert-Rochereau"}}, {"type": "Feature", "geometry": {"type": "Point", "coordinates": [2.3307802165662403, 48.83910415024143]}, "properties": {"name": "Raspail"}}, {"type": "Feature", "geometry": {"type": "Point", "coordinates": [2.329311191492551, 48.842153767899426]}, "properties": {"name": "Vavin"}}, {"type": "Feature", "geometry": {"type": "Point", "coordinates": [2.3243858698057784, 48.84391578859517]}, "properties": {"name": "Montparnasse Bienvenue"}}, {"type": "Feature", "geometry": {"type": "Point", "coordinates": [2.3270814861545093, 48.847051769671374]}, "properties": {"name": "Saint-Placide"}}, {"type": "Feature", "geometry": {"type": "Point", "coordinates": [2.3308980036498377, 48.85121922114243]}, "properties": {"name": "Saint-Sulpice"}}, {"type": "Feature", "geometry": {"type": "Point", "coordinates": [2.333947810798194, 48.85357456382241]}, "properties": {"name": "Saint-Germain-des-Prés"}}, {"type": "Feature", "geometry": {"type": "Point", "coordinates": [2.3397701405524383, 48.85226679254882]}, "properties": {"name": "Odéon"}}, {"type": "Feature", "geometry": {"type": "Point", "coordinates": [2.3438304195531945, 48.85342231534621]}, "properties": {"name": "Saint-Michel"}}, {"type": "Feature", "geometry": {"type": "Point", "coordinates": [2.347361051762225, 48.85492106147581]}, "properties": {"name": "Cité"}}, {"type": "Feature", "geometry": {"type": "Point", "coordinates": [2.3467627404938853, 48.859769795711216]}, "properties": {"name": "Châtelet"}}, {"type": "Feature", "geometry": {"type": "Point", "coordinates": [2.345989622976899, 48.86272442788193]}, "properties": {"name": "Les Halles"}}, {"type": "Feature", "geometry": {"type": "Point", "coordinates": [2.3489761968791085, 48.86370301202431]}, "properties": {"name": "Étienne Marcel"}}, {"type": "Feature", "geometry": {"type": "Point", "coordinates": [2.352613903045621, 48.86604305354321]}, "properties": {"name": "Réaumur - Sébastopol"}}, {"type": "Feature", "geometry": {"type": "Point", "coordinates": [2.3545461437863655, 48.86962387669191]}, "properties": {"name": "Strasbourg - Saint-Denis"}}, {"type": "Feature", "geometry": {"type": "Point", "coordinates": [2.356212775521071, 48.87265463150292]}, "properties": {"name": "Château d'Eau"}}, {"type": "Feature", "geometry": {"type": "Point", "coordinates": [2.3579812413546817, 48.876288454314334]}, "properties": {"name": "Gare de l'Est"}}, {"type": "Feature", "geometry": {"type": "Point", "coordinates": [2.356808788205409, 48.87959170741013]}, "properties": {"name": "Gare du Nord"}}, {"type": "Feature", "geometry": {"type": "Point", "coordinates": [2.3497455480753806, 48.88342517173516]}, "properties": {"name": "Barbès - Rochechouart"}}, {"type": "Feature", "geometry": {"type": "Point", "coordinates": [2.3495819680256593, 48.887241930648955]}, "properties": {"name": "Château Rouge"}}, {"type": "Feature", "geometry": {"type": "Point", "coordinates": [2.3496815417224775, 48.891280439844486]}, "properties": {"name": "Marcadet - Poissonniers"}}, {"type": "Feature", "geometry": {"type": "Point", "coordinates": [2.347875783249625, 48.8938966403779]}, "properties": {"name": "Simplon"}}, {"type": "Feature", "geometry": {"type": "Point", "coordinates": [2.3447472731828847, 48.897557781418705]}, "properties": {"name": "Porte de Clignancourt"}}]}