{"type": "FeatureCollection", "features": [{"type": "Feature", "geometry": {"type": "LineString", "coordinates": [[2.464472, 48.768814], [2.463746, 48.769825], [2.463227, 48.770649], [2.462813, 48.771626], [2.462518, 48.77248], [2.462402, 48.772713], [2.461849, 48.773518], [2.461636, 48.773788], [2.460866, 48.774673], [2.460299, 48.775383], [2.460133, 48.775646], [2.459996, 48.775917], [2.459935, 48.776077], [2.459876, 48.77626], [2.459782, 48.776627], [2.459696, 48.777122], [2.459587, 48.777985], [2.459515, 48.77932], [2.459436, 48.780376], [2.459436, 48.780376], [2.459217, 48.783268], [2.459162, 48.783649], [2.459127, 48.783806], [2.45906, 48.784027], [2.458952, 48.784286], [2.458844, 48.7845], [2.458713, 48.784706], [2.458499, 48.784981], [2.458361, 48.785133], [2.458086, 48.785397], [2.457833, 48.785603], [2.457532, 48.785809], [2.457243, 48.785976], [2.456998, 48.786102], [2.456544, 48.786312], [2.456221, 48.786446], [2.453704, 48.787457], [2.453244, 48.787663], [2.453002, 48.787788], [2.452839, 48.78788], [2.452643, 48.788002], [2.452338, 48.788219], [2.452189, 48.788338], [2.45195, 48.788548], [2.451515, 48.788982], [2.450603, 48.789932], [2.450603, 48.789932], [2.450053, 48.790504], [2.449498, 48.791027], [2.449197, 48.791325], [2.449012, 48.791542], [2.448862, 48.791744], [2.448728, 48.791958], [2.448604, 48.792198], [2.448534, 48.792377], [2.448465, 48.792595], [2.448423, 48.792774], [2.448395, 48.792965], [2.44838, 48.79324], [2.448402, 48.79351], [2.448421, 48.793636], [2.448465, 48.793839], [2.448625, 48.794361], [2.448923, 48.795219], [2.449099, 48.795631], [2.449214, 48.795929], [2.449434, 48.796574], [2.449434, 48.796574], [2.449772, 48.797573], [2.449854, 48.797859], [2.449908, 48.798119], [2.449929, 48.798382], [2.449929, 48.798534], [2.44989, 48.798935], [2.449833, 48.799149], [2.449764, 48.799362], [2.449704, 48.799404], [2.449549, 48.799934], [2.449249, 48.800526], [2.448946, 48.800941], [2.448648, 48.801315], [2.448284, 48.801659], [2.447804, 48.802071], [2.447359, 48.802376], [2.446436, 48.802898], [2.445609, 48.803329], [2.445609, 48.803329], [2.438002, 48.807301], [2.434721, 48.809036], [2.434721, 48.809036], [2.433272, 48.809803], [2.429414, 48.811874], [2.426657, 48.813362], [2.426095, 48.813633], [2.425657, 48.813789], [2.425032, 48.813972], [2.42316, 48.814552], [2.421732, 48.815018], [2.421732, 48.815018], [2.420568, 48.815414], [2.420178, 48.815575], [2.419926, 48.815701], [2.419729, 48.815811], [2.419533, 48.81596], [2.419367, 48.816101], [2.419212, 48.816246], [2.417473, 48.818127], [2.416508, 48.819099], [2.415796, 48.819798], [2.414844, 48.820755], [2.413783, 48.82156], [2.413783, 48.82156], [2.409767, 48.824154], [2.407224, 48.82576], [2.406433, 48.826252], [2.406201, 48.826405], [2.406201, 48.826405], [2.40275, 48.828606], [2.401055, 48.829716], [2.398981, 48.831039], [2.398815, 48.8312], [2.398718, 48.83136], [2.398663, 48.831543], [2.398663, 48.831722], [2.398738, 48.831909], [2.398812, 48.832027], [2.398897, 48.832119], [2.399041, 48.83223], [2.399214, 48.832321], [2.401187, 48.833061], [2.401187, 48.833061], [2.404467, 48.83429], [2.404788, 48.834431], [2.406025, 48.835175], [2.406178, 48.835278], [2.406178, 48.835278], [2.406251, 48.835373], [2.406286, 48.835464], [2.406263, 48.835571], [2.40619, 48.835667], [2.406049, 48.835754], [2.405389, 48.835995], [2.403377, 48.836742], [2.402459, 48.83707], [2.402459, 48.83707], [2.396601, 48.839256], [2.396322, 48.839378], [2.395953, 48.839569], [2.395592, 48.839787], [2.395592, 48.839787], [2.395237, 48.840046], [2.392387, 48.842468], [2.390196, 48.844303], [2.390196, 48.844303], [2.387835, 48.846306], [2.38745, 48.846676], [2.387048, 48.847103], [2.387048, 48.847103], [2.386811, 48.847355], [2.386798, 48.847359], [2.3868, 48.847366], [2.385956, 48.848446], [2.3851, 48.849571], [2.384877, 48.849854], [2.384733, 48.849964], [2.384602, 48.85004], [2.384452, 48.850101], [2.384222, 48.850163], [2.384222, 48.850163], [2.383895, 48.850201], [2.38183, 48.850388], [2.381344, 48.850426], [2.380309, 48.85046], [2.379974, 48.850487], [2.379574, 48.850536], [2.378627, 48.850719], [2.376027, 48.851295], [2.376027, 48.851295], [2.373776, 48.851864], [2.372146, 48.852341], [2.371792, 48.852474], [2.371305, 48.852692], [2.371017, 48.852833], [2.370759, 48.85297], [2.370548, 48.853065], [2.3702, 48.853191], [2.369828, 48.853298], [2.369607, 48.85339], [2.369396, 48.853516], [2.369187, 48.85368], [2.369187, 48.85368], [2.369045, 48.853848], [2.368979, 48.853954], [2.36892, 48.854095], [2.368141, 48.857445], [2.368141, 48.857445], [2.367234, 48.861183], [2.367234, 48.861183], [2.36676, 48.86311], [2.366632, 48.863319], [2.366632, 48.863319], [2.365399, 48.865532], [2.364883, 48.866341], [2.364799, 48.866428], [2.3647, 48.866516], [2.364594, 48.866596], [2.363695, 48.867168], [2.362832, 48.867687], [2.362832, 48.867687], [2.362347, 48.867943], [2.362177, 48.868008], [2.361999, 48.868061], [2.36182, 48.868095], [2.360947, 48.868214], [2.359847, 48.868343], [2.359381, 48.868393], [2.357698, 48.868637], [2.356237, 48.868866], [2.355752, 48.868958], [2.355112, 48.869095], [2.353726, 48.869411], [2.353726, 48.869411], [2.351023, 48.870033], [2.348944, 48.870476], [2.348944, 48.870476], [2.347917, 48.870674], [2.347406, 48.870758], [2.343572, 48.871433], [2.343572, 48.871433], [2.342227, 48.87167], [2.340383, 48.87196], [2.340177, 48.871971], [2.339861, 48.871952], [2.339692, 48.871929], [2.338532, 48.871731], [2.338532, 48.871731], [2.334549, 48.871056], [2.332346, 48.870632], [2.332346, 48.870632], [2.330533, 48.8703], [2.327666, 48.869839], [2.326171, 48.869579], [2.326171, 48.869579], [2.324357, 48.86927], [2.32421, 48.869236], [2.324073, 48.869194], [2.323899, 48.869122], [2.323658, 48.86898], [2.323427, 48.868763], [2.323261, 48.868572], [2.322051, 48.866768], [2.321932, 48.866638], [2.321752, 48.866486], [2.321752, 48.866486], [2.320788, 48.865662], [2.320673, 48.865578], [2.320531, 48.865501], [2.320356, 48.865433], [2.320181, 48.865387], [2.319995, 48.86536], [2.318117, 48.865185], [2.317832, 48.865143], [2.317564, 48.865089], [2.317236, 48.865002], [2.316898, 48.864883], [2.316596, 48.864746], [2.316306, 48.864578], [2.316047, 48.864395], [2.315805, 48.864174], [2.315614, 48.863949], [2.315457, 48.863701], [2.315356, 48.863468], [2.315294, 48.863239], [2.31501, 48.861359], [2.314991, 48.861286], [2.314954, 48.861214], [2.314765, 48.860889], [2.314732, 48.860802], [2.314716, 48.860718], [2.31468, 48.860336], [2.31468, 48.860336], [2.314552, 48.858997], [2.314508, 48.858837], [2.314407, 48.858688], [2.314255, 48.858559], [2.314061, 48.858459], [2.313836, 48.858395], [2.313593, 48.858364], [2.313469, 48.858364], [2.312206, 48.85844], [2.311994, 48.85844], [2.311807, 48.858421], [2.311583, 48.858364], [2.31139, 48.858284], [2.311217, 48.858192], [2.310323, 48.857559], [2.310323, 48.857559], [2.307578, 48.855679], [2.306073, 48.854664], [2.306073, 48.854664], [2.305613, 48.854359], [2.301009, 48.851223], [2.300106, 48.850632], [2.299237, 48.850033], [2.299237, 48.850033], [2.298072, 48.849228], [2.297691, 48.848904], [2.297242, 48.848545], [2.296853, 48.848194], [2.296078, 48.847324], [2.295957, 48.847111], [2.294468, 48.845425], [2.294014, 48.844902], [2.293864, 48.844711], [2.293864, 48.844711], [2.293042, 48.843758], [2.292652, 48.843365], [2.292309, 48.843037], [2.292088, 48.842861], [2.291939, 48.842762], [2.291779, 48.842678], [2.291779, 48.842678], [2.291365, 48.842491], [2.287922, 48.841084], [2.287922, 48.841084], [2.282552, 48.838905], [2.282148, 48.838737], [2.282148, 48.838737], [2.278845, 48.836994], [2.278724, 48.836926], [2.278631, 48.836845], [2.278569, 48.836765], [2.278491, 48.836632], [2.278379, 48.836395]]}, "properties": {"id": "metro-8", "source": "Ile-de-France Mobilites GTFS (data.iledefrance-mobilites.fr), Mobility License"}}, {"type": "Feature", "geometry": {"type": "Point", "coordinates": [2.464317312722042, 48.76876136434425]}, "properties": {"name": "Pointe du Lac"}}, {"type": "Feature", "geometry": {"type": "Point", "coordinates": [2.4593985651639567, 48.77993683006337]}, "properties": {"name": "Créteil - Préfecture"}}, {"type": "Feature", "geometry": {"type": "Point", "coordinates": [2.4505697455342568, 48.78994285432577]}, "properties": {"name": "Créteil - Université"}}, {"type": "Feature", "geometry": {"type": "Point", "coordinates": [2.449424047013373, 48.79661108096057]}, "properties": {"name": "Créteil - L'Échat"}}, {"type": "Feature", "geometry": {"type": "Point", "coordinates": [2.4459564771573397, 48.80321905319987]}, "properties": {"name": "Maisons-Alfort - Les Juilliottes"}}, {"type": "Feature", "geometry": {"type": "Point", "coordinates": [2.434924424365985, 48.80897743416717]}, "properties": {"name": "Maisons-Alfort - Stade"}}, {"type": "Feature", "geometry": {"type": "Point", "coordinates": [2.4223082374948417, 48.814839557950776]}, "properties": {"name": "École Vétérinaire de Maisons-Alfort"}}, {"type": "Feature", "geometry": {"type": "Point", "coordinates": [2.413844709558796, 48.82148073316996]}, "properties": {"name": "Charenton - Écoles"}}, {"type": "Feature", "geometry": {"type": "Point", "coordinates": [2.4064912314699263, 48.826148180607525]}, "properties": {"name": "Liberté"}}, {"type": "Feature", "geometry": {"type": "Point", "coordinates": [2.402511872850073, 48.83344922287947]}, "properties": {"name": "Porte de Charenton"}}, {"type": "Feature", "geometry": {"type": "Point", "coordinates": [2.4058739129875644, 48.83501737409391]}, "properties": {"name": "Porte Dorée"}}, {"type": "Feature", "geometry": {"type": "Point", "coordinates": [2.402366739988004, 48.83707743103578]}, "properties": {"name": "Michel Bizot"}}, {"type": "Feature", "geometry": {"type": "Point", "coordinates": [2.395573606140371, 48.83967393140864]}, "properties": {"name": "Daumesnil"}}, {"type": "Feature", "geometry": {"type": "Point", "coordinates": [2.39052195642492, 48.8440641552825]}, "properties": {"name": "Montgallet"}}, {"type": "Feature", "geometry": {"type": "Point", "coordinates": [2.3872010704093922, 48.84721292669797]}, "properties": {"name": "Reuilly - Diderot"}}, {"type": "Feature", "geometry": {"type": "Point", "coordinates": [2.384072471688875, 48.850200705509266]}, "properties": {"name": "Faidherbe - Chaligny"}}, {"type": "Feature", "geometry": {"type": "Point", "coordinates": [2.3761412233185926, 48.85133776679838]}, "properties": {"name": "Ledru-Rollin"}}, {"type": "Feature", "geometry": {"type": "Point", "coordinates": [2.369652217650188, 48.85348468769834]}, "properties": {"name": "Bastille"}}, {"type": "Feature", "geometry": {"type": "Point", "coordinates": [2.3682216127650335, 48.85710602289208]}, "properties": {"name": "Chemin Vert"}}, {"type": "Feature", "geometry": {"type": "Point", "coordinates": [2.367370357789606, 48.86098670797991]}, "properties": {"name": "Saint-Sébastien - Froissart"}}, {"type": "Feature", "geometry": {"type": "Point", "coordinates": [2.366826859795412, 48.86308830188695]}, "properties": {"name": "Filles du Calvaire"}}, {"type": "Feature", "geometry": {"type": "Point", "coordinates": [2.3632563242479026, 48.86748513277203]}, "properties": {"name": "République"}}, {"type": "Feature", "geometry": {"type": "Point", "coordinates": [2.3535254325802613, 48.86948346700233]}, "properties": {"name": "Strasbourg - Saint-Denis"}}, {"type": "Feature", "geometry": {"type": "Point", "coordinates": [2.3487269674116376, 48.870554649291975]}, "properties": {"name": "Bonne Nouvelle"}}, {"type": "Feature", "geometry": {"type": "Point", "coordinates": [2.3428924760133967, 48.871601969451355]}, "properties": {"name": "Grands Boulevards"}}, {"type": "Feature", "geometry": {"type": "Point", "coordinates": [2.338582727772594, 48.87173112038424]}, "properties": {"name": "Richelieu - Drouot"}}, {"type": "Feature", "geometry": {"type": "Point", "coordinates": [2.3320941299398554, 48.87066534465599]}, "properties": {"name": "Opéra"}}, {"type": "Feature", "geometry": {"type": "Point", "coordinates": [2.3261763467156182, 48.86962940979887]}, "properties": {"name": "Madeleine"}}, {"type": "Feature", "geometry": {"type": "Point", "coordinates": [2.321915152849789, 48.86656106315263]}, "properties": {"name": "Concorde"}}, {"type": "Feature", "geometry": {"type": "Point", "coordinates": [2.3146326604445164, 48.86109201138112]}, "properties": {"name": "Invalides"}}, {"type": "Feature", "geometry": {"type": "Point", "coordinates": [2.3103578176394737, 48.85761393739689]}, "properties": {"name": "La Tour-Maubourg"}}, {"type": "Feature", "geometry": {"type": "Point", "coordinates": [2.3064679757235638, 48.85494735015941]}, "properties": {"name": "École Militaire"}}, {"type": "Feature", "geometry": {"type": "Point", "coordinates": [2.298488389923641, 48.84967105681514]}, "properties": {"name": "La Motte-Picquet - Grenelle"}}, {"type": "Feature", "geometry": {"type": "Point", "coordinates": [2.29359514628691, 48.84441246090085]}, "properties": {"name": "Commerce"}}, {"type": "Feature", "geometry": {"type": "Point", "coordinates": [2.291751809719901, 48.84274672574357]}, "properties": {"name": "Félix Faure"}}, {"type": "Feature", "geometry": {"type": "Point", "coordinates": [2.2877944613211754, 48.841122353680156]}, "properties": {"name": "Boucicaut"}}, {"type": "Feature", "geometry": {"type": "Point", "coordinates": [2.2818339953320375, 48.83860445265195]}, "properties": {"name": "Lourmel"}}, {"type": "Feature", "geometry": {"type": "Point", "coordinates": [2.2784019927281287, 48.83653322592186]}, "properties": {"name": "Balard"}}]}