{"type": "FeatureCollection", "features": [{"type": "Feature", "geometry": {"type": "LineString", "coordinates": [[2.570594, 49.005291], [2.570547, 49.005711], [2.570381, 49.006668], [2.570276, 49.007515], [2.570197, 49.008072], [2.570114, 49.008442], [2.569923, 49.008816], [2.569612, 49.009144], [2.569152, 49.00948], [2.568782, 49.009686], [2.568365, 49.009857], [2.567827, 49.009998], [2.567077, 49.010136], [2.566458, 49.010189], [2.565942, 49.010197], [2.565429, 49.010174], [2.564941, 49.010128], [2.563168, 49.010052], [2.561585, 49.009907], [2.561585, 49.009907], [2.560288, 49.009785], [2.559528, 49.009686], [2.558696, 49.009518], [2.558154, 49.009441], [2.557781, 49.00938], [2.556845, 49.009125], [2.556424, 49.009052], [2.5561, 49.008972], [2.555799, 49.008884], [2.554799, 49.008522], [2.554187, 49.00827], [2.551404, 49.007187], [2.550476, 49.006916], [2.549603, 49.006721], [2.548654, 49.006577], [2.548046, 49.006508], [2.54543, 49.006268], [2.544802, 49.006218], [2.539151, 49.005913], [2.538201, 49.005871], [2.537603, 49.005859], [2.537261, 49.005863], [2.53644, 49.005898], [2.535824, 49.005947], [2.533546, 49.006157], [2.532878, 49.006187], [2.532456, 49.006191], [2.532097, 49.00618], [2.531585, 49.006149], [2.531044, 49.006092], [2.530538, 49.006016], [2.530059, 49.005917], [2.529684, 49.005833], [2.529224, 49.005703], [2.528722, 49.005543], [2.528248, 49.00536], [2.527997, 49.005249], [2.527586, 49.005054], [2.527161, 49.004818], [2.526794, 49.004589], [2.526604, 49.004456], [2.526335, 49.004253], [2.526081, 49.004044], [2.525829, 49.003811], [2.525572, 49.003548], [2.525206, 49.003128], [2.524159, 49.001816], [2.5239, 49.001518], [2.523674, 49.001278], [2.523339, 49.00095], [2.519985, 48.997883], [2.519609, 48.997517], [2.519317, 48.997208], [2.519111, 48.996944], [2.518929, 48.996666], [2.518593, 48.996037], [2.518476, 48.995785], [2.51838, 48.995495], [2.518345, 48.995358], [2.518293, 48.995098], [2.51827, 48.994942], [2.518247, 48.994675], [2.518244, 48.99448], [2.51826, 48.994171], [2.518307, 48.993793], [2.518445, 48.993282], [2.518587, 48.992962], [2.51902, 48.992138], [2.519775, 48.990849], [2.519974, 48.990429], [2.520205, 48.989819], [2.520291, 48.989544], [2.520441, 48.988998], [2.521002, 48.987045], [2.521059, 48.986835], [2.5212, 48.986221], [2.521231, 48.986004], [2.521286, 48.98542], [2.521293, 48.985088], [2.521278, 48.984768], [2.52125, 48.984558], [2.521154, 48.984009], [2.521066, 48.983627], [2.520931, 48.983204], [2.520794, 48.982845], [2.52061, 48.982433], [2.520508, 48.982239], [2.520297, 48.981873], [2.520017, 48.981438], [2.518819, 48.979729], [2.518213, 48.97884], [2.51758, 48.97781], [2.516006, 48.975452], [2.514553, 48.973373], [2.514553, 48.973373], [2.513953, 48.972519], [2.513478, 48.971886], [2.512794, 48.971062], [2.512461, 48.970646], [2.51222, 48.970325], [2.511909, 48.969894], [2.511603, 48.969425], [2.51148, 48.969227], [2.511309, 48.968914], [2.511128, 48.96851], [2.510986, 48.96809], [2.510937, 48.967896], [2.510872, 48.967579], [2.510853, 48.967438], [2.510823, 48.96703], [2.510824, 48.966824], [2.510837, 48.966583], [2.510857, 48.966389], [2.510928, 48.966], [2.510999, 48.96574], [2.51114, 48.965332], [2.511356, 48.964874], [2.511492, 48.964626], [2.511968, 48.963844], [2.512779, 48.962563], [2.512779, 48.962563], [2.513289, 48.961735], [2.514126, 48.960426], [2.514272, 48.960217], [2.514596, 48.959793], [2.51486, 48.959488], [2.515074, 48.959259], [2.515752, 48.958572], [2.522979, 48.95134], [2.523377, 48.95092], [2.523769, 48.950462], [2.523922, 48.950214], [2.524088, 48.949932], [2.524262, 48.949612], [2.524417, 48.949299], [2.524551, 48.94891], [2.524639, 48.948479], [2.524676, 48.948257], [2.524751, 48.947567], [2.524751, 48.947567], [2.524951, 48.945297], [2.525059, 48.944496], [2.525044, 48.94392], [2.524906, 48.94342], [2.523979, 48.940907], [2.523257, 48.939629], [2.521707, 48.937031], [2.520701, 48.935829], [2.519843, 48.935066], [2.519152, 48.93446], [2.517976, 48.93372], [2.517054, 48.933266], [2.516007, 48.932964], [2.515407, 48.932819], [2.515017, 48.932743], [2.514508, 48.932663], [2.51382, 48.932579], [2.512664, 48.932472], [2.509824, 48.932236], [2.508992, 48.932175], [2.508592, 48.932152], [2.507978, 48.932133], [2.506953, 48.932125], [2.505226, 48.932129], [2.500415, 48.932171], [2.498499, 48.932205], [2.497069, 48.932205], [2.495597, 48.932182], [2.495597, 48.932182], [2.4928, 48.932133], [2.47406, 48.932343], [2.47406, 48.932343], [2.471291, 48.932377], [2.470037, 48.9324], [2.465024, 48.932564], [2.463394, 48.93261], [2.456873, 48.932724], [2.455187, 48.932735], [2.453672, 48.932755], [2.453672, 48.932755], [2.451703, 48.932762], [2.447729, 48.93272], [2.441385, 48.932785], [2.440366, 48.932785], [2.439767, 48.932781], [2.439252, 48.932762], [2.438698, 48.932735], [2.437617, 48.932667], [2.436416, 48.932556], [2.435479, 48.932449], [2.434694, 48.932339], [2.434049, 48.93224], [2.431727, 48.931839], [2.429385, 48.931396], [2.42804, 48.93116], [2.425311, 48.930714], [2.425311, 48.930714], [2.418536, 48.929577], [2.416318, 48.929211], [2.414095, 48.928856], [2.401307, 48.926739], [2.400069, 48.926548], [2.397069, 48.926105], [2.393385, 48.925526], [2.387803, 48.924637], [2.386855, 48.924477], [2.384924, 48.924137], [2.384924, 48.924137], [2.384097, 48.923988], [2.382941, 48.923759], [2.381601, 48.923477], [2.380547, 48.923241], [2.377741, 48.922562], [2.367566, 48.920059], [2.366928, 48.919884], [2.366422, 48.919727], [2.366027, 48.919586], [2.365085, 48.919209], [2.364426, 48.918926], [2.363688, 48.918598], [2.363332, 48.91843], [2.362661, 48.918091], [2.362661, 48.918091], [2.361675, 48.91753], [2.361242, 48.917294], [2.359409, 48.916309], [2.35576, 48.91431], [2.354842, 48.913784], [2.354529, 48.913578], [2.354254, 48.913387], [2.353959, 48.913155], [2.353691, 48.912926], [2.353454, 48.912689], [2.353204, 48.912403], [2.353012, 48.912151], [2.352873, 48.911934], [2.352704, 48.911625], [2.352628, 48.911442], [2.352577, 48.911301], [2.352497, 48.910992], [2.352472, 48.910873], [2.352424, 48.910519], [2.352412, 48.910259], [2.352413, 48.910072], [2.352427, 48.909863], [2.352472, 48.909565], [2.352529, 48.909302], [2.352605, 48.909019], [2.352665, 48.908833], [2.352744, 48.908627], [2.352986, 48.908012], [2.353117, 48.907578], [2.353177, 48.907261], [2.353197, 48.907104], [2.353235, 48.906521], [2.353274, 48.906033], [2.353327, 48.905727], [2.353463, 48.905136], [2.353623, 48.904579], [2.354281, 48.902542], [2.354366, 48.902264], [2.354448, 48.901943], [2.35465, 48.900883], [2.354776, 48.900089], [2.354952, 48.898586], [2.35502, 48.898106], [2.355093, 48.897747], [2.355643, 48.895443], [2.355795, 48.894886], [2.356128, 48.893875], [2.356401, 48.89307], [2.356551, 48.892666], [2.356657, 48.892414], [2.356838, 48.892036], [2.357011, 48.891628], [2.357244, 48.891113], [2.357357, 48.890835], [2.357457, 48.890553], [2.35755, 48.890217], [2.357628, 48.889816], [2.35786, 48.888393], [2.357943, 48.887486], [2.35802, 48.886402], [2.358053, 48.884682], [2.358084, 48.884537], [2.358155, 48.884346], [2.358196, 48.884167], [2.358226, 48.883919], [2.358238, 48.883724], [2.358238, 48.883545], [2.358224, 48.883137], [2.358213, 48.88298], [2.358193, 48.882809], [2.358149, 48.882561], [2.358118, 48.882423], [2.358037, 48.882145], [2.357927, 48.881847], [2.357698, 48.881348], [2.357698, 48.881348], [2.357382, 48.880661], [2.357287, 48.880489], [2.357152, 48.880276], [2.356929, 48.880005], [2.356827, 48.879898], [2.355374, 48.878601], [2.355082, 48.878361], [2.354722, 48.878094], [2.353615, 48.877411], [2.351202, 48.876026], [2.350754, 48.875736], [2.350455, 48.8755], [2.350113, 48.875183], [2.349828, 48.874855], [2.346189, 48.869671], [2.345965, 48.869286], [2.345798, 48.868942], [2.345666, 48.868618], [2.345553, 48.868244], [2.34546, 48.86787], [2.345434, 48.867733], [2.3454, 48.867409], [2.345376, 48.866932], [2.345413, 48.86647], [2.345491, 48.865997], [2.34559, 48.865646], [2.34614, 48.864204], [2.346438, 48.863586], [2.347191, 48.861835], [2.347191, 48.861835], [2.347821, 48.860363], [2.348031, 48.859982], [2.348525, 48.85928], [2.348992, 48.858646], [2.349185, 48.858345], [2.349321, 48.858032], [2.349399, 48.857712], [2.349418, 48.857388], [2.349377, 48.857063], [2.349277, 48.856743], [2.349119, 48.856434], [2.349019, 48.856285], [2.347821, 48.854626], [2.347691, 48.854458], [2.347547, 48.854294], [2.34739, 48.854137], [2.347221, 48.853985], [2.34704, 48.85384], [2.346848, 48.853699], [2.346645, 48.853569], [2.345239, 48.852707], [2.345239, 48.852707], [2.343911, 48.851898], [2.343569, 48.851662], [2.343272, 48.851402], [2.343025, 48.85112], [2.342831, 48.850822], [2.342308, 48.849735], [2.340606, 48.846943], [2.340382, 48.846485], [2.339812, 48.845432], [2.339812, 48.845432], [2.339282, 48.844448], [2.338511, 48.843113], [2.338002, 48.842201], [2.337455, 48.841103], [2.337334, 48.840809], [2.337075, 48.839924], [2.336915, 48.839516], [2.336846, 48.839359], [2.336846, 48.839359], [2.336737, 48.839092], [2.336516, 48.838692], [2.336387, 48.838516], [2.336092, 48.838184], [2.335136, 48.837265], [2.334163, 48.836304], [2.333304, 48.835361], [2.333052, 48.835041], [2.33295, 48.834824], [2.33288, 48.83461], [2.33285, 48.834412], [2.332861, 48.834145], [2.332911, 48.833935], [2.332985, 48.833698], [2.333217, 48.833096], [2.333338, 48.832745], [2.333338, 48.832745], [2.333583, 48.831978], [2.333649, 48.831802], [2.333767, 48.83157], [2.333877, 48.831398], [2.333961, 48.831284], [2.334059, 48.831165], [2.334322, 48.83091], [2.334738, 48.830532], [2.335018, 48.830299], [2.335301, 48.830044], [2.33538, 48.82996], [2.335526, 48.829777], [2.335746, 48.829418], [2.335923, 48.829037], [2.336091, 48.828564], [2.336976, 48.825722], [2.337235, 48.824909], [2.33739, 48.824463], [2.337618, 48.823711], [2.337694, 48.823483], [2.337795, 48.823227], [2.337886, 48.82304], [2.338038, 48.822769], [2.338253, 48.822449], [2.338722, 48.821796], [2.338793, 48.821682], [2.338926, 48.821392], [2.338982, 48.821205], [2.339013, 48.820988], [2.339031, 48.820747], [2.339031, 48.820747], [2.339037, 48.820602], [2.338989, 48.819748], [2.338987, 48.819504], [2.338994, 48.819271], [2.338991, 48.818886], [2.339026, 48.818745], [2.339187, 48.818401], [2.339513, 48.817924], [2.339684, 48.817696], [2.34013, 48.817066], [2.340298, 48.816788], [2.340455, 48.816467], [2.340594, 48.816151], [2.340686, 48.815933], [2.340805, 48.81562], [2.340923, 48.815228], [2.340923, 48.815228], [2.340976, 48.814972], [2.340988, 48.81485], [2.340986, 48.814617], [2.340975, 48.814465], [2.340943, 48.814289], [2.340889, 48.814079], [2.340774, 48.813751], [2.340686, 48.813572], [2.340584, 48.813396], [2.34045, 48.813194], [2.340253, 48.812946], [2.34003, 48.812695], [2.339811, 48.812469], [2.339633, 48.812294], [2.33946, 48.812138], [2.339108, 48.81184], [2.338858, 48.811646], [2.338203, 48.811172], [2.336966, 48.810253], [2.336421, 48.80983], [2.336095, 48.809563], [2.33575, 48.809303], [2.334932, 48.808712], [2.334453, 48.80835], [2.333485, 48.807632], [2.333485, 48.807632], [2.332885, 48.807182], [2.331707, 48.806232], [2.331041, 48.805717], [2.33053, 48.805305], [2.330367, 48.805164], [2.32999, 48.804798], [2.329775, 48.804565], [2.329582, 48.804325], [2.329312, 48.803886], [2.329211, 48.80368], [2.32912, 48.803455], [2.329029, 48.803169], [2.328932, 48.802727], [2.328809, 48.802055], [2.328736, 48.801708], [2.328513, 48.8008], [2.328131, 48.798691], [2.328131, 48.798691], [2.327919, 48.797523], [2.327804, 48.796944], [2.327738, 48.796688], [2.327613, 48.796345], [2.327484, 48.796047], [2.327324, 48.795761], [2.327115, 48.795467], [2.326853, 48.795162], [2.326599, 48.79491], [2.326291, 48.794655], [2.32615, 48.794548], [2.325819, 48.794331], [2.325631, 48.794224], [2.325257, 48.794041], [2.324798, 48.793858], [2.324561, 48.793777], [2.324033, 48.793629], [2.323559, 48.793514], [2.32318, 48.793446], [2.322713, 48.793369], [2.322227, 48.79332], [2.32134, 48.793259], [2.32134, 48.793259], [2.320645, 48.793217], [2.319972, 48.793148], [2.319372, 48.793026], [2.318971, 48.792912], [2.31877, 48.792843], [2.318471, 48.792717], [2.318188, 48.792572], [2.317919, 48.792412], [2.317674, 48.792229], [2.317455, 48.79203], [2.317358, 48.791927], [2.317183, 48.79171], [2.317086, 48.791569], [2.316829, 48.791161], [2.316092, 48.789948], [2.315434, 48.788898], [2.314481, 48.787437], [2.313564, 48.785931], [2.31289, 48.784847], [2.312759, 48.784622], [2.312616, 48.784355], [2.312518, 48.784092], [2.312449, 48.783871], [2.312422, 48.783749], [2.312407, 48.78363], [2.312393, 48.783382], [2.312396, 48.783264], [2.312421, 48.783016], [2.312457, 48.782825], [2.312517, 48.7826], [2.312699, 48.781746], [2.312733, 48.781506], [2.31274, 48.781372], [2.312736, 48.78109], [2.312719, 48.780964], [2.312683, 48.780792], [2.312641, 48.780651], [2.312594, 48.780514], [2.312527, 48.780357], [2.312433, 48.780182], [2.312433, 48.780182], [2.310944, 48.777542], [2.310506, 48.776791], [2.310269, 48.776291], [2.310151, 48.775997], [2.310071, 48.775768], [2.310004, 48.775539], [2.309935, 48.775154], [2.309914, 48.774918], [2.30991, 48.774784], [2.309917, 48.774551], [2.309935, 48.774242], [2.309945, 48.774139], [2.310042, 48.773502], [2.310169, 48.772915], [2.310273, 48.772331], [2.310319, 48.771812], [2.310317, 48.77129], [2.310291, 48.77095], [2.310262, 48.770752], [2.310194, 48.770397], [2.310087, 48.76997], [2.309995, 48.769699], [2.309995, 48.769699], [2.309946, 48.769554], [2.30979, 48.769176], [2.309597, 48.768784], [2.309478, 48.768578], [2.309245, 48.7682], [2.308975, 48.767815], [2.308708, 48.76749], [2.306449, 48.764908], [2.305696, 48.764027], [2.305195, 48.763329], [2.30481, 48.76273], [2.304644, 48.762436], [2.304271, 48.761688], [2.304271, 48.761688], [2.303714, 48.760555], [2.303196, 48.759521], [2.302983, 48.759052], [2.3028, 48.758671], [2.302646, 48.758419], [2.302538, 48.758213], [2.30244, 48.758045], [2.301995, 48.757137], [2.301234, 48.755554], [2.301072, 48.75518], [2.301072, 48.75518], [2.300625, 48.754154], [2.300416, 48.753609], [2.300261, 48.75317], [2.300124, 48.752686], [2.299546, 48.750221], [2.29884, 48.747116], [2.29874, 48.746719], [2.298655, 48.746441], [2.298551, 48.74617], [2.298434, 48.745899], [2.298305, 48.745636], [2.298127, 48.745323], [2.297989, 48.74511], [2.297667, 48.744663], [2.297318, 48.744267], [2.296931, 48.74387], [2.296529, 48.743511], [2.29625, 48.743282], [2.29595, 48.743057], [2.29595, 48.743057], [2.295367, 48.74268], [2.294906, 48.742405], [2.29446, 48.742172], [2.293959, 48.741936], [2.293692, 48.741817], [2.292948, 48.741535], [2.291394, 48.740997], [2.290691, 48.740715], [2.288115, 48.739826], [2.288115, 48.739826], [2.28432, 48.738506], [2.283766, 48.738285], [2.28331, 48.738094], [2.282809, 48.737862], [2.281797, 48.737373], [2.281529, 48.737251], [2.281061, 48.73708], [2.28062, 48.736931], [2.28016, 48.736801], [2.279684, 48.736679], [2.278716, 48.736458], [2.278327, 48.736351], [2.277057, 48.735901], [2.275979, 48.735531], [2.273748, 48.734791], [2.273748, 48.734791], [2.272338, 48.734318], [2.271864, 48.734131], [2.270296, 48.733444], [2.270101, 48.733349], [2.269757, 48.733162], [2.269624, 48.733078], [2.269333, 48.732872], [2.269077, 48.732651], [2.268839, 48.732399], [2.268681, 48.732212], [2.268111, 48.731487], [2.268003, 48.731365], [2.26783, 48.731182], [2.267578, 48.730953], [2.267406, 48.730816], [2.266585, 48.730217], [2.264436, 48.728664], [2.263647, 48.728054], [2.262024, 48.726757], [2.26133, 48.726166], [2.259184, 48.724457], [2.259184, 48.724457], [2.258075, 48.723576], [2.257144, 48.722801], [2.256104, 48.722012], [2.25581, 48.721806], [2.255598, 48.721672], [2.255358, 48.72155], [2.255112, 48.721443], [2.25491, 48.721367], [2.254528, 48.721241], [2.254078, 48.72113], [2.253768, 48.721073], [2.253552, 48.721043], [2.252697, 48.720959], [2.251693, 48.720875], [2.251398, 48.720837], [2.251054, 48.720776], [2.2507, 48.720699], [2.2504, 48.720619], [2.250053, 48.720486], [2.249758, 48.720348], [2.249449, 48.720169], [2.248672, 48.719658], [2.247899, 48.719105], [2.2475, 48.7188], [2.24717, 48.718525], [2.247005, 48.718384], [2.246741, 48.718136], [2.246449, 48.717842], [2.24617, 48.717541], [2.245614, 48.716843], [2.245614, 48.716843], [2.244752, 48.715759], [2.244471, 48.715431], [2.244088, 48.715004], [2.243749, 48.714661], [2.243391, 48.714336], [2.243035, 48.714058], [2.241349, 48.712837], [2.241051, 48.712585], [2.240768, 48.712311], [2.239831, 48.711224], [2.23945, 48.710854], [2.238544, 48.710045], [2.238198, 48.709694], [2.237896, 48.70932], [2.237689, 48.708996], [2.237595, 48.708809], [2.237519, 48.708637], [2.23706, 48.707397], [2.23706, 48.707397], [2.23691, 48.70705], [2.236806, 48.706856], [2.236687, 48.706669], [2.236545, 48.70649], [2.236236, 48.706192], [2.235997, 48.706005], [2.235736, 48.705837], [2.235451, 48.705681], [2.235149, 48.705547], [2.234824, 48.705433], [2.234484, 48.705334], [2.234174, 48.705265], [2.233721, 48.705185], [2.233289, 48.705132], [2.232873, 48.705101], [2.232401, 48.705082], [2.232016, 48.70509], [2.23159, 48.705112], [2.226093, 48.705593], [2.225764, 48.705608], [2.225373, 48.705608], [2.224845, 48.705574], [2.223158, 48.705383], [2.222722, 48.705353], [2.222362, 48.705349], [2.221945, 48.70536], [2.219801, 48.705532], [2.219262, 48.705559], [2.218769, 48.705559], [2.218279, 48.705544], [2.216459, 48.70541], [2.215852, 48.705383], [2.215594, 48.705387], [2.215322, 48.705402], [2.215102, 48.705421], [2.214897, 48.705444], [2.214656, 48.705479], [2.214126, 48.705582], [2.212712, 48.705875], [2.212712, 48.705875], [2.212262, 48.705948], [2.211966, 48.705982], [2.211689, 48.706005], [2.211168, 48.706028], [2.210893, 48.706028], [2.210623, 48.70602], [2.210215, 48.705994], [2.208811, 48.705853], [2.208381, 48.70583], [2.207883, 48.705818], [2.195068, 48.705776], [2.194695, 48.705761], [2.194265, 48.705723], [2.194011, 48.705692], [2.19371, 48.705643], [2.19319, 48.705532], [2.192827, 48.705425], [2.192554, 48.705334], [2.192299, 48.705235], [2.192099, 48.705147], [2.191822, 48.705006], [2.191822, 48.705006], [2.191651, 48.704914], [2.191446, 48.704792], [2.191212, 48.704636], [2.190808, 48.704342], [2.188381, 48.702515], [2.187965, 48.70219], [2.187712, 48.701962], [2.187527, 48.701767], [2.187334, 48.701519], [2.187182, 48.701286], [2.187159, 48.701218], [2.186917, 48.700798], [2.186444, 48.699909], [2.186334, 48.699711], [2.186243, 48.699577], [2.186094, 48.699383], [2.185955, 48.699223], [2.185823, 48.699085], [2.185511, 48.698822], [2.185224, 48.698616], [2.18495, 48.698448], [2.184619, 48.698284], [2.184314, 48.698162], [2.183927, 48.698029], [2.183631, 48.697945], [2.183444, 48.697899], [2.182842, 48.697788], [2.182525, 48.697746], [2.182117, 48.697708], [2.180469, 48.697433], [2.180469, 48.697433], [2.177406, 48.696934], [2.176802, 48.6968], [2.172349, 48.696064], [2.171679, 48.69598], [2.171393, 48.695957], [2.171088, 48.69595], [2.170514, 48.695965], [2.169877, 48.696022], [2.167451, 48.696404], [2.166961, 48.696465], [2.166674, 48.696487], [2.166332, 48.696499], [2.165936, 48.696491], [2.165401, 48.696442], [2.165078, 48.696392], [2.164748, 48.69632], [2.164412, 48.696236], [2.164242, 48.696182], [2.163871, 48.696045], [2.163611, 48.69593], [2.163285, 48.695763], [2.163285, 48.695763], [2.163086, 48.695652], [2.161584, 48.694725], [2.16136, 48.694603], [2.161099, 48.694477], [2.160563, 48.694252], [2.160233, 48.694141], [2.159928, 48.694054], [2.159395, 48.693943], [2.159112, 48.693897], [2.158828, 48.693863], [2.158517, 48.693836], [2.158087, 48.693821], [2.157848, 48.693821], [2.15751, 48.693836], [2.157218, 48.693859], [2.156811, 48.693905], [2.1564, 48.693977], [2.155988, 48.694073], [2.15501, 48.694328], [2.153592, 48.694721], [2.151598, 48.695255], [2.151598, 48.695255], [2.14117, 48.698074], [2.140644, 48.698204], [2.140231, 48.698284], [2.139933, 48.698322], [2.139526, 48.698364], [2.139023, 48.69838], [2.138571, 48.698372], [2.137879, 48.698315], [2.135236, 48.698025], [2.135236, 48.698025], [2.13129, 48.697594], [2.130887, 48.697559], [2.130466, 48.697529], [2.130039, 48.697533], [2.129612, 48.697552], [2.129104, 48.697605], [2.128733, 48.697666], [2.128367, 48.697742], [2.12372, 48.698975], [2.122077, 48.699421], [2.121449, 48.699577], [2.120835, 48.699699], [2.120199, 48.699818], [2.119337, 48.69994], [2.118762, 48.700005], [2.113295, 48.700565], [2.112534, 48.700623], [2.11188, 48.700649], [2.110879, 48.700653], [2.11021, 48.70063], [2.109545, 48.700581], [2.106387, 48.700314], [2.105658, 48.700272], [2.104922, 48.700253], [2.104186, 48.700256], [2.103451, 48.700279], [2.102748, 48.700325], [2.101992, 48.700397], [2.101337, 48.700474], [2.100556, 48.700596], [2.099854, 48.700726], [2.099271, 48.700855], [2.098812, 48.700966], [2.098366, 48.701084], [2.097712, 48.701279], [2.097712, 48.701279], [2.096955, 48.70153], [2.096263, 48.701786], [2.094416, 48.702499], [2.093726, 48.702755], [2.093072, 48.70298], [2.092411, 48.703182], [2.09185, 48.703331], [2.091327, 48.703457], [2.090623, 48.703602], [2.089918, 48.703728], [2.089157, 48.703842], [2.08863, 48.703903], [2.087696, 48.703987], [2.086953, 48.704025], [2.086241, 48.704044], [2.08551, 48.704048], [2.08456, 48.70401], [2.08395, 48.703968], [2.074362, 48.703049], [2.072891, 48.702888], [2.070992, 48.702702]]}, "properties": {"id": "rer-b", "branchId": "rer-b::0", "termini": "Aéroport Charles de Gaulle 2 (Terminal 2) - Saint-Rémy-lès-Chevreuse", "source": "Ile-de-France Mobilites GTFS (data.iledefrance-mobilites.fr), Mobility License"}}, {"type": "Feature", "geometry": {"type": "LineString", "coordinates": [[2.642283, 48.975925], [2.640961, 48.975021], [2.640343, 48.974552], [2.639826, 48.97419], [2.623734, 48.963146], [2.623254, 48.962826], [2.621744, 48.961842], [2.62088, 48.961262], [2.619997, 48.960663], [2.617276, 48.95879], [2.61659, 48.958309], [2.615382, 48.957417], [2.61489, 48.957069], [2.61444, 48.956764], [2.613955, 48.956463], [2.613494, 48.956192], [2.6133, 48.956081], [2.612887, 48.955868], [2.612497, 48.955681], [2.61219, 48.955544], [2.611652, 48.955326], [2.61109, 48.95512], [2.61067, 48.954987], [2.610085, 48.954819], [2.60939, 48.954647], [2.601984, 48.95293], [2.601984, 48.95293], [2.599569, 48.952328], [2.59859, 48.952099], [2.584574, 48.948845], [2.573578, 48.946072], [2.569157, 48.944908], [2.567647, 48.944538], [2.566374, 48.944206], [2.565131, 48.943855], [2.565131, 48.943855], [2.563694, 48.943455], [2.552891, 48.94059], [2.551404, 48.940201], [2.550609, 48.940002], [2.54567, 48.938847], [2.53794, 48.937023], [2.536881, 48.936798], [2.535708, 48.936562], [2.535087, 48.936428], [2.533892, 48.936115], [2.533892, 48.936115], [2.530557, 48.935097], [2.528398, 48.934467], [2.522851, 48.932861], [2.52213, 48.932667], [2.52132, 48.932465], [2.520596, 48.932312], [2.519804, 48.932171], [2.519315, 48.932098], [2.518451, 48.931999], [2.517784, 48.931942], [2.51685, 48.931896], [2.516165, 48.931885], [2.515352, 48.931896], [2.512446, 48.931973], [2.511953, 48.931995], [2.511344, 48.932037], [2.50953, 48.932186], [2.508993, 48.932217], [2.508454, 48.932228], [2.507989, 48.932232], [2.50569, 48.932186], [2.50509, 48.932182], [2.502412, 48.932209], [2.500308, 48.932213], [2.497069, 48.932205], [2.495597, 48.932182], [2.495597, 48.932182], [2.4928, 48.932133], [2.47406, 48.932343], [2.47406, 48.932343], [2.471291, 48.932377], [2.470037, 48.9324], [2.465024, 48.932564], [2.463394, 48.93261], [2.456873, 48.932724], [2.455187, 48.932735], [2.453672, 48.932755], [2.453672, 48.932755], [2.451703, 48.932762], [2.447729, 48.93272], [2.441385, 48.932785], [2.440366, 48.932785], [2.439767, 48.932781], [2.439252, 48.932762], [2.438698, 48.932735], [2.437617, 48.932667], [2.436416, 48.932556], [2.435479, 48.932449], [2.434694, 48.932339], [2.434049, 48.93224], [2.431727, 48.931839], [2.429385, 48.931396], [2.42804, 48.93116], [2.425311, 48.930714], [2.425311, 48.930714], [2.418536, 48.929577], [2.416318, 48.929211], [2.414095, 48.928856], [2.401307, 48.926739], [2.400069, 48.926548], [2.397069, 48.926105], [2.393385, 48.925526], [2.387803, 48.924637], [2.386855, 48.924477], [2.384924, 48.924137], [2.384924, 48.924137], [2.384097, 48.923988], [2.382941, 48.923759], [2.381601, 48.923477], [2.380547, 48.923241], [2.377741, 48.922562], [2.367566, 48.920059], [2.366928, 48.919884], [2.366422, 48.919727], [2.366027, 48.919586], [2.365085, 48.919209], [2.364426, 48.918926], [2.363688, 48.918598], [2.363332, 48.91843], [2.362661, 48.918091], [2.362661, 48.918091], [2.361675, 48.91753], [2.361242, 48.917294], [2.359409, 48.916309], [2.35576, 48.91431], [2.354842, 48.913784], [2.354529, 48.913578], [2.354254, 48.913387], [2.353959, 48.913155], [2.353691, 48.912926], [2.353454, 48.912689], [2.353204, 48.912403], [2.353012, 48.912151], [2.352873, 48.911934], [2.352704, 48.911625], [2.352628, 48.911442], [2.352577, 48.911301], [2.352497, 48.910992], [2.352472, 48.910873], [2.352424, 48.910519], [2.352412, 48.910259], [2.352413, 48.910072], [2.352427, 48.909863], [2.352472, 48.909565], [2.352529, 48.909302], [2.352605, 48.909019], [2.352665, 48.908833], [2.352744, 48.908627], [2.352986, 48.908012], [2.353117, 48.907578], [2.353177, 48.907261], [2.353197, 48.907104], [2.353235, 48.906521], [2.353274, 48.906033], [2.353327, 48.905727], [2.353463, 48.905136], [2.353623, 48.904579], [2.354281, 48.902542], [2.354366, 48.902264], [2.354448, 48.901943], [2.35465, 48.900883], [2.354776, 48.900089], [2.354952, 48.898586], [2.35502, 48.898106], [2.355093, 48.897747], [2.355643, 48.895443], [2.355795, 48.894886], [2.356128, 48.893875], [2.356401, 48.89307], [2.356551, 48.892666], [2.356657, 48.892414], [2.356838, 48.892036], [2.357011, 48.891628], [2.357244, 48.891113], [2.357357, 48.890835], [2.357457, 48.890553], [2.35755, 48.890217], [2.357628, 48.889816], [2.35786, 48.888393], [2.357943, 48.887486], [2.35802, 48.886402], [2.358053, 48.884682], [2.358084, 48.884537], [2.358155, 48.884346], [2.358196, 48.884167], [2.358226, 48.883919], [2.358238, 48.883724], [2.358238, 48.883545], [2.358224, 48.883137], [2.358213, 48.88298], [2.358193, 48.882809], [2.358149, 48.882561], [2.358118, 48.882423], [2.358037, 48.882145], [2.357927, 48.881847], [2.357698, 48.881348], [2.357698, 48.881348], [2.357382, 48.880661], [2.357287, 48.880489], [2.357152, 48.880276], [2.356929, 48.880005], [2.356827, 48.879898], [2.355374, 48.878601], [2.355082, 48.878361], [2.354722, 48.878094], [2.353615, 48.877411], [2.351202, 48.876026], [2.350754, 48.875736], [2.350455, 48.8755], [2.350113, 48.875183], [2.349828, 48.874855], [2.346189, 48.869671], [2.345965, 48.869286], [2.345798, 48.868942], [2.345666, 48.868618], [2.345553, 48.868244], [2.34546, 48.86787], [2.345434, 48.867733], [2.3454, 48.867409], [2.345376, 48.866932], [2.345413, 48.86647], [2.345491, 48.865997], [2.34559, 48.865646], [2.34614, 48.864204], [2.346438, 48.863586], [2.347191, 48.861835], [2.347191, 48.861835], [2.347821, 48.860363], [2.348031, 48.859982], [2.348525, 48.85928], [2.348992, 48.858646], [2.349185, 48.858345], [2.349321, 48.858032], [2.349399, 48.857712], [2.349418, 48.857388], [2.349377, 48.857063], [2.349277, 48.856743], [2.349119, 48.856434], [2.349019, 48.856285], [2.347821, 48.854626], [2.347691, 48.854458], [2.347547, 48.854294], [2.34739, 48.854137], [2.347221, 48.853985], [2.34704, 48.85384], [2.346848, 48.853699], [2.346645, 48.853569], [2.345239, 48.852707], [2.345239, 48.852707], [2.343911, 48.851898], [2.343569, 48.851662], [2.343272, 48.851402], [2.343025, 48.85112], [2.342831, 48.850822], [2.342308, 48.849735], [2.340606, 48.846943], [2.340382, 48.846485], [2.339812, 48.845432], [2.339812, 48.845432], [2.339282, 48.844448], [2.338511, 48.843113], [2.338002, 48.842201], [2.337455, 48.841103], [2.337334, 48.840809], [2.337075, 48.839924], [2.336915, 48.839516], [2.336846, 48.839359], [2.336846, 48.839359], [2.336737, 48.839092], [2.336516, 48.838692], [2.336387, 48.838516], [2.336092, 48.838184], [2.335136, 48.837265], [2.334163, 48.836304], [2.333304, 48.835361], [2.333052, 48.835041], [2.33295, 48.834824], [2.33288, 48.83461], [2.33285, 48.834412], [2.332861, 48.834145], [2.332911, 48.833935], [2.332985, 48.833698], [2.333217, 48.833096], [2.333338, 48.832745], [2.333338, 48.832745], [2.333583, 48.831978], [2.333649, 48.831802], [2.333767, 48.83157], [2.333877, 48.831398], [2.333961, 48.831284], [2.334059, 48.831165], [2.334322, 48.83091], [2.334738, 48.830532], [2.335018, 48.830299], [2.335301, 48.830044], [2.33538, 48.82996], [2.335526, 48.829777], [2.335746, 48.829418], [2.335923, 48.829037], [2.336091, 48.828564], [2.336976, 48.825722], [2.337235, 48.824909], [2.33739, 48.824463], [2.337618, 48.823711], [2.337694, 48.823483], [2.337795, 48.823227], [2.337886, 48.82304], [2.338038, 48.822769], [2.338253, 48.822449], [2.338722, 48.821796], [2.338793, 48.821682], [2.338926, 48.821392], [2.338982, 48.821205], [2.339013, 48.820988], [2.339031, 48.820747], [2.339031, 48.820747], [2.339037, 48.820602], [2.338989, 48.819748], [2.338987, 48.819504], [2.338994, 48.819271], [2.338991, 48.818886], [2.339026, 48.818745], [2.339187, 48.818401], [2.339513, 48.817924], [2.339684, 48.817696], [2.34013, 48.817066], [2.340298, 48.816788], [2.340455, 48.816467], [2.340594, 48.816151], [2.340686, 48.815933], [2.340805, 48.81562], [2.340923, 48.815228], [2.340923, 48.815228], [2.340976, 48.814972], [2.340988, 48.81485], [2.340986, 48.814617], [2.340975, 48.814465], [2.340943, 48.814289], [2.340889, 48.814079], [2.340774, 48.813751], [2.340686, 48.813572], [2.340584, 48.813396], [2.34045, 48.813194], [2.340253, 48.812946], [2.34003, 48.812695], [2.339811, 48.812469], [2.339633, 48.812294], [2.33946, 48.812138], [2.339108, 48.81184], [2.338858, 48.811646], [2.338203, 48.811172], [2.336966, 48.810253], [2.336421, 48.80983], [2.336095, 48.809563], [2.33575, 48.809303], [2.334932, 48.808712], [2.334453, 48.80835], [2.333485, 48.807632], [2.333485, 48.807632], [2.332885, 48.807182], [2.331707, 48.806232], [2.331041, 48.805717], [2.33053, 48.805305], [2.330367, 48.805164], [2.32999, 48.804798], [2.329775, 48.804565], [2.329582, 48.804325], [2.329312, 48.803886], [2.329211, 48.80368], [2.32912, 48.803455], [2.329029, 48.803169], [2.328932, 48.802727], [2.328809, 48.802055], [2.328736, 48.801708], [2.328513, 48.8008], [2.328131, 48.798691], [2.328131, 48.798691], [2.327919, 48.797523], [2.327804, 48.796944], [2.327738, 48.796688], [2.327613, 48.796345], [2.327484, 48.796047], [2.327324, 48.795761], [2.327115, 48.795467], [2.326853, 48.795162], [2.326599, 48.79491], [2.326291, 48.794655], [2.32615, 48.794548], [2.325819, 48.794331], [2.325631, 48.794224], [2.325257, 48.794041], [2.324798, 48.793858], [2.324561, 48.793777], [2.324033, 48.793629], [2.323559, 48.793514], [2.32318, 48.793446], [2.322713, 48.793369], [2.322227, 48.79332], [2.32134, 48.793259], [2.32134, 48.793259], [2.320645, 48.793217], [2.319972, 48.793148], [2.319372, 48.793026], [2.318971, 48.792912], [2.31877, 48.792843], [2.318471, 48.792717], [2.318188, 48.792572], [2.317919, 48.792412], [2.317674, 48.792229], [2.317455, 48.79203], [2.317358, 48.791927], [2.317183, 48.79171], [2.317086, 48.791569], [2.316829, 48.791161], [2.316092, 48.789948], [2.315434, 48.788898], [2.314481, 48.787437], [2.313564, 48.785931], [2.31289, 48.784847], [2.312759, 48.784622], [2.312616, 48.784355], [2.312518, 48.784092], [2.312449, 48.783871], [2.312422, 48.783749], [2.312407, 48.78363], [2.312393, 48.783382], [2.312396, 48.783264], [2.312421, 48.783016], [2.312457, 48.782825], [2.312517, 48.7826], [2.312699, 48.781746], [2.312733, 48.781506], [2.31274, 48.781372], [2.312736, 48.78109], [2.312719, 48.780964], [2.312683, 48.780792], [2.312641, 48.780651], [2.312594, 48.780514], [2.312527, 48.780357], [2.312433, 48.780182], [2.312433, 48.780182], [2.310944, 48.777542], [2.310506, 48.776791], [2.310269, 48.776291], [2.310151, 48.775997], [2.310071, 48.775768], [2.310004, 48.775539], [2.309935, 48.775154], [2.309914, 48.774918], [2.30991, 48.774784], [2.309917, 48.774551], [2.309935, 48.774242], [2.309945, 48.774139], [2.310042, 48.773502], [2.310169, 48.772915], [2.310273, 48.772331], [2.310319, 48.771812], [2.310317, 48.77129], [2.310291, 48.77095], [2.310262, 48.770752], [2.310194, 48.770397], [2.310087, 48.76997], [2.309995, 48.769699], [2.309995, 48.769699], [2.309946, 48.769554], [2.30979, 48.769176], [2.309597, 48.768784], [2.309478, 48.768578], [2.309245, 48.7682], [2.308975, 48.767815], [2.308708, 48.76749], [2.306449, 48.764908], [2.305696, 48.764027], [2.305195, 48.763329], [2.30481, 48.76273], [2.304644, 48.762436], [2.304271, 48.761688], [2.304271, 48.761688], [2.303714, 48.760555], [2.303196, 48.759521], [2.302983, 48.759052], [2.3028, 48.758671], [2.302646, 48.758419], [2.302538, 48.758213], [2.30244, 48.758045], [2.301995, 48.757137], [2.301234, 48.755554], [2.301072, 48.75518], [2.301072, 48.75518], [2.300625, 48.754154], [2.300416, 48.753609], [2.300261, 48.75317], [2.300124, 48.752686], [2.299546, 48.750221], [2.29884, 48.747116], [2.29874, 48.746719], [2.298655, 48.746441], [2.298551, 48.74617], [2.298434, 48.745899], [2.298305, 48.745636], [2.298127, 48.745323], [2.297989, 48.74511], [2.297667, 48.744663], [2.297318, 48.744267], [2.296931, 48.74387], [2.296529, 48.743511], [2.29625, 48.743282], [2.29595, 48.743057], [2.29595, 48.743057], [2.295367, 48.74268], [2.294906, 48.742405], [2.29446, 48.742172], [2.293959, 48.741936], [2.293692, 48.741817], [2.292948, 48.741535], [2.291394, 48.740997], [2.290691, 48.740715], [2.288115, 48.739826], [2.288115, 48.739826], [2.28432, 48.738506], [2.283766, 48.738285], [2.28331, 48.738094], [2.282809, 48.737862], [2.281797, 48.737373], [2.281529, 48.737251], [2.281061, 48.73708], [2.28062, 48.736931], [2.28016, 48.736801], [2.279684, 48.736679], [2.278716, 48.736458], [2.278327, 48.736351], [2.277057, 48.735901], [2.275979, 48.735531], [2.273748, 48.734791], [2.273748, 48.734791], [2.272338, 48.734318], [2.271864, 48.734131], [2.270296, 48.733444], [2.270101, 48.733349], [2.269757, 48.733162], [2.269624, 48.733078], [2.269333, 48.732872], [2.269077, 48.732651], [2.268839, 48.732399], [2.268681, 48.732212], [2.268111, 48.731487], [2.268003, 48.731365], [2.26783, 48.731182], [2.267578, 48.730953], [2.267406, 48.730816], [2.266585, 48.730217], [2.264436, 48.728664], [2.263647, 48.728054], [2.262024, 48.726757], [2.26133, 48.726166], [2.259184, 48.724457], [2.259184, 48.724457], [2.258075, 48.723576], [2.257144, 48.722801], [2.256104, 48.722012], [2.25581, 48.721806], [2.255598, 48.721672], [2.255358, 48.72155], [2.255112, 48.721443], [2.25491, 48.721367], [2.254528, 48.721241], [2.254078, 48.72113], [2.253768, 48.721073], [2.253552, 48.721043], [2.252697, 48.720959], [2.251693, 48.720875], [2.251398, 48.720837], [2.251054, 48.720776], [2.2507, 48.720699], [2.2504, 48.720619], [2.250053, 48.720486], [2.249758, 48.720348], [2.249449, 48.720169], [2.248672, 48.719658], [2.247899, 48.719105], [2.2475, 48.7188], [2.24717, 48.718525], [2.247005, 48.718384], [2.246741, 48.718136], [2.246449, 48.717842], [2.24617, 48.717541], [2.245614, 48.716843], [2.245614, 48.716843], [2.244752, 48.715759], [2.244471, 48.715431], [2.244088, 48.715004], [2.243749, 48.714661], [2.243391, 48.714336], [2.243035, 48.714058], [2.241349, 48.712837], [2.241051, 48.712585], [2.240768, 48.712311], [2.239831, 48.711224], [2.23945, 48.710854], [2.238544, 48.710045], [2.238198, 48.709694], [2.237896, 48.70932], [2.237689, 48.708996], [2.237595, 48.708809], [2.237519, 48.708637], [2.23706, 48.707397], [2.23706, 48.707397], [2.23691, 48.70705], [2.236806, 48.706856], [2.236687, 48.706669], [2.236545, 48.70649], [2.236236, 48.706192], [2.235997, 48.706005], [2.235736, 48.705837], [2.235451, 48.705681], [2.235149, 48.705547], [2.234824, 48.705433], [2.234484, 48.705334], [2.234174, 48.705265], [2.233721, 48.705185], [2.233289, 48.705132], [2.232873, 48.705101], [2.232401, 48.705082], [2.232016, 48.70509], [2.23159, 48.705112], [2.226093, 48.705593], [2.225764, 48.705608], [2.225373, 48.705608], [2.224845, 48.705574], [2.223158, 48.705383], [2.222722, 48.705353], [2.222362, 48.705349], [2.221945, 48.70536], [2.219801, 48.705532], [2.219262, 48.705559], [2.218769, 48.705559], [2.218279, 48.705544], [2.216459, 48.70541], [2.215852, 48.705383], [2.215594, 48.705387], [2.215322, 48.705402], [2.215102, 48.705421], [2.214897, 48.705444], [2.214656, 48.705479], [2.214126, 48.705582], [2.212712, 48.705875], [2.212712, 48.705875], [2.212262, 48.705948], [2.211966, 48.705982], [2.211689, 48.706005], [2.211168, 48.706028], [2.210893, 48.706028], [2.210623, 48.70602], [2.210215, 48.705994], [2.208811, 48.705853], [2.208381, 48.70583], [2.207883, 48.705818], [2.195068, 48.705776], [2.194695, 48.705761], [2.194265, 48.705723], [2.194011, 48.705692], [2.19371, 48.705643], [2.19319, 48.705532], [2.192827, 48.705425], [2.192554, 48.705334], [2.192299, 48.705235], [2.192099, 48.705147], [2.191822, 48.705006], [2.191822, 48.705006], [2.191651, 48.704914], [2.191446, 48.704792], [2.191212, 48.704636], [2.190808, 48.704342], [2.188381, 48.702515], [2.187965, 48.70219], [2.187712, 48.701962], [2.187527, 48.701767], [2.187334, 48.701519], [2.187182, 48.701286], [2.187159, 48.701218], [2.186917, 48.700798], [2.186444, 48.699909], [2.186334, 48.699711], [2.186243, 48.699577], [2.186094, 48.699383], [2.185955, 48.699223], [2.185823, 48.699085], [2.185511, 48.698822], [2.185224, 48.698616], [2.18495, 48.698448], [2.184619, 48.698284], [2.184314, 48.698162], [2.183927, 48.698029], [2.183631, 48.697945], [2.183444, 48.697899], [2.182842, 48.697788], [2.182525, 48.697746], [2.182117, 48.697708], [2.180469, 48.697433], [2.180469, 48.697433], [2.177406, 48.696934], [2.176802, 48.6968], [2.172349, 48.696064], [2.171679, 48.69598], [2.171393, 48.695957], [2.171088, 48.69595], [2.170514, 48.695965], [2.169877, 48.696022], [2.167451, 48.696404], [2.166961, 48.696465], [2.166674, 48.696487], [2.166332, 48.696499], [2.165936, 48.696491], [2.165401, 48.696442], [2.165078, 48.696392], [2.164748, 48.69632], [2.164412, 48.696236], [2.164242, 48.696182], [2.163871, 48.696045], [2.163611, 48.69593], [2.163285, 48.695763], [2.163285, 48.695763], [2.163086, 48.695652], [2.161584, 48.694725], [2.16136, 48.694603], [2.161099, 48.694477], [2.160563, 48.694252], [2.160233, 48.694141], [2.159928, 48.694054], [2.159395, 48.693943], [2.159112, 48.693897], [2.158828, 48.693863], [2.158517, 48.693836], [2.158087, 48.693821], [2.157848, 48.693821], [2.15751, 48.693836], [2.157218, 48.693859], [2.156811, 48.693905], [2.1564, 48.693977], [2.155988, 48.694073], [2.15501, 48.694328], [2.153592, 48.694721], [2.151598, 48.695255], [2.151598, 48.695255], [2.14117, 48.698074], [2.140644, 48.698204], [2.140231, 48.698284], [2.139933, 48.698322], [2.139526, 48.698364], [2.139023, 48.69838], [2.138571, 48.698372], [2.137879, 48.698315], [2.135236, 48.698025], [2.135236, 48.698025], [2.13129, 48.697594], [2.130887, 48.697559], [2.130466, 48.697529], [2.130039, 48.697533], [2.129612, 48.697552], [2.129104, 48.697605], [2.128733, 48.697666], [2.128367, 48.697742], [2.12372, 48.698975], [2.122077, 48.699421], [2.121449, 48.699577], [2.120835, 48.699699], [2.120199, 48.699818], [2.119337, 48.69994], [2.118762, 48.700005], [2.113295, 48.700565], [2.112534, 48.700623], [2.11188, 48.700649], [2.110879, 48.700653], [2.11021, 48.70063], [2.109545, 48.700581], [2.106387, 48.700314], [2.105658, 48.700272], [2.104922, 48.700253], [2.104186, 48.700256], [2.103451, 48.700279], [2.102748, 48.700325], [2.101992, 48.700397], [2.101337, 48.700474], [2.100556, 48.700596], [2.099854, 48.700726], [2.099271, 48.700855], [2.098812, 48.700966], [2.098366, 48.701084], [2.097712, 48.701279], [2.097712, 48.701279], [2.096955, 48.70153], [2.096263, 48.701786], [2.094416, 48.702499], [2.093726, 48.702755], [2.093072, 48.70298], [2.092411, 48.703182], [2.09185, 48.703331], [2.091327, 48.703457], [2.090623, 48.703602], [2.089918, 48.703728], [2.089157, 48.703842], [2.08863, 48.703903], [2.087696, 48.703987], [2.086953, 48.704025], [2.086241, 48.704044], [2.08551, 48.704048], [2.08456, 48.70401], [2.08395, 48.703968], [2.074362, 48.703049], [2.072891, 48.702888], [2.070992, 48.702702]]}, "properties": {"id": "rer-b", "branchId": "rer-b::1", "termini": "Mitry - Claye - Saint-Rémy-lès-Chevreuse", "source": "Ile-de-France Mobilites GTFS (data.iledefrance-mobilites.fr), Mobility License"}}, {"type": "Feature", "geometry": {"type": "LineString", "coordinates": [[2.281281, 48.780083], [2.281586, 48.780514], [2.28172, 48.78072], [2.281907, 48.781044], [2.281989, 48.7812], [2.2823, 48.781902], [2.282537, 48.782413], [2.282682, 48.782703], [2.282754, 48.782822], [2.282913, 48.783047], [2.283006, 48.783154], [2.283101, 48.783257], [2.283272, 48.783421], [2.283513, 48.783611], [2.283769, 48.783779], [2.284049, 48.783936], [2.284194, 48.784004], [2.284512, 48.784134], [2.284777, 48.784229], [2.285006, 48.784294], [2.285348, 48.784374], [2.286512, 48.78463], [2.286871, 48.784718], [2.287269, 48.784843], [2.28751, 48.784943], [2.287731, 48.785046], [2.28786, 48.785118], [2.288144, 48.785301], [2.288275, 48.7854], [2.288442, 48.785553], [2.288665, 48.785789], [2.289245, 48.786465], [2.289532, 48.786747], [2.289697, 48.786884], [2.289916, 48.787029], [2.290193, 48.787186], [2.290424, 48.787289], [2.290724, 48.787403], [2.290883, 48.787453], [2.291332, 48.787556], [2.29156, 48.787594], [2.291864, 48.787624], [2.292032, 48.787636], [2.292342, 48.78764], [2.292533, 48.787636], [2.292913, 48.787601], [2.292913, 48.787601], [2.293134, 48.787567], [2.293444, 48.787498], [2.293654, 48.787445], [2.293858, 48.787384], [2.294089, 48.787296], [2.294264, 48.787216], [2.294458, 48.787117], [2.294699, 48.786972], [2.29496, 48.78677], [2.295089, 48.786652], [2.295252, 48.786476], [2.295423, 48.786251], [2.29549, 48.786137], [2.295561, 48.785992], [2.295644, 48.785725], [2.295673, 48.785561], [2.295685, 48.785442], [2.295682, 48.785271], [2.295655, 48.785053], [2.295509, 48.78437], [2.295457, 48.784073], [2.295436, 48.783806], [2.295444, 48.783596], [2.29548, 48.783337], [2.295562, 48.783054], [2.295679, 48.78281], [2.295881, 48.782509], [2.295982, 48.782387], [2.29614, 48.782223], [2.296252, 48.78212], [2.296473, 48.781948], [2.296885, 48.781704], [2.297233, 48.78154], [2.297606, 48.781406], [2.29793, 48.781311], [2.29793, 48.781311], [2.298103, 48.781265], [2.298709, 48.781128], [2.299364, 48.780991], [2.307635, 48.779293], [2.308228, 48.779175], [2.308546, 48.779125], [2.308998, 48.779095], [2.309283, 48.779087], [2.309609, 48.77911], [2.310108, 48.779179], [2.310535, 48.779289], [2.310715, 48.77935], [2.310997, 48.779469], [2.311297, 48.779636], [2.31144, 48.779724], [2.311694, 48.779911], [2.311803, 48.780006], [2.312037, 48.780239], [2.31222, 48.78051], [2.312328, 48.780716], [2.312379, 48.780834], [2.312411, 48.780956], [2.312425, 48.781082], [2.312425, 48.781082], [2.312437, 48.781197], [2.312437, 48.781376], [2.312419, 48.781544], [2.312371, 48.781799], [2.312317, 48.782013], [2.312196, 48.782555], [2.312156, 48.78281], [2.312148, 48.783043], [2.312185, 48.783409], [2.312242, 48.783649], [2.31233, 48.783886], [2.312514, 48.784294], [2.312865, 48.784992], [2.313389, 48.78598], [2.313656, 48.786442], [2.314302, 48.787491], [2.314646, 48.78801], [2.316173, 48.790207], [2.316649, 48.790955], [2.317039, 48.791584], [2.31723, 48.79184], [2.317417, 48.792053], [2.317636, 48.792248], [2.317883, 48.792435], [2.3181, 48.792568], [2.318292, 48.792675], [2.318646, 48.792839], [2.318822, 48.792908], [2.319027, 48.792973], [2.319441, 48.793087], [2.319769, 48.793156], [2.319948, 48.793186], [2.320479, 48.793247], [2.322009, 48.793339], [2.322009, 48.793339], [2.322473, 48.793377], [2.322702, 48.793404], [2.323536, 48.793545], [2.324031, 48.793659], [2.324487, 48.793793], [2.324752, 48.79388], [2.324963, 48.793957], [2.325375, 48.794144], [2.325573, 48.794239], [2.325922, 48.794441], [2.326257, 48.794678], [2.326408, 48.7948], [2.326556, 48.79493], [2.326825, 48.795197], [2.32707, 48.795483], [2.327278, 48.795776], [2.327433, 48.796055], [2.32756, 48.796352], [2.327683, 48.7967], [2.327754, 48.796955], [2.327885, 48.797604], [2.328247, 48.799618], [2.328247, 48.799618], [2.328896, 48.803185], [2.328984, 48.803478], [2.329075, 48.803711], [2.329177, 48.803917], [2.329293, 48.804111], [2.329495, 48.804394], [2.329608, 48.804535], [2.329806, 48.804756], [2.330216, 48.805172], [2.330575, 48.8055], [2.330764, 48.805664], [2.331168, 48.805973], [2.33161, 48.806286], [2.332166, 48.806717], [2.33318, 48.807575], [2.333671, 48.807953], [2.334306, 48.808414], [2.334306, 48.808414], [2.334743, 48.808746], [2.335964, 48.809643], [2.337156, 48.810452], [2.338625, 48.811531], [2.3391, 48.811897], [2.33954, 48.812275], [2.339722, 48.812447], [2.339885, 48.812614], [2.340189, 48.812943], [2.340395, 48.813202], [2.340509, 48.813362], [2.340672, 48.813652], [2.340727, 48.813766], [2.34084, 48.814083], [2.340888, 48.81427], [2.340925, 48.814468], [2.340939, 48.814617], [2.340936, 48.81485], [2.340909, 48.815079], [2.340836, 48.815372], [2.340758, 48.815609], [2.340696, 48.815777], [2.340574, 48.816074], [2.340574, 48.816074], [2.340406, 48.816456], [2.340247, 48.816776], [2.340079, 48.817055], [2.339637, 48.81768], [2.339461, 48.817913], [2.339136, 48.818394], [2.338968, 48.818748], [2.338939, 48.818886], [2.33894, 48.819267], [2.338933, 48.819504], [2.338935, 48.819748], [2.338981, 48.820583], [2.338976, 48.820747], [2.338955, 48.821014], [2.338928, 48.821209], [2.338864, 48.821396], [2.338822, 48.821491], [2.338822, 48.821491], [2.338751, 48.821648], [2.338565, 48.821941], [2.338114, 48.822567], [2.337949, 48.822819], [2.337751, 48.8232], [2.337695, 48.823341], [2.337639, 48.82349], [2.337437, 48.824139], [2.337316, 48.824455], [2.337126, 48.824898], [2.337016, 48.82518], [2.336005, 48.828369], [2.33582, 48.828918], [2.335572, 48.829571], [2.33546, 48.829765], [2.33529, 48.829987], [2.335186, 48.83009], [2.334971, 48.830284], [2.334729, 48.830482], [2.334569, 48.830627], [2.334053, 48.831112], [2.333869, 48.831333], [2.33372, 48.831558], [2.333599, 48.831806], [2.333541, 48.831959], [2.333219, 48.832947], [2.332938, 48.833691], [2.332862, 48.833931], [2.332862, 48.833931], [2.332811, 48.834141], [2.3328, 48.834305], [2.332809, 48.834488], [2.332833, 48.83461], [2.332902, 48.834824], [2.333007, 48.835049], [2.333261, 48.835373], [2.334112, 48.836319], [2.335093, 48.83728], [2.336043, 48.8382], [2.336333, 48.838524], [2.336466, 48.838703], [2.336689, 48.839104], [2.337032, 48.839931], [2.337292, 48.840813], [2.337292, 48.840813], [2.337386, 48.841061], [2.337952, 48.842209], [2.339237, 48.844456], [2.339772, 48.845451], [2.339772, 48.845451], [2.340333, 48.846497], [2.340566, 48.846954], [2.342259, 48.849747], [2.342938, 48.851135], [2.343132, 48.851437], [2.343379, 48.851719], [2.343676, 48.851978], [2.344018, 48.852211], [2.345691, 48.853233], [2.345691, 48.853233], [2.346454, 48.853699], [2.346657, 48.853832], [2.346849, 48.853973], [2.34703, 48.854118], [2.347199, 48.854271], [2.347356, 48.854427], [2.347499, 48.854591], [2.34763, 48.854755], [2.347747, 48.854927], [2.34794, 48.855282], [2.348341, 48.856155], [2.34844, 48.856476], [2.34848, 48.8568], [2.34846, 48.857124], [2.348381, 48.857445], [2.347797, 48.859177], [2.34748, 48.860241], [2.346844, 48.861744], [2.346844, 48.861744], [2.346407, 48.862778], [2.345791, 48.864326], [2.345611, 48.865032], [2.345424, 48.865997], [2.345354, 48.866467], [2.345316, 48.866928], [2.34534, 48.867405], [2.345384, 48.867733], [2.34549, 48.868252], [2.345605, 48.868637], [2.345732, 48.868961], [2.3459, 48.869308], [2.346119, 48.869686], [2.349779, 48.87487], [2.350053, 48.875206], [2.350375, 48.875519], [2.350719, 48.875778], [2.351152, 48.876053], [2.35358, 48.877434], [2.354201, 48.877846], [2.354758, 48.878311], [2.356179, 48.879681], [2.35653, 48.879993], [2.356734, 48.880215], [2.356979, 48.88055], [2.357055, 48.880676], [2.357161, 48.880882], [2.357404, 48.881405], [2.357404, 48.881405], [2.357659, 48.881977], [2.357756, 48.882244], [2.357827, 48.882492], [2.357882, 48.882751], [2.357908, 48.882938], [2.357925, 48.883121], [2.357941, 48.883568], [2.357942, 48.885208], [2.357929, 48.886402], [2.357854, 48.887524], [2.357781, 48.88834], [2.357557, 48.889816], [2.357486, 48.890144], [2.357395, 48.890472], [2.357292, 48.890755], [2.357122, 48.891155], [2.35563, 48.894276], [2.355417, 48.894806], [2.354898, 48.896339], [2.35472, 48.896965], [2.354626, 48.897404], [2.354602, 48.897556], [2.354564, 48.897942], [2.354511, 48.899231], [2.354477, 48.899654], [2.35445, 48.899857], [2.354402, 48.90012], [2.354136, 48.901302], [2.353956, 48.901924], [2.353571, 48.903095], [2.353424, 48.903629], [2.353362, 48.903934], [2.353057, 48.905991], [2.352908, 48.907253], [2.352865, 48.907524], [2.352775, 48.907967], [2.352631, 48.908501], [2.352323, 48.909447], [2.352266, 48.909637], [2.352213, 48.909859], [2.35217, 48.910118], [2.352142, 48.910454], [2.352153, 48.910778], [2.352193, 48.911053], [2.352249, 48.911293], [2.352292, 48.911427], [2.35239, 48.911667], [2.352496, 48.911892], [2.35265, 48.912144], [2.352837, 48.912399], [2.353103, 48.912704], [2.353205, 48.912807], [2.353401, 48.912991], [2.353728, 48.913246], [2.354033, 48.913456], [2.35421, 48.913567], [2.354978, 48.914017], [2.358593, 48.916004], [2.359904, 48.91671], [2.360401, 48.916992], [2.360841, 48.917259], [2.362019, 48.918018], [2.362402, 48.918236], [2.362402, 48.918236], [2.363019, 48.918564], [2.363421, 48.918751], [2.363996, 48.919006], [2.364773, 48.919304], [2.365411, 48.919521], [2.365788, 48.91964], [2.366653, 48.919884], [2.370461, 48.920822], [2.371969, 48.921177], [2.379224, 48.922958], [2.381116, 48.923405], [2.382601, 48.923721], [2.384142, 48.92403], [2.386101, 48.924374], [2.386101, 48.924374], [2.387514, 48.924622], [2.397062, 48.926136], [2.400266, 48.926609], [2.401292, 48.926769], [2.415193, 48.92907], [2.416303, 48.929241], [2.41962, 48.92979], [2.425297, 48.930744], [2.425297, 48.930744], [2.428992, 48.931358], [2.431566, 48.931843], [2.434047, 48.932274], [2.435087, 48.93243], [2.43596, 48.932541], [2.437228, 48.932671], [2.437627, 48.932701], [2.43869, 48.93277], [2.439268, 48.932796], [2.440068, 48.932816], [2.440848, 48.932823], [2.447472, 48.932755], [2.448313, 48.932755], [2.452293, 48.932796], [2.455806, 48.932762], [2.455806, 48.932762], [2.456874, 48.932755], [2.463933, 48.932632], [2.468765, 48.932472], [2.470675, 48.932419], [2.472606, 48.932407], [2.476836, 48.932407], [2.476836, 48.932407], [2.477616, 48.932404], [2.47855, 48.932384], [2.480726, 48.932304], [2.490436, 48.93219], [2.491317, 48.932186], [2.492113, 48.932198], [2.49283, 48.932217], [2.494395, 48.932278], [2.495597, 48.932304], [2.496768, 48.93232], [2.496768, 48.93232], [2.499186, 48.932312], [2.50233, 48.932293], [2.504689, 48.93227], [2.505729, 48.93227], [2.509804, 48.932362], [2.510733, 48.932404], [2.512671, 48.932526], [2.513896, 48.932625], [2.514462, 48.932693], [2.515004, 48.932774], [2.515572, 48.932888], [2.515989, 48.932995], [2.517027, 48.933296], [2.51794, 48.93375], [2.519111, 48.934483], [2.519814, 48.935081], [2.520654, 48.935848], [2.521657, 48.937046], [2.523206, 48.939644], [2.523927, 48.940918], [2.524853, 48.943428], [2.52499, 48.943924], [2.525004, 48.944496], [2.524896, 48.945297], [2.524694, 48.947563], [2.524694, 48.947563], [2.524609, 48.948296], [2.524488, 48.94891], [2.524361, 48.949276], [2.524214, 48.949596], [2.523871, 48.950203], [2.52372, 48.950447], [2.523335, 48.950901], [2.52314, 48.951111], [2.522725, 48.951538], [2.515713, 48.958553], [2.515033, 48.95924], [2.514682, 48.959625], [2.51455, 48.959774], [2.514374, 48.959995], [2.514069, 48.960415], [2.513721, 48.960945], [2.512833, 48.962357], [2.512725, 48.962528], [2.512725, 48.962528], [2.511432, 48.964619], [2.511297, 48.964863], [2.511156, 48.965153], [2.511086, 48.965317], [2.510938, 48.965733], [2.510899, 48.965866], [2.510835, 48.966156], [2.510796, 48.966389], [2.510775, 48.966587], [2.510762, 48.966824], [2.510772, 48.96722], [2.510791, 48.967442], [2.510838, 48.967735], [2.510876, 48.967903], [2.510988, 48.968304], [2.511025, 48.96841], [2.511174, 48.968769], [2.511331, 48.969082], [2.511547, 48.96944], [2.511861, 48.969906], [2.51434, 48.973431], [2.51434, 48.973431], [2.516803, 48.97694], [2.51837, 48.979164], [2.519689, 48.981049], [2.520113, 48.981667], [2.520353, 48.982056], [2.520562, 48.982445], [2.520746, 48.982849], [2.520818, 48.983032], [2.520947, 48.983402], [2.521067, 48.983833], [2.521105, 48.984013], [2.5212, 48.984566], [2.521227, 48.984772], [2.521244, 48.985092], [2.521236, 48.98542], [2.521181, 48.986], [2.52115, 48.986225], [2.521011, 48.986832], [2.520954, 48.987041], [2.520392, 48.988991], [2.520244, 48.98954], [2.520156, 48.989811], [2.519922, 48.990417], [2.519723, 48.990837], [2.518974, 48.992126], [2.518539, 48.99295], [2.518404, 48.993275], [2.51826, 48.99379], [2.518231, 48.993969], [2.518195, 48.99448], [2.518203, 48.994778], [2.518243, 48.995102], [2.518269, 48.995232], [2.518333, 48.995499], [2.518429, 48.995792], [2.518545, 48.996044], [2.518882, 48.996674], [2.519066, 48.99696], [2.519275, 48.997223], [2.519567, 48.997536], [2.519945, 48.997902], [2.522743, 49.000458], [2.523204, 49.000881], [2.523648, 49.001305], [2.523994, 49.001686], [2.524229, 49.001968], [2.52468, 49.002544], [2.525289, 49.003292], [2.525533, 49.003567], [2.525785, 49.00383], [2.526088, 49.004105], [2.52631, 49.004288], [2.526578, 49.004486], [2.526913, 49.004711], [2.527126, 49.004845], [2.527559, 49.005081], [2.527972, 49.00528], [2.528501, 49.005501], [2.528972, 49.005665], [2.529435, 49.005802], [2.529851, 49.005905], [2.530523, 49.006046], [2.531008, 49.006123], [2.531457, 49.006172], [2.531698, 49.006191], [2.532196, 49.006218], [2.532457, 49.006226], [2.533043, 49.006226], [2.534151, 49.006176], [2.53671, 49.006042], [2.537493, 49.006023], [2.538351, 49.006027], [2.539139, 49.006062], [2.547621, 49.006519], [2.548188, 49.006565], [2.548599, 49.006607], [2.54957, 49.00676], [2.550438, 49.00695], [2.55136, 49.007221], [2.554146, 49.008301], [2.55499, 49.008644], [2.555483, 49.008816], [2.556081, 49.00901], [2.556409, 49.009083], [2.556831, 49.009163], [2.557184, 49.009251], [2.557445, 49.009338], [2.557653, 49.009396], [2.557925, 49.009441], [2.558208, 49.009502], [2.559528, 49.009686], [2.560288, 49.009785], [2.561585, 49.009907], [2.561585, 49.009907], [2.563168, 49.010052], [2.564941, 49.010128], [2.565429, 49.010174], [2.565942, 49.010197], [2.566458, 49.010189], [2.567077, 49.010136], [2.567827, 49.009998], [2.568365, 49.009857], [2.568782, 49.009686], [2.569152, 49.00948], [2.569612, 49.009144], [2.569923, 49.008816], [2.570114, 49.008442], [2.570197, 49.008072], [2.570276, 49.007515], [2.570381, 49.006668], [2.570547, 49.005711], [2.570732, 49.004116]]}, "properties": {"id": "rer-b", "branchId": "rer-b::2", "termini": "Robinson - Aéroport Charles de Gaulle 2 (Terminal 2)", "source": "Ile-de-France Mobilites GTFS (data.iledefrance-mobilites.fr), Mobility License"}}, {"type": "Feature", "geometry": {"type": "LineString", "coordinates": [[2.642283, 48.975925], [2.640961, 48.975021], [2.640343, 48.974552], [2.639826, 48.97419], [2.623734, 48.963146], [2.623254, 48.962826], [2.621744, 48.961842], [2.62088, 48.961262], [2.619997, 48.960663], [2.617276, 48.95879], [2.61659, 48.958309], [2.615382, 48.957417], [2.61489, 48.957069], [2.61444, 48.956764], [2.613955, 48.956463], [2.613494, 48.956192], [2.6133, 48.956081], [2.612887, 48.955868], [2.612497, 48.955681], [2.61219, 48.955544], [2.611652, 48.955326], [2.61109, 48.95512], [2.61067, 48.954987], [2.610085, 48.954819], [2.60939, 48.954647], [2.601984, 48.95293], [2.601984, 48.95293], [2.599569, 48.952328], [2.59859, 48.952099], [2.584574, 48.948845], [2.573578, 48.946072], [2.569157, 48.944908], [2.567647, 48.944538], [2.566374, 48.944206], [2.565131, 48.943855], [2.565131, 48.943855], [2.563694, 48.943455], [2.552891, 48.94059], [2.551404, 48.940201], [2.550609, 48.940002], [2.54567, 48.938847], [2.53794, 48.937023], [2.536881, 48.936798], [2.535708, 48.936562], [2.535087, 48.936428], [2.533892, 48.936115], [2.533892, 48.936115], [2.530557, 48.935097], [2.528398, 48.934467], [2.522851, 48.932861], [2.52213, 48.932667], [2.52132, 48.932465], [2.520596, 48.932312], [2.519804, 48.932171], [2.519315, 48.932098], [2.518451, 48.931999], [2.517784, 48.931942], [2.51685, 48.931896], [2.516165, 48.931885], [2.515352, 48.931896], [2.512446, 48.931973], [2.511953, 48.931995], [2.511344, 48.932037], [2.50953, 48.932186], [2.508993, 48.932217], [2.508454, 48.932228], [2.507989, 48.932232], [2.50569, 48.932186], [2.50509, 48.932182], [2.502412, 48.932209], [2.500308, 48.932213], [2.497069, 48.932205], [2.495597, 48.932182], [2.495597, 48.932182], [2.4928, 48.932133], [2.47406, 48.932343], [2.47406, 48.932343], [2.471291, 48.932377], [2.470037, 48.9324], [2.465024, 48.932564], [2.463394, 48.93261], [2.456873, 48.932724], [2.455187, 48.932735], [2.453672, 48.932755], [2.453672, 48.932755], [2.451703, 48.932762], [2.447729, 48.93272], [2.441385, 48.932785], [2.440366, 48.932785], [2.439767, 48.932781], [2.439252, 48.932762], [2.438698, 48.932735], [2.437617, 48.932667], [2.436416, 48.932556], [2.435479, 48.932449], [2.434694, 48.932339], [2.434049, 48.93224], [2.431727, 48.931839], [2.429385, 48.931396], [2.42804, 48.93116], [2.425311, 48.930714], [2.425311, 48.930714], [2.418536, 48.929577], [2.416318, 48.929211], [2.414095, 48.928856], [2.401307, 48.926739], [2.400069, 48.926548], [2.397069, 48.926105], [2.393385, 48.925526], [2.387803, 48.924637], [2.386855, 48.924477], [2.384924, 48.924137], [2.384924, 48.924137], [2.384097, 48.923988], [2.382941, 48.923759], [2.381601, 48.923477], [2.380547, 48.923241], [2.377741, 48.922562], [2.367566, 48.920059], [2.366928, 48.919884], [2.366422, 48.919727], [2.366027, 48.919586], [2.365085, 48.919209], [2.364426, 48.918926], [2.363688, 48.918598], [2.363332, 48.91843], [2.362661, 48.918091], [2.362661, 48.918091], [2.361675, 48.91753], [2.361242, 48.917294], [2.359409, 48.916309], [2.35576, 48.91431], [2.354842, 48.913784], [2.354529, 48.913578], [2.354254, 48.913387], [2.353959, 48.913155], [2.353691, 48.912926], [2.353454, 48.912689], [2.353204, 48.912403], [2.353012, 48.912151], [2.352873, 48.911934], [2.352704, 48.911625], [2.352628, 48.911442], [2.352577, 48.911301], [2.352497, 48.910992], [2.352472, 48.910873], [2.352424, 48.910519], [2.352412, 48.910259], [2.352413, 48.910072], [2.352427, 48.909863], [2.352472, 48.909565], [2.352529, 48.909302], [2.352605, 48.909019], [2.352665, 48.908833], [2.352744, 48.908627], [2.352986, 48.908012], [2.353117, 48.907578], [2.353177, 48.907261], [2.353197, 48.907104], [2.353235, 48.906521], [2.353274, 48.906033], [2.353327, 48.905727], [2.353463, 48.905136], [2.353623, 48.904579], [2.354281, 48.902542], [2.354366, 48.902264], [2.354448, 48.901943], [2.35465, 48.900883], [2.354776, 48.900089], [2.354952, 48.898586], [2.35502, 48.898106], [2.355093, 48.897747], [2.355643, 48.895443], [2.355795, 48.894886], [2.356128, 48.893875], [2.356401, 48.89307], [2.356551, 48.892666], [2.356657, 48.892414], [2.356838, 48.892036], [2.357011, 48.891628], [2.357244, 48.891113], [2.357357, 48.890835], [2.357457, 48.890553], [2.35755, 48.890217], [2.357628, 48.889816], [2.35786, 48.888393], [2.357943, 48.887486], [2.35802, 48.886402], [2.358053, 48.884682], [2.358084, 48.884537], [2.358155, 48.884346], [2.358196, 48.884167], [2.358226, 48.883919], [2.358238, 48.883724], [2.358238, 48.883545], [2.358224, 48.883137], [2.358213, 48.88298], [2.358193, 48.882809], [2.358149, 48.882561], [2.358118, 48.882423], [2.358037, 48.882145], [2.357927, 48.881847], [2.357698, 48.881348], [2.357698, 48.881348], [2.357382, 48.880661], [2.357287, 48.880489], [2.357152, 48.880276], [2.356929, 48.880005], [2.356827, 48.879898], [2.355374, 48.878601], [2.355082, 48.878361], [2.354722, 48.878094], [2.353615, 48.877411], [2.351202, 48.876026], [2.350754, 48.875736], [2.350455, 48.8755], [2.350113, 48.875183], [2.349828, 48.874855], [2.346189, 48.869671], [2.345965, 48.869286], [2.345798, 48.868942], [2.345666, 48.868618], [2.345553, 48.868244], [2.34546, 48.86787], [2.345434, 48.867733], [2.3454, 48.867409], [2.345376, 48.866932], [2.345413, 48.86647], [2.345491, 48.865997], [2.34559, 48.865646], [2.34614, 48.864204], [2.346438, 48.863586], [2.347191, 48.861835], [2.347191, 48.861835], [2.347821, 48.860363], [2.348031, 48.859982], [2.348525, 48.85928], [2.348992, 48.858646], [2.349185, 48.858345], [2.349321, 48.858032], [2.349399, 48.857712], [2.349418, 48.857388], [2.349377, 48.857063], [2.349277, 48.856743], [2.349119, 48.856434], [2.349019, 48.856285], [2.347821, 48.854626], [2.347691, 48.854458], [2.347547, 48.854294], [2.34739, 48.854137], [2.347221, 48.853985], [2.34704, 48.85384], [2.346848, 48.853699], [2.346645, 48.853569], [2.345239, 48.852707], [2.345239, 48.852707], [2.343911, 48.851898], [2.343569, 48.851662], [2.343272, 48.851402], [2.343025, 48.85112], [2.342831, 48.850822], [2.342308, 48.849735], [2.340606, 48.846943], [2.340382, 48.846485], [2.339812, 48.845432], [2.339812, 48.845432], [2.339282, 48.844448], [2.338511, 48.843113], [2.338002, 48.842201], [2.337455, 48.841103], [2.337334, 48.840809], [2.337075, 48.839924], [2.336915, 48.839516], [2.336846, 48.839359], [2.336846, 48.839359], [2.336737, 48.839092], [2.336516, 48.838692], [2.336387, 48.838516], [2.336092, 48.838184], [2.335136, 48.837265], [2.334163, 48.836304], [2.333304, 48.835361], [2.333052, 48.835041], [2.33295, 48.834824], [2.33288, 48.83461], [2.33285, 48.834412], [2.332861, 48.834145], [2.332911, 48.833935], [2.332985, 48.833698], [2.333217, 48.833096], [2.333338, 48.832745], [2.333338, 48.832745], [2.333583, 48.831978], [2.333649, 48.831802], [2.333767, 48.83157], [2.333877, 48.831398], [2.333961, 48.831284], [2.334059, 48.831165], [2.334322, 48.83091], [2.334738, 48.830532], [2.335018, 48.830299], [2.335301, 48.830044], [2.33538, 48.82996], [2.335526, 48.829777], [2.335746, 48.829418], [2.335923, 48.829037], [2.336091, 48.828564], [2.336976, 48.825722], [2.337235, 48.824909], [2.33739, 48.824463], [2.337618, 48.823711], [2.337694, 48.823483], [2.337795, 48.823227], [2.337886, 48.82304], [2.338038, 48.822769], [2.338253, 48.822449], [2.338722, 48.821796], [2.338793, 48.821682], [2.338926, 48.821392], [2.338982, 48.821205], [2.339013, 48.820988], [2.339031, 48.820747], [2.339031, 48.820747], [2.339037, 48.820602], [2.338989, 48.819748], [2.338987, 48.819504], [2.338994, 48.819271], [2.338991, 48.818886], [2.339026, 48.818745], [2.339187, 48.818401], [2.339513, 48.817924], [2.339684, 48.817696], [2.34013, 48.817066], [2.340298, 48.816788], [2.340455, 48.816467], [2.340594, 48.816151], [2.340686, 48.815933], [2.340805, 48.81562], [2.340923, 48.815228], [2.340923, 48.815228], [2.340976, 48.814972], [2.340988, 48.81485], [2.340986, 48.814617], [2.340975, 48.814465], [2.340943, 48.814289], [2.340889, 48.814079], [2.340774, 48.813751], [2.340686, 48.813572], [2.340584, 48.813396], [2.34045, 48.813194], [2.340253, 48.812946], [2.34003, 48.812695], [2.339811, 48.812469], [2.339633, 48.812294], [2.33946, 48.812138], [2.339108, 48.81184], [2.338858, 48.811646], [2.338203, 48.811172], [2.336966, 48.810253], [2.336421, 48.80983], [2.336095, 48.809563], [2.33575, 48.809303], [2.334932, 48.808712], [2.334453, 48.80835], [2.333485, 48.807632], [2.333485, 48.807632], [2.332885, 48.807182], [2.331707, 48.806232], [2.331041, 48.805717], [2.33053, 48.805305], [2.330367, 48.805164], [2.32999, 48.804798], [2.329775, 48.804565], [2.329582, 48.804325], [2.329312, 48.803886], [2.329211, 48.80368], [2.32912, 48.803455], [2.329029, 48.803169], [2.328932, 48.802727], [2.328809, 48.802055], [2.328736, 48.801708], [2.328513, 48.8008], [2.328131, 48.798691], [2.328131, 48.798691], [2.327919, 48.797523], [2.327804, 48.796944], [2.327738, 48.796688], [2.327613, 48.796345], [2.327484, 48.796047], [2.327324, 48.795761], [2.327115, 48.795467], [2.326853, 48.795162], [2.326599, 48.79491], [2.326291, 48.794655], [2.32615, 48.794548], [2.325819, 48.794331], [2.325631, 48.794224], [2.325257, 48.794041], [2.324798, 48.793858], [2.324561, 48.793777], [2.324033, 48.793629], [2.323559, 48.793514], [2.32318, 48.793446], [2.322713, 48.793369], [2.322227, 48.79332], [2.32134, 48.793259], [2.32134, 48.793259], [2.320645, 48.793217], [2.319972, 48.793148], [2.319372, 48.793026], [2.318971, 48.792912], [2.31877, 48.792843], [2.318471, 48.792717], [2.318188, 48.792572], [2.317919, 48.792412], [2.317674, 48.792229], [2.317455, 48.79203], [2.317358, 48.791927], [2.317183, 48.79171], [2.317086, 48.791569], [2.316829, 48.791161], [2.316092, 48.789948], [2.315434, 48.788898], [2.314481, 48.787437], [2.313564, 48.785931], [2.313183, 48.785324], [2.313009, 48.78503], [2.312809, 48.784611], [2.312657, 48.784267], [2.312552, 48.783989], [2.312519, 48.783867], [2.312474, 48.783524], [2.312401, 48.78281], [2.312407, 48.782455], [2.312482, 48.781517], [2.31249, 48.781322], [2.31248, 48.781101], [2.312463, 48.780983], [2.31243, 48.780861], [2.31232, 48.780575], [2.312175, 48.780342], [2.312175, 48.780342], [2.311985, 48.780109], [2.311728, 48.779884], [2.311599, 48.779781], [2.31127, 48.779572], [2.311073, 48.779469], [2.310907, 48.779392], [2.310635, 48.779289], [2.310446, 48.779228], [2.310122, 48.779148], [2.309697, 48.779087], [2.309228, 48.779057], [2.309033, 48.77906], [2.308699, 48.779076], [2.308218, 48.779144], [2.298882, 48.781055], [2.298046, 48.781235], [2.297805, 48.781296], [2.297623, 48.781353], [2.297362, 48.781445], [2.297021, 48.781593], [2.296842, 48.781685], [2.296842, 48.781685], [2.296567, 48.781845], [2.296283, 48.782043], [2.296161, 48.78215], [2.295959, 48.782349], [2.295769, 48.782585], [2.295697, 48.782688], [2.295586, 48.782883], [2.295503, 48.783081], [2.295445, 48.783279], [2.29541, 48.78347], [2.295393, 48.783691], [2.295393, 48.783905], [2.2954, 48.784008], [2.29546, 48.784367], [2.295595, 48.785004], [2.295621, 48.785152], [2.295634, 48.785313], [2.295631, 48.785477], [2.295617, 48.78561], [2.295591, 48.78574], [2.295549, 48.785873], [2.295496, 48.786007], [2.295436, 48.786137], [2.295346, 48.786282], [2.295166, 48.78651], [2.295034, 48.786648], [2.294825, 48.786831], [2.294535, 48.787029], [2.294278, 48.78717], [2.29415, 48.787231], [2.293877, 48.787342], [2.293738, 48.787388], [2.293524, 48.787449], [2.293123, 48.787533], [2.292845, 48.787575], [2.292649, 48.787594], [2.292408, 48.787609], [2.292114, 48.787605], [2.291721, 48.787579], [2.291721, 48.787579], [2.291404, 48.787537], [2.291064, 48.787464], [2.290743, 48.787369], [2.290454, 48.787262], [2.290343, 48.787212], [2.290063, 48.787071], [2.28995, 48.787003], [2.289739, 48.786861], [2.289633, 48.786777], [2.289401, 48.786564], [2.289288, 48.786446], [2.288589, 48.785637], [2.288378, 48.785431], [2.28818, 48.785275], [2.288028, 48.785179], [2.287879, 48.785084], [2.287651, 48.784966], [2.287483, 48.784889], [2.287262, 48.784801], [2.286874, 48.784683], [2.286527, 48.784595], [2.285395, 48.784351], [2.28485, 48.784214], [2.284542, 48.784111], [2.284381, 48.784046], [2.284076, 48.783905], [2.283806, 48.78376], [2.283553, 48.783588], [2.283313, 48.783401], [2.283145, 48.783245], [2.282995, 48.783077], [2.282873, 48.782925], [2.2828, 48.78281], [2.282673, 48.782581], [2.282071, 48.781296], [2.281902, 48.780956], [2.281648, 48.780518], [2.281329, 48.780071]]}, "properties": {"id": "rer-b", "branchId": "rer-b::3", "termini": "Mitry - Claye - Robinson", "source": "Ile-de-France Mobilites GTFS (data.iledefrance-mobilites.fr), Mobility License"}}, {"type": "Feature", "geometry": {"type": "Point", "coordinates": [2.5709800477570233, 49.0041455478504]}, "properties": {"name": "Aéroport Charles de Gaulle 2 (Terminal 2)"}}, {"type": "Feature", "geometry": {"type": "Point", "coordinates": [2.5614121946317394, 49.00979397116337]}, "properties": {"name": "Aéroport CDG 1 (Terminal 3) - RER"}}, {"type": "Feature", "geometry": {"type": "Point", "coordinates": [2.5145512908225953, 48.97356812654279]}, "properties": {"name": "Parc des Expositions"}}, {"type": "Feature", "geometry": {"type": "Point", "coordinates": [2.512783848981341, 48.96256540760733]}, "properties": {"name": "Villepinte"}}, {"type": "Feature", "geometry": {"type": "Point", "coordinates": [2.5247262164471342, 48.94700236504643]}, "properties": {"name": "Sevran - Beaudottes"}}, {"type": "Feature", "geometry": {"type": "Point", "coordinates": [2.495597257086315, 48.932150935734064]}, "properties": {"name": "Aulnay-sous-Bois"}}, {"type": "Feature", "geometry": {"type": "Point", "coordinates": [2.4753884360764298, 48.93230698220945]}, "properties": {"name": "Le Blanc-Mesnil"}}, {"type": "Feature", "geometry": {"type": "Point", "coordinates": [2.454883180745302, 48.932732553959134]}, "properties": {"name": "Drancy"}}, {"type": "Feature", "geometry": {"type": "Point", "coordinates": [2.425825637815098, 48.930744340383264]}, "properties": {"name": "Le Bourget"}}, {"type": "Feature", "geometry": {"type": "Point", "coordinates": [2.3861140570949475, 48.92429743203911]}, "properties": {"name": "La Courneuve - Aubervilliers"}}, {"type": "Feature", "geometry": {"type": "Point", "coordinates": [2.362459916604931, 48.918076675621]}, "properties": {"name": "La Plaine Stade de France"}}, {"type": "Feature", "geometry": {"type": "Point", "coordinates": [2.356693437528564, 48.88230685842714]}, "properties": {"name": "Gare du Nord"}}, {"type": "Feature", "geometry": {"type": "Point", "coordinates": [2.34697651043533, 48.86174503191322]}, "properties": {"name": "Châtelet - Les Halles"}}, {"type": "Feature", "geometry": {"type": "Point", "coordinates": [2.344959780029387, 48.853023793740164]}, "properties": {"name": "Saint-Michel Notre-Dame"}}, {"type": "Feature", "geometry": {"type": "Point", "coordinates": [2.3398088878203698, 48.84543177842458]}, "properties": {"name": "Luxembourg"}}, {"type": "Feature", "geometry": {"type": "Point", "coordinates": [2.3371383995944486, 48.840064350218256]}, "properties": {"name": "Port Royal"}}, {"type": "Feature", "geometry": {"type": "Point", "coordinates": [2.333220634641387, 48.83318643678081]}, "properties": {"name": "Denfert-Rochereau"}}, {"type": "Feature", "geometry": {"type": "Point", "coordinates": [2.3388576809777035, 48.82150600684166]}, "properties": {"name": "Cité Universitaire"}}, {"type": "Feature", "geometry": {"type": "Point", "coordinates": [2.312278311834309, 48.78026436884244]}, "properties": {"name": "Bourg-la-Reine"}}, {"type": "Feature", "geometry": {"type": "Point", "coordinates": [2.3042107053612133, 48.76171816323692]}, "properties": {"name": "La Croix de Berny"}}, {"type": "Feature", "geometry": {"type": "Point", "coordinates": [2.300890371505836, 48.754632057173126]}, "properties": {"name": "Antony"}}, {"type": "Feature", "geometry": {"type": "Point", "coordinates": [2.2587677282577334, 48.72551907437078]}, "properties": {"name": "Massy - Palaiseau"}}, {"type": "Feature", "geometry": {"type": "Point", "coordinates": [2.24558429554376, 48.71686524330362]}, "properties": {"name": "Palaiseau"}}, {"type": "Feature", "geometry": {"type": "Point", "coordinates": [2.237329249708309, 48.7081489333421]}, "properties": {"name": "Palaiseau - Villebon"}}, {"type": "Feature", "geometry": {"type": "Point", "coordinates": [2.212717641845953, 48.705912413627026]}, "properties": {"name": "Lozère"}}, {"type": "Feature", "geometry": {"type": "Point", "coordinates": [2.1929739951487424, 48.705497380193584]}, "properties": {"name": "Le Guichet"}}, {"type": "Feature", "geometry": {"type": "Point", "coordinates": [2.1808087044597166, 48.6975077019159]}, "properties": {"name": "Orsay - Ville"}}, {"type": "Feature", "geometry": {"type": "Point", "coordinates": [2.1643461393269345, 48.69621022314541]}, "properties": {"name": "Bures-sur-Yvette"}}, {"type": "Feature", "geometry": {"type": "Point", "coordinates": [2.1516106103390045, 48.695299548452454]}, "properties": {"name": "La Hacquinière"}}, {"type": "Feature", "geometry": {"type": "Point", "coordinates": [2.13649439862523, 48.698175579920274]}, "properties": {"name": "Gif-sur-Yvette"}}, {"type": "Feature", "geometry": {"type": "Point", "coordinates": [2.097722386795541, 48.70131367727702]}, "properties": {"name": "Courcelle-sur-Yvette"}}, {"type": "Feature", "geometry": {"type": "Point", "coordinates": [2.071385742904064, 48.702732696472715]}, "properties": {"name": "Saint-Rémy-lès-Chevreuse"}}, {"type": "Feature", "geometry": {"type": "Point", "coordinates": [2.6422341369736606, 48.9757479508066]}, "properties": {"name": "Mitry - Claye"}}, {"type": "Feature", "geometry": {"type": "Point", "coordinates": [2.603220561532749, 48.95316214687084]}, "properties": {"name": "Villeparisis - Mitry-le-Neuf"}}, {"type": "Feature", "geometry": {"type": "Point", "coordinates": [2.5663968806983126, 48.944091645418105]}, "properties": {"name": "Vert-Galant"}}, {"type": "Feature", "geometry": {"type": "Point", "coordinates": [2.5352889927291447, 48.93640164880271]}, "properties": {"name": "Sevran - Livry"}}, {"type": "Feature", "geometry": {"type": "Point", "coordinates": [2.340926830790754, 48.815228092611335]}, "properties": {"name": "Gentilly"}}, {"type": "Feature", "geometry": {"type": "Point", "coordinates": [2.3343440158701894, 48.808360137202826]}, "properties": {"name": "Laplace"}}, {"type": "Feature", "geometry": {"type": "Point", "coordinates": [2.328093276131277, 48.79869767228883]}, "properties": {"name": "Arcueil - Cachan"}}, {"type": "Feature", "geometry": {"type": "Point", "coordinates": [2.3220087047421583, 48.79333690627149]}, "properties": {"name": "Bagneux"}}, {"type": "Feature", "geometry": {"type": "Point", "coordinates": [2.281364769669608, 48.78023982792202]}, "properties": {"name": "Robinson"}}, {"type": "Feature", "geometry": {"type": "Point", "coordinates": [2.2929083820455323, 48.78756698215643]}, "properties": {"name": "Fontenay-aux-Roses"}}, {"type": "Feature", "geometry": {"type": "Point", "coordinates": [2.2979282159439305, 48.781307920937515]}, "properties": {"name": "Sceaux"}}]}