{"type": "FeatureCollection", "features": [{"type": "Feature", "geometry": {"type": "LineString", "coordinates": [[2.75867, 48.739433], [2.75654, 48.74012], [2.756334, 48.7402], [2.755886, 48.740395], [2.755637, 48.740486], [2.748794, 48.742668], [2.748423, 48.742771], [2.747756, 48.742943], [2.747087, 48.743084], [2.746615, 48.743176], [2.746307, 48.743225], [2.745673, 48.743313], [2.74482, 48.743401], [2.744141, 48.743443], [2.743461, 48.743465], [2.74305, 48.743465], [2.742626, 48.743458], [2.742083, 48.743435], [2.736547, 48.743095], [2.735828, 48.743069], [2.735259, 48.743073], [2.734748, 48.743099], [2.734219, 48.743149], [2.733421, 48.743252], [2.732928, 48.743332], [2.732383, 48.743443], [2.732095, 48.743507], [2.731638, 48.743629], [2.731373, 48.74371], [2.730839, 48.743889], [2.730569, 48.743996], [2.730223, 48.744167], [2.730081, 48.744247], [2.72985, 48.744404], [2.729535, 48.744633], [2.729016, 48.744972], [2.727321, 48.746265], [2.727321, 48.746265], [2.725582, 48.747585], [2.723704, 48.749096], [2.723207, 48.749454], [2.722811, 48.749706], [2.722503, 48.749893], [2.721953, 48.750195], [2.72156, 48.750389], [2.721123, 48.750595], [2.720632, 48.750797], [2.720013, 48.75103], [2.718534, 48.751514], [2.708531, 48.754601], [2.707673, 48.754879], [2.707016, 48.755112], [2.706616, 48.755272], [2.706153, 48.755474], [2.705828, 48.755627], [2.705497, 48.755795], [2.704951, 48.756096], [2.704394, 48.756432], [2.703758, 48.756866], [2.703363, 48.757179], [2.702907, 48.757565], [2.693323, 48.766232], [2.692767, 48.766747], [2.692477, 48.767029], [2.692128, 48.767399], [2.691772, 48.767834], [2.691513, 48.768196], [2.691382, 48.768394], [2.69126, 48.768597], [2.691127, 48.768833], [2.690916, 48.76926], [2.690718, 48.769688], [2.690238, 48.770782], [2.690238, 48.770782], [2.688784, 48.774078], [2.686094, 48.780224], [2.685854, 48.780766], [2.685548, 48.781376], [2.685304, 48.781792], [2.685043, 48.782162], [2.684836, 48.78244], [2.684594, 48.782738], [2.684342, 48.783024], [2.683956, 48.783405], [2.68356, 48.783768], [2.683071, 48.784161], [2.682564, 48.784523], [2.682151, 48.784794], [2.681495, 48.785175], [2.680787, 48.785534], [2.6802, 48.785805], [2.679586, 48.786053], [2.678856, 48.78632], [2.650374, 48.795647], [2.650374, 48.795647], [2.627656, 48.803074], [2.617973, 48.806232], [2.617973, 48.806232], [2.608702, 48.809261], [2.607779, 48.80957], [2.607009, 48.809845], [2.606313, 48.810104], [2.605641, 48.810368], [2.604658, 48.810776], [2.603653, 48.811214], [2.602862, 48.811581], [2.601756, 48.812126], [2.579779, 48.823154], [2.579779, 48.823154], [2.572744, 48.826679], [2.572138, 48.826969], [2.571519, 48.82724], [2.57097, 48.827457], [2.5707, 48.82756], [2.570126, 48.827759], [2.569525, 48.827946], [2.568686, 48.828175], [2.568061, 48.828323], [2.56719, 48.828503], [2.566389, 48.828636], [2.56572, 48.828724], [2.564818, 48.828815], [2.564046, 48.828865], [2.563464, 48.828888], [2.56304, 48.828892], [2.562512, 48.828892], [2.562008, 48.82888], [2.56126, 48.828842], [2.560402, 48.82877], [2.559817, 48.828705], [2.559248, 48.828629], [2.558533, 48.82851], [2.557811, 48.828369], [2.557101, 48.828205], [2.556571, 48.828068], [2.556055, 48.827919], [2.555375, 48.827698], [2.554902, 48.827534], [2.546471, 48.824333], [2.545643, 48.824024], [2.544771, 48.823708], [2.543974, 48.823471], [2.543458, 48.823334], [2.542902, 48.823193], [2.542576, 48.823128], [2.542576, 48.823128], [2.541815, 48.822979], [2.541155, 48.82288], [2.540284, 48.822781], [2.539432, 48.822712], [2.538978, 48.822685], [2.53765, 48.822628], [2.536838, 48.822613], [2.535887, 48.822617], [2.534661, 48.822662], [2.533905, 48.822716], [2.530858, 48.823002], [2.523602, 48.823704], [2.511555, 48.824856], [2.508171, 48.825188], [2.507545, 48.825264], [2.506929, 48.825363], [2.506113, 48.825523], [2.505465, 48.82568], [2.504936, 48.825821], [2.504596, 48.825924], [2.504041, 48.826107], [2.503553, 48.826283], [2.503248, 48.826405], [2.502641, 48.82666], [2.501975, 48.826981], [2.501583, 48.82719], [2.501188, 48.827419], [2.500915, 48.827587], [2.500441, 48.827904], [2.499874, 48.828327], [2.499415, 48.828709], [2.498855, 48.829224], [2.498638, 48.829449], [2.498323, 48.829811], [2.498074, 48.830135], [2.497848, 48.830456], [2.495829, 48.833523], [2.495533, 48.833961], [2.495256, 48.834415], [2.495049, 48.834801], [2.494967, 48.834969], [2.49479, 48.835381], [2.494652, 48.835766], [2.494595, 48.835957], [2.494543, 48.836147], [2.494477, 48.836468], [2.49429, 48.837486], [2.493886, 48.84021], [2.493808, 48.840694], [2.49369, 48.841228], [2.493601, 48.841541], [2.493466, 48.841942], [2.49236, 48.844883], [2.492137, 48.845543], [2.49176, 48.846714], [2.491279, 48.848095], [2.489986, 48.851704], [2.48983, 48.852131], [2.489227, 48.853657], [2.489044, 48.854145], [2.488729, 48.855038], [2.488227, 48.85659], [2.488036, 48.857147], [2.485443, 48.864391], [2.485332, 48.864742], [2.485269, 48.864983], [2.485213, 48.865234], [2.485167, 48.865494], [2.485121, 48.86586], [2.4851, 48.866203], [2.485095, 48.866623], [2.485105, 48.866924], [2.48513, 48.867264], [2.485167, 48.867584], [2.485214, 48.867901], [2.48528, 48.868275], [2.485861, 48.871281], [2.485958, 48.871849], [2.486002, 48.872231], [2.486114, 48.873436], [2.486131, 48.873726], [2.486137, 48.87413], [2.486116, 48.874508], [2.486084, 48.874802], [2.486021, 48.875172], [2.485929, 48.875599], [2.485718, 48.876381], [2.485604, 48.876736], [2.48537, 48.877338], [2.485223, 48.877644], [2.485042, 48.877968], [2.48484, 48.878292], [2.48466, 48.878544], [2.48436, 48.878925], [2.483974, 48.879368], [2.482666, 48.880802], [2.481617, 48.881901], [2.481085, 48.882477], [2.479495, 48.884296], [2.472556, 48.89193], [2.47227, 48.892231], [2.471899, 48.892586], [2.471661, 48.892792], [2.47138, 48.893013], [2.471153, 48.893181], [2.470912, 48.893341], [2.470294, 48.893723], [2.469747, 48.89402], [2.469438, 48.894173], [2.469177, 48.894291], [2.46854, 48.89455], [2.466717, 48.895256], [2.466238, 48.895435], [2.465766, 48.895596], [2.465333, 48.895725], [2.464775, 48.89587], [2.464309, 48.895973], [2.463676, 48.896099], [2.462637, 48.896271], [2.461948, 48.896358], [2.461462, 48.896408], [2.460732, 48.896439], [2.457441, 48.89645], [2.455086, 48.896492], [2.452257, 48.896458], [2.451782, 48.896446], [2.450753, 48.896408], [2.449398, 48.896351], [2.447271, 48.896225], [2.446736, 48.896202], [2.446151, 48.896191], [2.442883, 48.896206], [2.442285, 48.896225], [2.441632, 48.896271], [2.440847, 48.896366], [2.440351, 48.896446], [2.439844, 48.896549], [2.439535, 48.896622], [2.439084, 48.89674], [2.438565, 48.896893], [2.436187, 48.897701], [2.435173, 48.898026], [2.434281, 48.898296], [2.433704, 48.898441], [2.432899, 48.898602], [2.43234, 48.898685], [2.431959, 48.898727], [2.431318, 48.898777], [2.43059, 48.898808], [2.429758, 48.8988], [2.416053, 48.898399], [2.414967, 48.898346], [2.413781, 48.898266], [2.413244, 48.898235], [2.412687, 48.898232], [2.412021, 48.898254], [2.409479, 48.898415], [2.408884, 48.898438], [2.40836, 48.898445], [2.407943, 48.898441], [2.406234, 48.898392], [2.405692, 48.898361], [2.405148, 48.898315], [2.403471, 48.898155], [2.400306, 48.8979], [2.399872, 48.897869], [2.399126, 48.897835], [2.398256, 48.897808], [2.397439, 48.897751], [2.395461, 48.897636], [2.395093, 48.897633], [2.394759, 48.89764], [2.39438, 48.897663], [2.394083, 48.897694], [2.393622, 48.89777], [2.392152, 48.898026], [2.391746, 48.898071], [2.391326, 48.89809], [2.390945, 48.898098], [2.388419, 48.898056], [2.387214, 48.89801], [2.386385, 48.897995], [2.384708, 48.897999], [2.384127, 48.897991], [2.383186, 48.897961], [2.381833, 48.897903], [2.379574, 48.897823], [2.378884, 48.897789], [2.378248, 48.897732], [2.377534, 48.89764], [2.376958, 48.897545], [2.376489, 48.897446], [2.376206, 48.897377], [2.374843, 48.897018], [2.374362, 48.896935], [2.374121, 48.896912], [2.373799, 48.896904], [2.37344, 48.896927], [2.373119, 48.896973], [2.371264, 48.897327], [2.370862, 48.897388], [2.37012, 48.897457], [2.368807, 48.897533], [2.368532, 48.897537], [2.368274, 48.897533], [2.366795, 48.897446], [2.366301, 48.89743], [2.365988, 48.897442], [2.363651, 48.897587], [2.363187, 48.897629], [2.362641, 48.897701], [2.362292, 48.897766], [2.361952, 48.897854], [2.361735, 48.89793], [2.361421, 48.898048], [2.360827, 48.898327], [2.360382, 48.898556], [2.359961, 48.898785], [2.35917, 48.899246], [2.358298, 48.899738], [2.357239, 48.900349], [2.357016, 48.900494], [2.356652, 48.900749], [2.356301, 48.901054], [2.355868, 48.901546], [2.355678, 48.901798], [2.355592, 48.90197], [2.355417, 48.902378], [2.355308, 48.902699], [2.355116, 48.903313], [2.355072, 48.903496], [2.355036, 48.903736], [2.355006, 48.903885], [2.354848, 48.904396], [2.354804, 48.904568], [2.354749, 48.904934], [2.354723, 48.905308], [2.354719, 48.905964], [2.354787, 48.907207], [2.354805, 48.907352], [2.35485, 48.907604], [2.354995, 48.908134], [2.355016, 48.908283], [2.355017, 48.908436], [2.355006, 48.908566], [2.354984, 48.908661], [2.354935, 48.908806], [2.354844, 48.909004], [2.354749, 48.90918], [2.354637, 48.909363], [2.354489, 48.909576], [2.35433, 48.909752], [2.354131, 48.909924], [2.353907, 48.910095], [2.353475, 48.910366], [2.353328, 48.910492], [2.352941, 48.910797], [2.352788, 48.910957], [2.352651, 48.911121], [2.352947, 48.91069], [2.353129, 48.910389], [2.353281, 48.910072], [2.353377, 48.909794], [2.353442, 48.909523], [2.353478, 48.909248], [2.353496, 48.908943], [2.353529, 48.907864], [2.353557, 48.907402], [2.353615, 48.907024], [2.353699, 48.906719], [2.353834, 48.906399], [2.354001, 48.906052], [2.354091, 48.90583], [2.354923, 48.903446], [2.354996, 48.903168], [2.355021, 48.903023], [2.355047, 48.902786], [2.355051, 48.902512], [2.355023, 48.902229], [2.354908, 48.901585], [2.354878, 48.901337], [2.354882, 48.900879], [2.35499, 48.899929], [2.355157, 48.89859], [2.355233, 48.898098], [2.355312, 48.897697], [2.355391, 48.89735], [2.35571, 48.896008], [2.355987, 48.894909], [2.356038, 48.894772], [2.356175, 48.894478], [2.356676, 48.89352], [2.356942, 48.892994], [2.357119, 48.892551], [2.357245, 48.892136], [2.357339, 48.89172], [2.357438, 48.89135], [2.357481, 48.891129], [2.357528, 48.890537], [2.357551, 48.8904], [2.357627, 48.890057], [2.357678, 48.889767], [2.357785, 48.888985], [2.357883, 48.888386], [2.357919, 48.887985], [2.358006, 48.88673], [2.358066, 48.885513], [2.358066, 48.885273], [2.358045, 48.884769], [2.358053, 48.884682], [2.358084, 48.884537], [2.358155, 48.884346], [2.358196, 48.884167], [2.358226, 48.883919], [2.358238, 48.883724], [2.358238, 48.883545], [2.358224, 48.883137], [2.358193, 48.882809], [2.358118, 48.882423], [2.358037, 48.882145], [2.357927, 48.881847], [2.357382, 48.880661], [2.357287, 48.880489], [2.357152, 48.880276], [2.356929, 48.880005], [2.356827, 48.879898], [2.355374, 48.878601], [2.355082, 48.878361], [2.354722, 48.878094], [2.353615, 48.877411], [2.351202, 48.876026], [2.350754, 48.875736], [2.350455, 48.8755], [2.350113, 48.875183], [2.349828, 48.874855], [2.346189, 48.869671], [2.345965, 48.869286], [2.345798, 48.868942], [2.345666, 48.868618], [2.345553, 48.868244], [2.34546, 48.86787], [2.345434, 48.867733], [2.3454, 48.867409], [2.345376, 48.866932], [2.345413, 48.86647], [2.345491, 48.865997], [2.34559, 48.865646], [2.34614, 48.864204], [2.346385, 48.863583], [2.346692, 48.862854], [2.347847, 48.860168], [2.348466, 48.859066], [2.34889, 48.858356], [2.349169, 48.857967], [2.349801, 48.857342], [2.350391, 48.856976], [2.351186, 48.856609], [2.354004, 48.855705], [2.355748, 48.855167], [2.358299, 48.854305], [2.35927, 48.853962], [2.360114, 48.853607], [2.360922, 48.853153], [2.361573, 48.852753], [2.362219, 48.852337], [2.363648, 48.851303], [2.365184, 48.850151], [2.366462, 48.849056], [2.367736, 48.848156], [2.369654, 48.8466], [2.370319, 48.846088], [2.372514, 48.844749], [2.373344, 48.844288], [2.373798, 48.844051], [2.374487, 48.843662], [2.375319, 48.843178], [2.375721, 48.842979], [2.376275, 48.842777], [2.376832, 48.84264], [2.377191, 48.842564], [2.377523, 48.84251], [2.377917, 48.842464], [2.37831, 48.842453], [2.378736, 48.842487], [2.379137, 48.842567], [2.37965, 48.84272], [2.380156, 48.842926], [2.380733, 48.843224], [2.38125, 48.843525], [2.3816, 48.84375], [2.381946, 48.844025], [2.382232, 48.844288], [2.382512, 48.844574], [2.382745, 48.84486], [2.383754, 48.846416], [2.384015, 48.846859], [2.384637, 48.847549], [2.385076, 48.847916], [2.385575, 48.848206], [2.386033, 48.848442], [2.386592, 48.848675], [2.387183, 48.848881], [2.387743, 48.84903], [2.388321, 48.849144], [2.388893, 48.849205], [2.38946, 48.849232], [2.390069, 48.849228], [2.390622, 48.849197], [2.391175, 48.849144], [2.392006, 48.849026], [2.394195, 48.848637], [2.39779, 48.847878], [2.398168, 48.84779], [2.398466, 48.847694], [2.398733, 48.847603], [2.398951, 48.847492], [2.401488, 48.845684], [2.402179, 48.845329], [2.402539, 48.845169], [2.403217, 48.844936], [2.403682, 48.844826], [2.404795, 48.844643], [2.405727, 48.844555], [2.407515, 48.844463], [2.410239, 48.844299], [2.412615, 48.844067], [2.414843, 48.843826], [2.416107, 48.843704], [2.41677, 48.843681], [2.417275, 48.843678], [2.417569, 48.843681], [2.417777, 48.843697], [2.418197, 48.843739], [2.418587, 48.843807], [2.419738, 48.844143], [2.420222, 48.844315], [2.420732, 48.844536], [2.422237, 48.845249], [2.422604, 48.845436], [2.423943, 48.846073], [2.424426, 48.846287], [2.424677, 48.846386], [2.42538, 48.846645], [2.42592, 48.846813], [2.426435, 48.846951], [2.426951, 48.847073], [2.4275, 48.847176], [2.427912, 48.847244], [2.42848, 48.847317], [2.429011, 48.847366], [2.429305, 48.847385], [2.430326, 48.847424], [2.430645, 48.84742], [2.43416, 48.847313], [2.436438, 48.847206], [2.440093, 48.847076], [2.440797, 48.847061], [2.442436, 48.847046], [2.444146, 48.846989], [2.44482, 48.846954], [2.447762, 48.846775], [2.448393, 48.846722], [2.448912, 48.846661], [2.449224, 48.846619], [2.449795, 48.846523], [2.450859, 48.846321], [2.451529, 48.846218], [2.453173, 48.845978], [2.455477, 48.84557], [2.456942, 48.845287], [2.46137, 48.844467], [2.462181, 48.844284], [2.463501, 48.844021], [2.464585, 48.84383], [2.465231, 48.843739], [2.465965, 48.84362], [2.466408, 48.843594], [2.466818, 48.843582], [2.467162, 48.843601], [2.467543, 48.843639], [2.46832, 48.843754], [2.468832, 48.843864], [2.469185, 48.843956], [2.46954, 48.844082], [2.469894, 48.84425], [2.470296, 48.844463], [2.470805, 48.844746], [2.471761, 48.845245], [2.472346, 48.845524], [2.47297, 48.845837], [2.476552, 48.847565], [2.47935, 48.848881], [2.481424, 48.849937], [2.483821, 48.851276], [2.486702, 48.852966], [2.488101, 48.853775], [2.490667, 48.855297], [2.49133, 48.855682], [2.491548, 48.855801], [2.492086, 48.856083], [2.492517, 48.856281], [2.492763, 48.856388], [2.493313, 48.856602], [2.493862, 48.856789], [2.494196, 48.856888], [2.49479, 48.857044], [2.495064, 48.857109], [2.495726, 48.857246], [2.49634, 48.857342], [2.49669, 48.857388], [2.497366, 48.857452], [2.497955, 48.857483], [2.498544, 48.857498], [2.499104, 48.857491], [2.499372, 48.857479], [2.50001, 48.857437], [2.500597, 48.85738], [2.508277, 48.856346], [2.509205, 48.856205], [2.509736, 48.856083], [2.510265, 48.855942], [2.510749, 48.855778], [2.511068, 48.855644], [2.511356, 48.855515], [2.511554, 48.855415], [2.512023, 48.855152], [2.512223, 48.855026], [2.512451, 48.85487], [2.512633, 48.854733], [2.512779, 48.85461], [2.513078, 48.85434], [2.513235, 48.854179], [2.514719, 48.852417], [2.51516, 48.851913], [2.515514, 48.851582], [2.515874, 48.851257], [2.516167, 48.851009], [2.51641, 48.850819], [2.517006, 48.850395], [2.517615, 48.850014], [2.51805, 48.84977], [2.51936, 48.849102], [2.520095, 48.848747], [2.522625, 48.847477], [2.52307, 48.847229], [2.52359, 48.84692], [2.523961, 48.846664], [2.524238, 48.846451], [2.524617, 48.84613], [2.525701, 48.845119], [2.525953, 48.844898], [2.52696, 48.84396], [2.527516, 48.843422], [2.528297, 48.842697], [2.528476, 48.842525], [2.528764, 48.842297], [2.528988, 48.842136], [2.52942, 48.841869], [2.52989, 48.841618], [2.530267, 48.84145], [2.530674, 48.84129], [2.53089, 48.841217], [2.531421, 48.841057], [2.531694, 48.840988], [2.531942, 48.840935], [2.532436, 48.840843], [2.532685, 48.840805], [2.533375, 48.840733], [2.533812, 48.840714], [2.534378, 48.840702], [2.534787, 48.840706], [2.538504, 48.84074], [2.54, 48.840782], [2.538897, 48.84071], [2.534786, 48.840668], [2.534382, 48.840668], [2.533804, 48.840679], [2.533357, 48.840702], [2.532926, 48.84074], [2.532428, 48.840816], [2.532167, 48.840858], [2.531924, 48.840904], [2.531678, 48.840961], [2.531136, 48.841103], [2.530857, 48.84119], [2.530652, 48.841263], [2.530433, 48.841343], [2.530027, 48.841515], [2.529587, 48.841732], [2.529373, 48.84185], [2.529176, 48.841969], [2.528941, 48.842121], [2.528575, 48.842381], [2.528412, 48.842525], [2.528264, 48.842674], [2.527473, 48.843407], [2.526934, 48.843925], [2.526479, 48.844341], [2.526187, 48.84462], [2.526187, 48.84462], [2.52591, 48.844879], [2.525657, 48.845104], [2.524697, 48.846004], [2.524376, 48.846287], [2.524196, 48.846436], [2.523924, 48.846642], [2.523542, 48.846905], [2.523041, 48.847198], [2.522565, 48.84745], [2.520966, 48.84827], [2.518026, 48.849751], [2.517279, 48.850182], [2.516966, 48.85038], [2.516606, 48.850636], [2.516357, 48.8508], [2.516132, 48.850975], [2.51564, 48.851406], [2.51546, 48.851566], [2.515117, 48.851898], [2.514676, 48.852402], [2.513809, 48.853432], [2.513187, 48.854153], [2.512892, 48.854443], [2.512592, 48.854702], [2.512401, 48.854851], [2.512194, 48.855], [2.51178, 48.855247], [2.51131, 48.855488], [2.511037, 48.85561], [2.510501, 48.855816], [2.510228, 48.855907], [2.509718, 48.856049], [2.509185, 48.856167], [2.508271, 48.856316], [2.500562, 48.857349], [2.499954, 48.85741], [2.499346, 48.857449], [2.498762, 48.857464], [2.498458, 48.857464], [2.497874, 48.857449], [2.497561, 48.85743], [2.497003, 48.857384], [2.496696, 48.857353], [2.495992, 48.857258], [2.495697, 48.857204], [2.495069, 48.857079], [2.494758, 48.857002], [2.494137, 48.856831], [2.493544, 48.856644], [2.493011, 48.856445], [2.492724, 48.856323], [2.4923, 48.856136], [2.491786, 48.855881], [2.491326, 48.855621], [2.489859, 48.854763], [2.489543, 48.854565], [2.486793, 48.852947], [2.48194, 48.850121], [2.479425, 48.848843], [2.477999, 48.848183], [2.476618, 48.847507], [2.473616, 48.846092], [2.471813, 48.845203], [2.47134, 48.844963], [2.470862, 48.844707], [2.470365, 48.844425], [2.469948, 48.844208], [2.469581, 48.84404], [2.469222, 48.843906], [2.468867, 48.843819], [2.468343, 48.843708], [2.467563, 48.843586], [2.467185, 48.843544], [2.466808, 48.843521], [2.466407, 48.843525], [2.46594, 48.843563], [2.46469, 48.843754], [2.463152, 48.844021], [2.462631, 48.844128], [2.461171, 48.844463], [2.456953, 48.845253], [2.455831, 48.84547], [2.454983, 48.845619], [2.454158, 48.845741], [2.453154, 48.845905], [2.451927, 48.846127], [2.451514, 48.846195], [2.450848, 48.846287], [2.450525, 48.846317], [2.448207, 48.846581], [2.447589, 48.846642], [2.44691, 48.846691], [2.444696, 48.846821], [2.442403, 48.846916], [2.440686, 48.847023], [2.434161, 48.847275], [2.430342, 48.847385], [2.42966, 48.84737], [2.429026, 48.847332], [2.428492, 48.847282], [2.428191, 48.847244], [2.427238, 48.847092], [2.426626, 48.846962], [2.426054, 48.846813], [2.425477, 48.846638], [2.424742, 48.846375], [2.424252, 48.846172], [2.423994, 48.846054], [2.421912, 48.845051], [2.420758, 48.844505], [2.420247, 48.844284], [2.419769, 48.844109], [2.418792, 48.843822], [2.418547, 48.843761], [2.418295, 48.843716], [2.417919, 48.84367], [2.417678, 48.843651], [2.417469, 48.843647], [2.416764, 48.843647], [2.416107, 48.843662], [2.414521, 48.8438], [2.412596, 48.844017], [2.410232, 48.844261], [2.40751, 48.844429], [2.405706, 48.844517], [2.404778, 48.844604], [2.403969, 48.844704], [2.403176, 48.844845], [2.402393, 48.845089], [2.401828, 48.845341], [2.401375, 48.845596], [2.398861, 48.847424], [2.398665, 48.847534], [2.398421, 48.847649], [2.398088, 48.847767], [2.397531, 48.8479], [2.394453, 48.848553], [2.394177, 48.848606], [2.391972, 48.848988], [2.391594, 48.849041], [2.391177, 48.849075], [2.390591, 48.849098], [2.38998, 48.849094], [2.389207, 48.849052], [2.388623, 48.849003], [2.388232, 48.848942], [2.387826, 48.848839], [2.387127, 48.848606], [2.386537, 48.848358], [2.386061, 48.848103], [2.385655, 48.84782], [2.385319, 48.847572], [2.385018, 48.847279], [2.384614, 48.846775], [2.383019, 48.844505], [2.382807, 48.844234], [2.382517, 48.843929], [2.382204, 48.843636], [2.381742, 48.8433], [2.381153, 48.842937], [2.380592, 48.842579], [2.380364, 48.842445], [2.380034, 48.842293], [2.379706, 48.842175], [2.379325, 48.842083], [2.378945, 48.842022], [2.378615, 48.841991], [2.378275, 48.841991], [2.37741, 48.842102], [2.376956, 48.842201], [2.376465, 48.842342], [2.375987, 48.842499], [2.375544, 48.842686], [2.375057, 48.842934], [2.374174, 48.843407], [2.372825, 48.844162], [2.372488, 48.844364], [2.372124, 48.844604], [2.370878, 48.845524], [2.363133, 48.85144], [2.361814, 48.852264], [2.360649, 48.852879], [2.359332, 48.853485], [2.358171, 48.853954], [2.350975, 48.856445], [2.349805, 48.857014], [2.34873, 48.857704], [2.347946, 48.858494], [2.347355, 48.859455], [2.347056, 48.860435], [2.346129, 48.862598], [2.345945, 48.863277], [2.345793, 48.86377], [2.345371, 48.865368], [2.345122, 48.865986], [2.344713, 48.866619], [2.344295, 48.867008], [2.343833, 48.867348], [2.343306, 48.867653], [2.342514, 48.868027], [2.341272, 48.868462], [2.339204, 48.86903], [2.334676, 48.870018], [2.33347, 48.87035], [2.332595, 48.870689], [2.331884, 48.87104], [2.331136, 48.871452], [2.33263, 48.870724], [2.33349, 48.870388], [2.334692, 48.870052], [2.339231, 48.86908], [2.341296, 48.868515], [2.342575, 48.868065], [2.343372, 48.867695], [2.343899, 48.867397], [2.34437, 48.867043], [2.344799, 48.866646], [2.345293, 48.866001], [2.345767, 48.865246], [2.346047, 48.86475], [2.34634, 48.864353], [2.346706, 48.863605], [2.346812, 48.862717], [2.347821, 48.860363], [2.348031, 48.859982], [2.348525, 48.85928], [2.348992, 48.858646], [2.349185, 48.858345], [2.349321, 48.858032], [2.349399, 48.857712], [2.349418, 48.857388], [2.349377, 48.857063], [2.349277, 48.856743], [2.349119, 48.856434], [2.349019, 48.856285], [2.347821, 48.854626], [2.347691, 48.854458], [2.347547, 48.854294], [2.34739, 48.854137], [2.347221, 48.853985], [2.34704, 48.85384], [2.346848, 48.853699], [2.346645, 48.853569], [2.343911, 48.851898], [2.343569, 48.851662], [2.343272, 48.851402], [2.343025, 48.85112], [2.342831, 48.850822], [2.342308, 48.849735], [2.340606, 48.846943], [2.340382, 48.846485], [2.339282, 48.844448], [2.338511, 48.843113], [2.338002, 48.842201], [2.337558, 48.841309], [2.337468, 48.841228], [2.337952, 48.842209], [2.339237, 48.844456], [2.340333, 48.846497], [2.340566, 48.846954], [2.342259, 48.849747], [2.342938, 48.851135], [2.343132, 48.851437], [2.343379, 48.851719], [2.343676, 48.851978], [2.344018, 48.852211], [2.346454, 48.853699], [2.346657, 48.853832], [2.346849, 48.853973], [2.34703, 48.854118], [2.347199, 48.854271], [2.347356, 48.854427], [2.347499, 48.854591], [2.34763, 48.854755], [2.347747, 48.854927], [2.34794, 48.855282], [2.348341, 48.856155], [2.34844, 48.856476], [2.34848, 48.8568], [2.34846, 48.857124], [2.348381, 48.857445], [2.347797, 48.859177], [2.347432, 48.860229], [2.346453, 48.862511], [2.34622, 48.863075], [2.345928, 48.863991], [2.345791, 48.864326], [2.345611, 48.865032], [2.345424, 48.865997], [2.345354, 48.866467], [2.345316, 48.866928], [2.34534, 48.867405], [2.345384, 48.867733], [2.34549, 48.868252], [2.345605, 48.868637], [2.345732, 48.868961], [2.3459, 48.869308], [2.346119, 48.869686], [2.349779, 48.87487], [2.350053, 48.875206], [2.350375, 48.875519], [2.350719, 48.875778], [2.351152, 48.876053], [2.35358, 48.877434], [2.354201, 48.877846], [2.354758, 48.878311], [2.356179, 48.879681], [2.35653, 48.879993], [2.356734, 48.880215], [2.356979, 48.88055], [2.357055, 48.880676], [2.357161, 48.880882], [2.357404, 48.881405], [2.357659, 48.881977], [2.357756, 48.882244], [2.357827, 48.882492], [2.357882, 48.882751], [2.357908, 48.882938], [2.357925, 48.883121], [2.357941, 48.883568], [2.357942, 48.885208], [2.357929, 48.886402], [2.357854, 48.887524], [2.357781, 48.88834], [2.357557, 48.889816], [2.357486, 48.890144], [2.357395, 48.890472], [2.357292, 48.890755], [2.357122, 48.891155], [2.35563, 48.894276], [2.355417, 48.894806], [2.354898, 48.896339], [2.35472, 48.896965], [2.354626, 48.897404], [2.354602, 48.897556], [2.354564, 48.897942], [2.354511, 48.899231], [2.354477, 48.899654], [2.35445, 48.899857], [2.354402, 48.90012], [2.354136, 48.901302], [2.353956, 48.901924], [2.353571, 48.903095], [2.353424, 48.903629], [2.353362, 48.903934], [2.353057, 48.905991], [2.352908, 48.907253], [2.352865, 48.907524], [2.352775, 48.907967], [2.352631, 48.908501], [2.352266, 48.909637], [2.352213, 48.909859], [2.35217, 48.910118], [2.352142, 48.910454], [2.352153, 48.910778], [2.352193, 48.911053], [2.352249, 48.911293], [2.352292, 48.911427], [2.35239, 48.911667], [2.352496, 48.911892], [2.35265, 48.912144], [2.352837, 48.912399], [2.353103, 48.912704], [2.353205, 48.912807], [2.353401, 48.912991], [2.353728, 48.913246], [2.354033, 48.913456], [2.35421, 48.913567], [2.354978, 48.914017], [2.356345, 48.914764], [2.356084, 48.914639], [2.35585, 48.914536], [2.355375, 48.914337], [2.355027, 48.914204], [2.354465, 48.914013], [2.353711, 48.913784], [2.35338, 48.913673], [2.353189, 48.913586], [2.352926, 48.913437], [2.352784, 48.913338], [2.352598, 48.913174], [2.352526, 48.913097], [2.352422, 48.912971], [2.352331, 48.91283], [2.352279, 48.912727], [2.352217, 48.912556], [2.35217, 48.9123], [2.352161, 48.91217], [2.352169, 48.912064], [2.352202, 48.9119], [2.352241, 48.911793], [2.352318, 48.911633], [2.352451, 48.911415], [2.352651, 48.911121], [2.352788, 48.910957], [2.352941, 48.910797], [2.353328, 48.910492], [2.353475, 48.910366], [2.353907, 48.910095], [2.354131, 48.909924], [2.35433, 48.909752], [2.354489, 48.909576], [2.354637, 48.909363], [2.354749, 48.90918], [2.354844, 48.909004], [2.354935, 48.908806], [2.354984, 48.908661], [2.355006, 48.908566], [2.355017, 48.908436], [2.355016, 48.908283], [2.354995, 48.908134], [2.35485, 48.907604], [2.354805, 48.907352], [2.354787, 48.907207], [2.354719, 48.905964], [2.354723, 48.905308], [2.354749, 48.904934], [2.354804, 48.904568], [2.354848, 48.904396], [2.355006, 48.903885], [2.355036, 48.903736], [2.355072, 48.903496], [2.355116, 48.903313], [2.355308, 48.902699], [2.355417, 48.902378], [2.355592, 48.90197], [2.355678, 48.901798], [2.355868, 48.901546], [2.356301, 48.901054], [2.356652, 48.900749], [2.357016, 48.900494], [2.357239, 48.900349], [2.358298, 48.899738], [2.35917, 48.899246], [2.359961, 48.898785], [2.360382, 48.898556], [2.360827, 48.898327], [2.361421, 48.898048], [2.361735, 48.89793], [2.361952, 48.897854], [2.362292, 48.897766], [2.362641, 48.897701], [2.363187, 48.897629], [2.363651, 48.897587], [2.365988, 48.897442], [2.366301, 48.89743], [2.366795, 48.897446], [2.368274, 48.897533], [2.368532, 48.897537], [2.368807, 48.897533], [2.37012, 48.897457], [2.370862, 48.897388], [2.371264, 48.897327], [2.373119, 48.896973], [2.37344, 48.896927], [2.373799, 48.896904], [2.374121, 48.896912], [2.374362, 48.896935], [2.374843, 48.897018], [2.376206, 48.897377], [2.376489, 48.897446], [2.376958, 48.897545], [2.377534, 48.89764], [2.378248, 48.897732], [2.378884, 48.897789], [2.379574, 48.897823], [2.381833, 48.897903], [2.383186, 48.897961], [2.384127, 48.897991], [2.384708, 48.897999], [2.386385, 48.897995], [2.387214, 48.89801], [2.388419, 48.898056], [2.390945, 48.898098], [2.391326, 48.89809], [2.391746, 48.898071], [2.392152, 48.898026], [2.393622, 48.89777], [2.394083, 48.897694], [2.39438, 48.897663], [2.394759, 48.89764], [2.395093, 48.897633], [2.395461, 48.897636], [2.397439, 48.897751], [2.398256, 48.897808], [2.39852, 48.897816], [2.39852, 48.897816], [2.398256, 48.897808], [2.397439, 48.897751], [2.395461, 48.897636], [2.395093, 48.897633], [2.394759, 48.89764], [2.39438, 48.897663], [2.394083, 48.897694], [2.393622, 48.89777], [2.392152, 48.898026], [2.391746, 48.898071], [2.391326, 48.89809], [2.390945, 48.898098], [2.388419, 48.898056], [2.387214, 48.89801], [2.386385, 48.897995], [2.384708, 48.897999], [2.384127, 48.897991], [2.383186, 48.897961], [2.381833, 48.897903], [2.379574, 48.897823], [2.378884, 48.897789], [2.378248, 48.897732], [2.377534, 48.89764], [2.376958, 48.897545], [2.376489, 48.897446], [2.376206, 48.897377], [2.374363, 48.896889], [2.37378, 48.896717], [2.373164, 48.896507], [2.372651, 48.896305], [2.372142, 48.896072], [2.371697, 48.895844], [2.370427, 48.895161], [2.370188, 48.89502], [2.370004, 48.894894], [2.369442, 48.89447], [2.368858, 48.893974], [2.368702, 48.893829], [2.368325, 48.893459], [2.368218, 48.893333], [2.368135, 48.893215], [2.368063, 48.893093], [2.368002, 48.892971], [2.367953, 48.892845], [2.367915, 48.892719], [2.367889, 48.89259], [2.367875, 48.89246], [2.367826, 48.892227], [2.367787, 48.892101], [2.36772, 48.891941], [2.367571, 48.891678], [2.367472, 48.891521], [2.367259, 48.891228], [2.367177, 48.891102], [2.36676, 48.890404], [2.366632, 48.890202], [2.366269, 48.889706], [2.366141, 48.889511], [2.36589, 48.889091], [2.365797, 48.888924], [2.365591, 48.888527], [2.365397, 48.88813], [2.365095, 48.887623], [2.364898, 48.887337], [2.364306, 48.886562], [2.363606, 48.885754], [2.363079, 48.885273], [2.362451, 48.884811], [2.361115, 48.883888], [2.360825, 48.883652], [2.360606, 48.883442], [2.360417, 48.883221], [2.359675, 48.882126], [2.359359, 48.881699], [2.358675, 48.880733], [2.358675, 48.880733], [2.357889, 48.879616], [2.357622, 48.879299], [2.357453, 48.879128], [2.356839, 48.878456], [2.356553, 48.878174], [2.356139, 48.877808], [2.355678, 48.877464], [2.355175, 48.877148], [2.354633, 48.876862], [2.354056, 48.876606], [2.353448, 48.876381], [2.352813, 48.876194], [2.352157, 48.876041], [2.351483, 48.875927], [2.351141, 48.875885], [2.339913, 48.874722], [2.339539, 48.874699], [2.339041, 48.874676], [2.338558, 48.87468], [2.334592, 48.874851], [2.330662, 48.874928], [2.328693, 48.874977], [2.328693, 48.874977], [2.326974, 48.875023], [2.324666, 48.875095], [2.319804, 48.875217], [2.319054, 48.875252], [2.318381, 48.875301], [2.316172, 48.875526], [2.315485, 48.875565], [2.314929, 48.87558], [2.314285, 48.875572], [2.307733, 48.875252], [2.307067, 48.875202], [2.303711, 48.874893], [2.303267, 48.874859], [2.302818, 48.87484], [2.302342, 48.874836], [2.301829, 48.874855], [2.301273, 48.874901], [2.297009, 48.875355], [2.296515, 48.875389], [2.295981, 48.875412], [2.292525, 48.875416], [2.291891, 48.875435], [2.291261, 48.875496], [2.290642, 48.875591], [2.29004, 48.875725], [2.289461, 48.875896], [2.282375, 48.878117], [2.282375, 48.878117], [2.281247, 48.878471], [2.280526, 48.878685], [2.278066, 48.879368], [2.277025, 48.879681], [2.267249, 48.882725], [2.266532, 48.882973], [2.265846, 48.883259], [2.265196, 48.883575], [2.264584, 48.883923], [2.264012, 48.8843], [2.263624, 48.884594], [2.259969, 48.887615], [2.259214, 48.888145], [2.256015, 48.890198], [2.255617, 48.890499], [2.253407, 48.892471], [2.253184, 48.892662], [2.252827, 48.89291], [2.25243, 48.893135], [2.252, 48.89333], [2.251542, 48.89349], [2.251058, 48.893616], [2.250555, 48.893711], [2.250042, 48.893764], [2.249521, 48.893784], [2.249002, 48.893764], [2.24849, 48.893711], [2.247987, 48.89362], [2.247503, 48.89349], [2.247044, 48.89333], [2.24386, 48.892059], [2.243667, 48.891998], [2.243468, 48.891945], [2.243264, 48.891899], [2.243056, 48.891865], [2.242845, 48.891842], [2.242631, 48.891827], [2.242417, 48.891819], [2.242202, 48.891823], [2.241989, 48.891838], [2.241777, 48.891861], [2.241568, 48.891891], [2.241363, 48.891933], [2.241163, 48.891983], [2.240968, 48.892044], [2.239325, 48.892567], [2.239325, 48.892567], [2.237974, 48.892998], [2.23745, 48.893173], [2.237248, 48.893246], [2.237094, 48.893314], [2.236931, 48.893402], [2.236714, 48.893539], [2.236558, 48.893661], [2.234653, 48.895378], [2.234356, 48.895615], [2.233984, 48.895889], [2.233606, 48.89613], [2.233253, 48.896324], [2.232889, 48.896503], [2.232736, 48.896564], [2.232216, 48.896751], [2.231862, 48.896858], [2.231304, 48.896999], [2.231038, 48.897049], [2.230743, 48.897095], [2.230311, 48.897137], [2.227003, 48.897411]]}, "properties": {"id": "rer-e", "branchId": "rer-e::0", "termini": "Tournan - Nanterre-La-Folie", "source": "Ile-de-France Mobilites GTFS (data.iledefrance-mobilites.fr), Mobility License"}}, {"type": "Feature", "geometry": {"type": "LineString", "coordinates": [[2.638883, 48.875179], [2.631194, 48.874828], [2.630575, 48.874809], [2.62764, 48.874744], [2.624725, 48.874638], [2.61702, 48.874287], [2.616825, 48.874226], [2.615894, 48.874176], [2.613381, 48.874065], [2.599888, 48.873436], [2.597973, 48.873363], [2.597285, 48.873341], [2.596122, 48.873322], [2.594759, 48.87331], [2.593701, 48.873318], [2.592713, 48.873341], [2.591366, 48.873402], [2.589341, 48.873535], [2.587865, 48.87365], [2.586212, 48.873798], [2.583231, 48.874088], [2.583231, 48.874088], [2.579978, 48.874397], [2.575058, 48.874855], [2.557843, 48.876591], [2.556564, 48.876717], [2.554135, 48.876919], [2.553113, 48.877026], [2.553113, 48.877026], [2.551207, 48.877224], [2.54936, 48.877441], [2.548463, 48.877537], [2.544519, 48.877907], [2.543868, 48.877979], [2.542868, 48.878101], [2.542253, 48.878189], [2.541246, 48.878345], [2.54032, 48.87851], [2.539247, 48.878723], [2.538268, 48.878941], [2.53761, 48.879101], [2.536287, 48.879448], [2.535507, 48.879677], [2.534775, 48.87991], [2.534137, 48.880123], [2.533389, 48.880394], [2.532473, 48.880753], [2.529788, 48.881851], [2.527186, 48.882957], [2.525374, 48.883698], [2.525374, 48.883698], [2.521357, 48.885334], [2.516856, 48.887249], [2.515183, 48.887939], [2.51279, 48.888866], [2.512072, 48.889126], [2.511909, 48.889175], [2.511909, 48.889175], [2.511569, 48.889282], [2.510967, 48.889442], [2.510195, 48.889626], [2.509132, 48.889828], [2.507932, 48.890015], [2.487399, 48.892845], [2.486183, 48.893009], [2.481756, 48.893581], [2.479363, 48.893932], [2.479363, 48.893932], [2.477945, 48.894135], [2.47721, 48.894199], [2.476831, 48.894222], [2.476262, 48.894241], [2.47594, 48.894241], [2.472804, 48.894173], [2.472122, 48.89418], [2.471268, 48.894238], [2.47096, 48.894268], [2.470227, 48.894363], [2.469602, 48.894478], [2.469017, 48.894611], [2.468622, 48.894714], [2.468154, 48.894855], [2.467705, 48.895], [2.466448, 48.895443], [2.465722, 48.895679], [2.465182, 48.895836], [2.464891, 48.895912], [2.464026, 48.896103], [2.463463, 48.896202], [2.462414, 48.896355], [2.461861, 48.89642], [2.461232, 48.896477], [2.460825, 48.896503], [2.46032, 48.896523], [2.458667, 48.89653], [2.458667, 48.89653], [2.456891, 48.896538], [2.455898, 48.896526], [2.452659, 48.896442], [2.449775, 48.896339], [2.447273, 48.896191], [2.446464, 48.896164], [2.445785, 48.896156], [2.442888, 48.896172], [2.442474, 48.896183], [2.441871, 48.896221], [2.441354, 48.896267], [2.440675, 48.896362], [2.440095, 48.896465], [2.439789, 48.896526], [2.439359, 48.896626], [2.43885, 48.89677], [2.438304, 48.896946], [2.436953, 48.897408], [2.436155, 48.897667], [2.434402, 48.898209], [2.433871, 48.89835], [2.433403, 48.898457], [2.432879, 48.898552], [2.432502, 48.898609], [2.432071, 48.898659], [2.431738, 48.898685], [2.431164, 48.898716], [2.430404, 48.898724], [2.429647, 48.898701], [2.420884, 48.898338], [2.420059, 48.898315], [2.417771, 48.898289], [2.416988, 48.898296], [2.416317, 48.898319], [2.414926, 48.898396], [2.413467, 48.89846], [2.410036, 48.898514], [2.409263, 48.898518], [2.408556, 48.898514], [2.407503, 48.898483], [2.406232, 48.898441], [2.405875, 48.898422], [2.405135, 48.898369], [2.402359, 48.898144], [2.402359, 48.898144], [2.399844, 48.897938], [2.39909, 48.897888], [2.397989, 48.897842], [2.395437, 48.89782], [2.39182, 48.897743], [2.390873, 48.897736], [2.38483, 48.89777], [2.384268, 48.897751], [2.38383, 48.897728], [2.382296, 48.89761], [2.381952, 48.897591], [2.380009, 48.897511], [2.379405, 48.897469], [2.378799, 48.897415], [2.377976, 48.897312], [2.377286, 48.897209], [2.376515, 48.897064], [2.376066, 48.896961], [2.375633, 48.896851], [2.375263, 48.896748], [2.374116, 48.896404], [2.374116, 48.896404], [2.373041, 48.896065], [2.372707, 48.89595], [2.372377, 48.895821], [2.371941, 48.895641], [2.371466, 48.895416], [2.370786, 48.895035], [2.370469, 48.894836], [2.370244, 48.89468], [2.369841, 48.894382], [2.369545, 48.894138], [2.369291, 48.893906], [2.369088, 48.8937], [2.368948, 48.893551], [2.368685, 48.893238], [2.368542, 48.893044], [2.368392, 48.892826], [2.366048, 48.888901], [2.365448, 48.887951], [2.365089, 48.887489], [2.364306, 48.886562], [2.363606, 48.885754], [2.363079, 48.885273], [2.362451, 48.884811], [2.361115, 48.883888], [2.360825, 48.883652], [2.360606, 48.883442], [2.360417, 48.883221], [2.359675, 48.882126], [2.359359, 48.881699], [2.358675, 48.880733], [2.358675, 48.880733], [2.357889, 48.879616], [2.357622, 48.879299], [2.357453, 48.879128], [2.356839, 48.878456], [2.356553, 48.878174], [2.356139, 48.877808], [2.355678, 48.877464], [2.355175, 48.877148], [2.354633, 48.876862], [2.354056, 48.876606], [2.353448, 48.876381], [2.352813, 48.876194], [2.352157, 48.876041], [2.351483, 48.875927], [2.351141, 48.875885], [2.339913, 48.874722], [2.339539, 48.874699], [2.339041, 48.874676], [2.338558, 48.87468], [2.334592, 48.874851], [2.330662, 48.874928], [2.328693, 48.874977], [2.328693, 48.874977], [2.326974, 48.875023], [2.324666, 48.875095], [2.319804, 48.875217], [2.319054, 48.875252], [2.318381, 48.875301], [2.316172, 48.875526], [2.315485, 48.875565], [2.314929, 48.87558], [2.314285, 48.875572], [2.307733, 48.875252], [2.307067, 48.875202], [2.303711, 48.874893], [2.303267, 48.874859], [2.302818, 48.87484], [2.302342, 48.874836], [2.301829, 48.874855], [2.301273, 48.874901], [2.297009, 48.875355], [2.296515, 48.875389], [2.295981, 48.875412], [2.292525, 48.875416], [2.291891, 48.875435], [2.291261, 48.875496], [2.290642, 48.875591], [2.29004, 48.875725], [2.289461, 48.875896], [2.282375, 48.878117], [2.282375, 48.878117], [2.281247, 48.878471], [2.280526, 48.878685], [2.278066, 48.879368], [2.277025, 48.879681], [2.267249, 48.882725], [2.266532, 48.882973], [2.265846, 48.883259], [2.265196, 48.883575], [2.264584, 48.883923], [2.264012, 48.8843], [2.263624, 48.884594], [2.259969, 48.887615], [2.259214, 48.888145], [2.256015, 48.890198], [2.255617, 48.890499], [2.253407, 48.892471], [2.253184, 48.892662], [2.252827, 48.89291], [2.25243, 48.893135], [2.252, 48.89333], [2.251542, 48.89349], [2.251058, 48.893616], [2.250555, 48.893711], [2.250042, 48.893764], [2.249521, 48.893784], [2.249002, 48.893764], [2.24849, 48.893711], [2.247987, 48.89362], [2.247503, 48.89349], [2.247044, 48.89333], [2.24386, 48.892059], [2.243667, 48.891998], [2.243468, 48.891945], [2.243264, 48.891899], [2.243056, 48.891865], [2.242845, 48.891842], [2.242631, 48.891827], [2.242417, 48.891819], [2.242202, 48.891823], [2.241989, 48.891838], [2.241777, 48.891861], [2.241568, 48.891891], [2.241363, 48.891933], [2.241163, 48.891983], [2.240968, 48.892044], [2.239325, 48.892567], [2.239325, 48.892567], [2.237974, 48.892998], [2.23745, 48.893173], [2.237248, 48.893246], [2.237094, 48.893314], [2.236931, 48.893402], [2.236714, 48.893539], [2.236558, 48.893661], [2.234653, 48.895378], [2.234356, 48.895615], [2.233984, 48.895889], [2.233606, 48.89613], [2.233253, 48.896324], [2.232889, 48.896503], [2.232736, 48.896564], [2.232216, 48.896751], [2.231862, 48.896858], [2.231304, 48.896999], [2.231038, 48.897049], [2.230743, 48.897095], [2.230311, 48.897137], [2.227003, 48.897411]]}, "properties": {"id": "rer-e", "branchId": "rer-e::1", "termini": "Vaires - Torcy - Nanterre-La-Folie", "source": "Ile-de-France Mobilites GTFS (data.iledefrance-mobilites.fr), Mobility License"}}, {"type": "Feature", "geometry": {"type": "Point", "coordinates": [2.7589013341652717, 48.739445157221006]}, "properties": {"name": "Tournan"}}, {"type": "Feature", "geometry": {"type": "Point", "coordinates": [2.727167738339898, 48.74645539980236]}, "properties": {"name": "Gretz-Armainvilliers"}}, {"type": "Feature", "geometry": {"type": "Point", "coordinates": [2.690116190500944, 48.77076716837013]}, "properties": {"name": "Ozoir-la-Ferrière"}}, {"type": "Feature", "geometry": {"type": "Point", "coordinates": [2.650530702348584, 48.79563367624288]}, "properties": {"name": "Roissy-en-Brie"}}, {"type": "Feature", "geometry": {"type": "Point", "coordinates": [2.618502939849115, 48.80587944608123]}, "properties": {"name": "Émerainville - Pontault-Combault"}}, {"type": "Feature", "geometry": {"type": "Point", "coordinates": [2.5799804563719477, 48.82311348135466]}, "properties": {"name": "Les Yvris Noisy-le-Grand"}}, {"type": "Feature", "geometry": {"type": "Point", "coordinates": [2.542644466674205, 48.82324786783017]}, "properties": {"name": "Villiers-sur-Marne - Le Plessis-Trévise"}}, {"type": "Feature", "geometry": {"type": "Point", "coordinates": [2.358695908637114, 48.88081039411524]}, "properties": {"name": "Magenta"}}, {"type": "Feature", "geometry": {"type": "Point", "coordinates": [2.328646179742093, 48.874998862001185]}, "properties": {"name": "Haussmann Saint-Lazare"}}, {"type": "Feature", "geometry": {"type": "Point", "coordinates": [2.284217509613705, 48.878347804048644]}, "properties": {"name": "Neuilly - Porte Maillot"}}, {"type": "Feature", "geometry": {"type": "Point", "coordinates": [2.238418596250407, 48.892229801568206]}, "properties": {"name": "La Défense"}}, {"type": "Feature", "geometry": {"type": "Point", "coordinates": [2.226568794458685, 48.897581324774116]}, "properties": {"name": "Nanterre-La-Folie"}}, {"type": "Feature", "geometry": {"type": "Point", "coordinates": [2.637705554664271, 48.87517306494243]}, "properties": {"name": "Vaires - Torcy"}}, {"type": "Feature", "geometry": {"type": "Point", "coordinates": [2.5833806594500697, 48.87411948897062]}, "properties": {"name": "Chelles - Gournay"}}, {"type": "Feature", "geometry": {"type": "Point", "coordinates": [2.5527724908646303, 48.877159125382796]}, "properties": {"name": "Le Chénay Gagny"}}, {"type": "Feature", "geometry": {"type": "Point", "coordinates": [2.5254046016945138, 48.883728731604535]}, "properties": {"name": "Gagny"}}, {"type": "Feature", "geometry": {"type": "Point", "coordinates": [2.5130610056844116, 48.8888544132907]}, "properties": {"name": "Le Raincy - Villemomble - Montfermeil"}}, {"type": "Feature", "geometry": {"type": "Point", "coordinates": [2.4795800358385867, 48.893965864676495]}, "properties": {"name": "Bondy"}}, {"type": "Feature", "geometry": {"type": "Point", "coordinates": [2.4591980956866797, 48.8966634168645]}, "properties": {"name": "Noisy-le-Sec"}}, {"type": "Feature", "geometry": {"type": "Point", "coordinates": [2.4010414542870944, 48.897987452300434]}, "properties": {"name": "Pantin"}}, {"type": "Feature", "geometry": {"type": "Point", "coordinates": [2.3737182728654673, 48.89645824176388]}, "properties": {"name": "Rosa Parks"}}]}