{"type": "FeatureCollection", "features": [{"type": "Feature", "geometry": {"type": "LineString", "coordinates": [[2.468819, 49.263828], [2.465347, 49.260742], [2.463645, 49.259209], [2.462067, 49.257813], [2.456601, 49.253044], [2.455992, 49.252491], [2.455193, 49.251736], [2.454657, 49.251213], [2.453792, 49.250343], [2.452884, 49.249378], [2.451929, 49.248337], [2.451547, 49.247902], [2.450994, 49.247238], [2.45062, 49.246773], [2.449391, 49.245171], [2.448882, 49.244526], [2.448432, 49.243969], [2.447661, 49.243042], [2.447064, 49.24234], [2.446354, 49.241539], [2.445891, 49.24102], [2.444466, 49.239468], [2.444151, 49.239094], [2.443795, 49.238644], [2.443455, 49.238163], [2.443212, 49.237785], [2.443004, 49.237427], [2.442811, 49.237053], [2.442626, 49.236633], [2.442547, 49.236427], [2.442499, 49.236282], [2.442403, 49.235928], [2.442293, 49.235439], [2.442255, 49.235176], [2.44222, 49.234684], [2.442218, 49.234478], [2.442228, 49.234238], [2.442275, 49.233719], [2.442333, 49.233372], [2.442436, 49.232918], [2.442489, 49.232742], [2.442605, 49.232426], [2.442804, 49.23196], [2.443508, 49.230694], [2.444357, 49.229229], [2.444752, 49.228531], [2.444963, 49.228142], [2.445633, 49.226971], [2.455167, 49.210674], [2.455426, 49.210224], [2.455592, 49.209911], [2.455833, 49.209435], [2.455924, 49.209236], [2.456076, 49.208889], [2.456221, 49.20853], [2.456478, 49.207813], [2.456682, 49.207119], [2.456751, 49.206852], [2.456855, 49.206367], [2.456975, 49.205631], [2.457837, 49.199558], [2.45786, 49.199352], [2.457903, 49.198788], [2.457929, 49.198566], [2.458579, 49.193962], [2.458892, 49.191799], [2.459123, 49.19001], [2.459523, 49.187069], [2.459523, 49.187069], [2.459641, 49.186211], [2.459741, 49.185581], [2.459797, 49.185303], [2.459903, 49.184822], [2.46004, 49.184303], [2.460152, 49.183937], [2.46029, 49.183552], [2.46058, 49.182823], [2.464006, 49.174458], [2.464123, 49.174156], [2.464757, 49.172626], [2.469585, 49.16082], [2.469864, 49.160149], [2.470096, 49.159634], [2.470282, 49.159256], [2.470519, 49.158829], [2.470746, 49.158459], [2.470918, 49.158199], [2.471321, 49.157642], [2.471533, 49.157379], [2.471912, 49.156937], [2.47235, 49.156475], [2.472936, 49.155907], [2.474069, 49.154854], [2.481824, 49.147701], [2.482404, 49.147133], [2.48276, 49.146759], [2.48342, 49.14603], [2.485516, 49.143661], [2.486598, 49.142414], [2.487329, 49.141582], [2.489176, 49.139523], [2.490182, 49.13839], [2.490182, 49.13839], [2.490834, 49.137665], [2.491423, 49.137054], [2.491819, 49.136673], [2.492304, 49.13623], [2.492724, 49.135868], [2.493187, 49.13549], [2.493621, 49.135151], [2.494172, 49.134747], [2.494687, 49.134384], [2.495473, 49.133858], [2.498755, 49.131695], [2.501402, 49.129967], [2.506137, 49.126835], [2.506137, 49.126835], [2.516148, 49.120224], [2.517357, 49.119465], [2.520823, 49.117359], [2.521311, 49.117054], [2.521876, 49.116673], [2.522408, 49.116287], [2.522732, 49.116039], [2.523143, 49.1157], [2.523655, 49.115246], [2.523949, 49.114964], [2.524411, 49.114483], [2.524816, 49.114021], [2.525083, 49.113682], [2.525317, 49.113354], [2.525429, 49.113186], [2.525689, 49.112751], [2.525825, 49.112495], [2.525959, 49.112202], [2.526102, 49.111851], [2.526237, 49.111454], [2.526323, 49.111137], [2.526379, 49.110889], [2.526441, 49.110523], [2.526462, 49.110344], [2.526489, 49.109951], [2.526492, 49.109756], [2.526486, 49.109505], [2.526472, 49.109245], [2.526435, 49.108807], [2.52556, 49.099575], [2.52556, 49.099575], [2.525469, 49.098694], [2.525036, 49.09412], [2.524738, 49.091572], [2.52245, 49.067513], [2.522412, 49.067188], [2.522371, 49.066921], [2.522325, 49.066685], [2.52222, 49.066261], [2.522088, 49.065853], [2.522011, 49.065659], [2.521843, 49.065277], [2.52161, 49.064831], [2.52145, 49.064564], [2.521192, 49.064175], [2.520978, 49.063885], [2.520619, 49.06345], [2.520301, 49.063114], [2.519944, 49.062771], [2.519711, 49.062561], [2.519218, 49.06216], [2.51749, 49.060879], [2.513005, 49.057575], [2.505782, 49.052269], [2.503476, 49.050568], [2.502953, 49.050175], [2.502124, 49.049576], [2.502124, 49.049576], [2.493412, 49.043159], [2.491857, 49.042023], [2.49142, 49.041714], [2.49064, 49.041203], [2.477463, 49.032848], [2.476895, 49.032482], [2.476895, 49.032482], [2.471298, 49.028942], [2.468998, 49.02747], [2.468494, 49.027134], [2.467172, 49.026188], [2.466972, 49.026054], [2.466027, 49.025436], [2.462059, 49.022926], [2.462059, 49.022926], [2.461472, 49.022549], [2.460408, 49.021881], [2.458231, 49.020615], [2.457108, 49.019932], [2.445342, 49.012459], [2.443479, 49.011288], [2.44118, 49.009819], [2.430326, 49.00293], [2.428636, 49.001846], [2.42748, 49.001118], [2.426908, 49.000748], [2.424661, 48.999325], [2.423953, 48.998871], [2.422261, 48.997803], [2.42126, 48.997143], [2.418932, 48.995541], [2.41646, 48.993931], [2.41646, 48.993931], [2.416007, 48.993637], [2.414671, 48.992805], [2.413668, 48.992207], [2.412175, 48.99136], [2.411453, 48.990929], [2.404325, 48.986393], [2.403788, 48.986034], [2.39336, 48.978729], [2.391736, 48.977581], [2.391136, 48.977169], [2.390159, 48.976482], [2.390159, 48.976482], [2.387668, 48.974731], [2.386192, 48.973709], [2.384605, 48.972652], [2.378837, 48.968609], [2.378295, 48.96822], [2.376185, 48.966747], [2.375595, 48.966324], [2.373222, 48.964603], [2.372741, 48.96426], [2.371701, 48.963535], [2.369945, 48.962345], [2.369945, 48.962345], [2.367614, 48.960766], [2.365061, 48.958984], [2.360495, 48.95578], [2.358332, 48.954292], [2.356879, 48.953278], [2.355177, 48.952042], [2.348088, 48.94706], [2.347953, 48.946953], [2.34764, 48.946728], [2.34735, 48.946503], [2.347112, 48.946304], [2.346914, 48.946129], [2.346586, 48.94582], [2.346257, 48.945469], [2.345995, 48.945171], [2.345809, 48.944946], [2.34544, 48.944435], [2.345304, 48.944225], [2.345096, 48.943874], [2.344906, 48.943501], [2.344793, 48.943245], [2.344696, 48.942993], [2.344552, 48.942528], [2.344482, 48.942238], [2.344429, 48.941952], [2.344379, 48.94157], [2.344355, 48.941311], [2.344346, 48.940922], [2.344357, 48.94059], [2.344406, 48.940121], [2.344441, 48.939896], [2.344506, 48.939583], [2.344599, 48.939213], [2.345626, 48.9352], [2.345626, 48.9352], [2.346112, 48.93325], [2.346505, 48.931507], [2.347086, 48.929214], [2.347472, 48.927704], [2.347955, 48.926018], [2.34824, 48.924965], [2.348593, 48.923576], [2.348701, 48.923058], [2.349025, 48.92178], [2.349134, 48.921478], [2.349295, 48.921093], [2.349436, 48.920795], [2.349571, 48.920532], [2.349867, 48.92001], [2.350115, 48.919548], [2.350208, 48.919353], [2.350317, 48.919094], [2.350404, 48.918858], [2.350495, 48.918556], [2.350713, 48.91766], [2.350713, 48.91766], [2.350819, 48.91721], [2.350843, 48.917076], [2.350878, 48.916786], [2.350898, 48.916481], [2.350914, 48.915825], [2.35094, 48.915543], [2.350966, 48.915367], [2.351038, 48.915039], [2.351158, 48.914608], [2.35135, 48.914074], [2.351601, 48.913441], [2.351657, 48.913284], [2.351779, 48.912899], [2.351894, 48.912476], [2.351999, 48.91217], [2.352102, 48.911934], [2.352225, 48.911705], [2.352445, 48.911343], [2.352637, 48.911079], [2.352769, 48.910866], [2.352879, 48.910679], [2.352963, 48.910515], [2.353063, 48.910286], [2.353117, 48.910141], [2.353161, 48.909988], [2.353209, 48.909782], [2.353248, 48.909458], [2.35325, 48.909233], [2.353229, 48.908966], [2.353168, 48.90863], [2.35302, 48.90797], [2.352981, 48.9076], [2.352976, 48.907322], [2.353016, 48.906891], [2.353146, 48.905937], [2.353237, 48.905495], [2.353717, 48.90366], [2.353953, 48.902534], [2.35399, 48.902279], [2.354119, 48.901642], [2.354194, 48.901283], [2.354287, 48.900906], [2.354482, 48.899971], [2.354521, 48.899727], [2.354558, 48.899296], [2.35463, 48.897942], [2.354664, 48.897636], [2.354736, 48.897182], [2.354849, 48.896698], [2.35495, 48.896347], [2.355413, 48.894997], [2.355673, 48.894356], [2.357025, 48.891533], [2.357172, 48.891209], [2.357307, 48.890877], [2.357415, 48.890579], [2.35749, 48.89032], [2.357548, 48.890076], [2.357594, 48.889816], [2.357822, 48.888329], [2.357891, 48.887524], [2.357972, 48.886402], [2.357993, 48.884312], [2.358015, 48.883568], [2.357999, 48.883125], [2.357986, 48.882969], [2.357955, 48.882751], [2.357846, 48.882294], [2.357795, 48.882133], [2.357732, 48.881969], [2.357473, 48.881393], [2.357473, 48.881393], [2.35715, 48.880699], [2.35706, 48.880535], [2.356844, 48.880222], [2.356627, 48.879974], [2.356249, 48.87965], [2.354796, 48.878281], [2.354237, 48.877819], [2.353615, 48.877411], [2.351202, 48.876026], [2.350754, 48.875736], [2.350455, 48.8755], [2.350113, 48.875183], [2.349828, 48.874855], [2.346189, 48.869671], [2.345965, 48.869286], [2.345798, 48.868942], [2.345666, 48.868618], [2.345553, 48.868244], [2.34546, 48.86787], [2.345434, 48.867733], [2.3454, 48.867409], [2.345376, 48.866932], [2.345413, 48.86647], [2.345491, 48.865997], [2.34559, 48.865646], [2.345706, 48.865044], [2.346371, 48.863239], [2.347002, 48.861755], [2.347002, 48.861755], [2.347722, 48.860073], [2.348466, 48.859066], [2.34889, 48.858356], [2.349169, 48.857967], [2.349801, 48.857342], [2.350391, 48.856976], [2.351186, 48.856609], [2.354004, 48.855705], [2.355748, 48.855167], [2.358299, 48.854305], [2.35927, 48.853962], [2.360114, 48.853607], [2.360922, 48.853153], [2.361573, 48.852753], [2.362219, 48.852337], [2.363648, 48.851303], [2.365184, 48.850151], [2.366462, 48.849056], [2.367736, 48.848156], [2.369654, 48.8466], [2.370319, 48.846088], [2.372514, 48.844749], [2.373344, 48.844288], [2.373798, 48.844051], [2.374487, 48.843662], [2.374487, 48.843662], [2.376288, 48.84267], [2.376945, 48.842255], [2.37758, 48.841904], [2.377703, 48.84185], [2.377932, 48.841763], [2.378635, 48.841534], [2.379667, 48.841236], [2.380242, 48.841053], [2.38144, 48.840618], [2.381608, 48.840565], [2.381772, 48.840527], [2.382164, 48.840469], [2.383475, 48.840328], [2.383797, 48.840267], [2.384016, 48.840214], [2.384508, 48.840065], [2.384661, 48.840012], [2.384992, 48.839874], [2.385338, 48.839703], [2.388272, 48.838058], [2.388665, 48.837826], [2.389008, 48.837593], [2.389321, 48.837357], [2.38957, 48.837154], [2.390728, 48.836075], [2.391463, 48.835358], [2.391784, 48.835072], [2.391944, 48.834942], [2.392264, 48.834705], [2.392438, 48.834591], [2.392802, 48.834377], [2.394437, 48.833534], [2.394946, 48.833252], [2.395485, 48.832924], [2.396022, 48.832581], [2.396367, 48.832352], [2.396701, 48.832115], [2.397009, 48.83186], [2.397319, 48.831558], [2.397572, 48.831261], [2.397737, 48.831043], [2.397868, 48.830841], [2.397992, 48.830612], [2.398072, 48.830444], [2.398431, 48.829556], [2.39851, 48.829369], [2.398644, 48.82909], [2.398776, 48.828876], [2.398984, 48.828583], [2.399102, 48.828434], [2.399204, 48.828316], [2.399457, 48.828056], [2.399928, 48.827644], [2.401397, 48.826477], [2.40172, 48.826237], [2.401959, 48.826069], [2.402274, 48.825859], [2.402756, 48.825565], [2.403059, 48.825394], [2.403394, 48.825214], [2.403671, 48.825066], [2.403951, 48.824932], [2.404555, 48.824657], [2.405168, 48.824402], [2.406838, 48.823792], [2.407603, 48.823486], [2.408149, 48.823246], [2.408853, 48.822899], [2.409163, 48.822731], [2.409642, 48.822453], [2.410389, 48.821999], [2.410873, 48.821686], [2.411456, 48.821278], [2.412193, 48.820736], [2.413045, 48.820076], [2.413331, 48.819839], [2.413668, 48.81953], [2.413875, 48.819321], [2.414112, 48.819061], [2.414383, 48.818726], [2.414734, 48.818237], [2.415092, 48.817699], [2.41553, 48.817089], [2.416342, 48.815918], [2.41703, 48.814957], [2.417209, 48.81472], [2.417468, 48.814404], [2.41781, 48.814014], [2.418062, 48.813744], [2.418364, 48.813435], [2.418765, 48.813046], [2.419195, 48.812649], [2.419673, 48.812241], [2.420012, 48.81197], [2.420658, 48.811493], [2.422053, 48.810478], [2.422437, 48.810165], [2.422657, 48.809971], [2.422917, 48.809723], [2.423117, 48.809517], [2.423419, 48.809174], [2.42378, 48.808674], [2.423933, 48.80843], [2.424141, 48.808044], [2.424349, 48.807587], [2.425559, 48.804699], [2.425868, 48.803932], [2.426223, 48.802963], [2.426501, 48.802307], [2.426501, 48.802307], [2.426799, 48.801624], [2.427007, 48.801216], [2.427265, 48.800785], [2.427492, 48.800446], [2.427735, 48.800114], [2.428784, 48.798782], [2.428931, 48.798592], [2.429202, 48.798206], [2.429402, 48.797878], [2.429563, 48.797573], [2.429682, 48.797314], [2.429816, 48.79697], [2.429857, 48.796844], [2.429928, 48.796597], [2.430021, 48.796181], [2.430051, 48.795982], [2.430095, 48.795475], [2.430121, 48.794819], [2.430173, 48.794106], [2.430246, 48.793652], [2.430364, 48.793179], [2.430426, 48.792976], [2.43064, 48.7924], [2.43125, 48.790901], [2.431556, 48.790249], [2.431818, 48.789715], [2.432038, 48.789238], [2.432117, 48.789047], [2.432117, 48.789047], [2.432232, 48.788773], [2.432353, 48.788445], [2.432764, 48.787197], [2.433219, 48.78595], [2.433336, 48.785698], [2.433887, 48.784336], [2.434256, 48.783367], [2.434637, 48.782272], [2.434868, 48.781559], [2.434925, 48.781361], [2.435011, 48.780991], [2.435078, 48.780609], [2.43512, 48.78027], [2.43523, 48.779167], [2.435282, 48.778816], [2.435332, 48.778553], [2.435464, 48.777981], [2.435754, 48.776814], [2.435874, 48.776283], [2.435962, 48.775845], [2.436011, 48.775536], [2.436068, 48.775055], [2.436107, 48.774502], [2.436111, 48.773846], [2.436098, 48.773598], [2.43606, 48.773232], [2.436004, 48.772926], [2.435923, 48.772606], [2.435842, 48.772346], [2.435781, 48.772179], [2.435651, 48.771862], [2.435519, 48.771591], [2.43533, 48.771259], [2.435226, 48.771095], [2.435226, 48.771095], [2.435089, 48.770889], [2.434454, 48.770004], [2.434222, 48.769642], [2.434111, 48.769447], [2.433924, 48.769081], [2.433833, 48.768867], [2.433703, 48.768513], [2.433628, 48.768265], [2.433546, 48.76791], [2.433505, 48.767658], [2.43347, 48.767319], [2.433459, 48.766819], [2.433669, 48.76054], [2.433739, 48.759209], [2.433899, 48.756485], [2.433907, 48.755856], [2.433878, 48.753601], [2.433887, 48.753334], [2.433908, 48.753109], [2.433963, 48.752815], [2.433995, 48.752693], [2.434067, 48.752468], [2.434114, 48.752346], [2.434221, 48.752113], [2.434341, 48.751896], [2.434416, 48.751778], [2.434583, 48.751537], [2.434773, 48.751301], [2.435139, 48.750881], [2.436452, 48.749401], [2.436709, 48.7491], [2.437031, 48.748676], [2.437258, 48.748322], [2.437374, 48.748119], [2.437563, 48.747742], [2.437722, 48.747356], [2.437804, 48.747116], [2.43794, 48.746666], [2.438321, 48.745377], [2.438425, 48.745068], [2.438478, 48.744938], [2.438572, 48.744724], [2.438655, 48.744564], [2.438655, 48.744564], [2.438834, 48.74427], [2.439139, 48.743855], [2.440261, 48.742462], [2.440446, 48.742252], [2.440701, 48.741985], [2.441054, 48.741657], [2.441272, 48.74147], [2.441451, 48.741333], [2.44164, 48.741188], [2.443604, 48.739796], [2.443879, 48.739594], [2.444092, 48.739426], [2.444263, 48.739277], [2.444454, 48.739098], [2.444572, 48.738979], [2.444834, 48.738678], [2.445017, 48.738438], [2.445112, 48.7383], [2.445289, 48.738007], [2.445429, 48.73772], [2.445538, 48.737442], [2.445627, 48.737144], [2.445906, 48.735916], [2.445975, 48.73558], [2.44602, 48.735325], [2.446069, 48.734921], [2.446112, 48.734184], [2.446149, 48.733685], [2.446181, 48.733418], [2.446373, 48.732121], [2.446409, 48.73177], [2.446427, 48.731354], [2.446418, 48.731033], [2.446405, 48.730843], [2.44634, 48.73032], [2.446303, 48.730141], [2.446303, 48.730141], [2.44621, 48.729752], [2.446087, 48.72937], [2.445956, 48.729053], [2.44582, 48.728771], [2.445582, 48.728363], [2.445308, 48.727959], [2.444801, 48.727264], [2.444536, 48.726883], [2.444401, 48.726665], [2.44424, 48.726387], [2.443717, 48.725418], [2.44306, 48.724285], [2.442899, 48.724033], [2.442681, 48.72374], [2.44251, 48.723537], [2.442266, 48.723286], [2.442022, 48.723072], [2.441711, 48.72282], [2.440573, 48.721973], [2.439327, 48.720985], [2.438807, 48.720615], [2.438391, 48.720348], [2.437941, 48.720078], [2.437489, 48.719837], [2.437089, 48.719643], [2.436934, 48.719582], [2.436632, 48.71944], [2.4323, 48.717533], [2.430374, 48.716675], [2.429371, 48.716217], [2.42814, 48.715626], [2.427496, 48.715305], [2.426855, 48.714951], [2.426498, 48.714737], [2.425624, 48.71418], [2.42483, 48.713715], [2.424159, 48.713367], [2.422529, 48.71257], [2.422158, 48.712379], [2.421649, 48.712093], [2.421, 48.711746], [2.420475, 48.711452], [2.419935, 48.71117], [2.419248, 48.710823], [2.41817, 48.710312], [2.416011, 48.709213], [2.414318, 48.70834], [2.414318, 48.70834], [2.410593, 48.706444], [2.410287, 48.706291], [2.410007, 48.706161], [2.409748, 48.706047], [2.409093, 48.70578], [2.40851, 48.70557], [2.408157, 48.705452], [2.40779, 48.705341], [2.407313, 48.705212], [2.406922, 48.705112], [2.406496, 48.705017], [2.406022, 48.704926], [2.405624, 48.704853], [2.405192, 48.704792], [2.404467, 48.704704], [2.400476, 48.704353], [2.39988, 48.704288], [2.399302, 48.704197], [2.39904, 48.70414], [2.398526, 48.70401], [2.39828, 48.703938], [2.397815, 48.703781], [2.397608, 48.703701], [2.397126, 48.703484], [2.396727, 48.703274], [2.396286, 48.702995], [2.395956, 48.702759], [2.395804, 48.702629], [2.395635, 48.702477], [2.395373, 48.702221], [2.39522, 48.702053], [2.394953, 48.701778], [2.393715, 48.700333], [2.391567, 48.697868], [2.386723, 48.69241], [2.386476, 48.692162], [2.385343, 48.691128], [2.384785, 48.690567], [2.384187, 48.689949], [2.38373, 48.689445], [2.38373, 48.689445], [2.383371, 48.689049], [2.383209, 48.688839], [2.382879, 48.688385], [2.382723, 48.688141], [2.38259, 48.68792], [2.382349, 48.687462], [2.382229, 48.687222], [2.382122, 48.686977], [2.381963, 48.686584], [2.381784, 48.68605], [2.381729, 48.68586], [2.381641, 48.685501], [2.38161, 48.685333], [2.381556, 48.684902], [2.381514, 48.684357], [2.381516, 48.684174], [2.381503, 48.683743], [2.381509, 48.683311], [2.381552, 48.682842], [2.381617, 48.682514], [2.381664, 48.682327], [2.381782, 48.681923], [2.381865, 48.68169], [2.382038, 48.681271], [2.382156, 48.681007], [2.382442, 48.680458], [2.382776, 48.679913], [2.383167, 48.679367], [2.383667, 48.678764], [2.383807, 48.678612], [2.384243, 48.678165], [2.38454, 48.677891], [2.385015, 48.677479], [2.385329, 48.677235], [2.386687, 48.676201], [2.386687, 48.676201], [2.386905, 48.676025], [2.387225, 48.675789], [2.393427, 48.671059], [2.394035, 48.670612], [2.398737, 48.667252], [2.399116, 48.666946], [2.399314, 48.666771], [2.399526, 48.666565], [2.399719, 48.666359], [2.399903, 48.666149], [2.400107, 48.665874], [2.400361, 48.665478], [2.400429, 48.665356], [2.400627, 48.664951], [2.40079, 48.664501], [2.40091, 48.664021], [2.400999, 48.663555], [2.401037, 48.663052], [2.401039, 48.662621], [2.401007, 48.662216], [2.400901, 48.661633], [2.400748, 48.661118], [2.400549, 48.660587], [2.400281, 48.660061], [2.399719, 48.659172], [2.397653, 48.656105], [2.396405, 48.654236], [2.396405, 48.654236], [2.3959, 48.653481], [2.392546, 48.648392], [2.392023, 48.647438], [2.391891, 48.647095], [2.391784, 48.646744], [2.391745, 48.646523], [2.391726, 48.646275], [2.391726, 48.646019], [2.391739, 48.645748], [2.391775, 48.645454], [2.391836, 48.645191], [2.391911, 48.644932], [2.392014, 48.644672], [2.392167, 48.644341], [2.392354, 48.644028], [2.392576, 48.643696], [2.392839, 48.643375], [2.393131, 48.643066], [2.393571, 48.642647], [2.395854, 48.640507], [2.396428, 48.640011], [2.397003, 48.639545], [2.397549, 48.63913], [2.398099, 48.638729], [2.398874, 48.638222], [2.399569, 48.637791], [2.399923, 48.637589], [2.400299, 48.637398], [2.400644, 48.637241], [2.401023, 48.637089], [2.401374, 48.636963], [2.40176, 48.636841], [2.402201, 48.636723], [2.40267, 48.63662], [2.403025, 48.636551], [2.403363, 48.636501], [2.403647, 48.636463], [2.404051, 48.636421], [2.404423, 48.636395], [2.404866, 48.636375], [2.407736, 48.636368], [2.407736, 48.636368], [2.409704, 48.636364], [2.410218, 48.636353], [2.410674, 48.636333], [2.411085, 48.636303], [2.411902, 48.636196], [2.412775, 48.636017], [2.413174, 48.635914], [2.413501, 48.635803], [2.413985, 48.635624], [2.414366, 48.635468], [2.414647, 48.635338], [2.415137, 48.635098], [2.41545, 48.634914], [2.415622, 48.6348], [2.416, 48.634529], [2.416161, 48.634403], [2.41653, 48.634075], [2.416817, 48.633789], [2.41698, 48.633606], [2.4171, 48.633465], [2.417228, 48.633293], [2.417385, 48.633064], [2.417469, 48.632931], [2.417692, 48.632488], [2.417771, 48.632305], [2.417849, 48.632099], [2.417913, 48.631908], [2.418088, 48.631294], [2.418306, 48.630577], [2.418367, 48.63039], [2.418433, 48.630222], [2.418511, 48.630047], [2.418688, 48.629711], [2.418832, 48.629478], [2.419005, 48.629234], [2.419104, 48.629108], [2.419267, 48.628914], [2.419573, 48.628597], [2.419762, 48.628426], [2.420071, 48.628162], [2.420416, 48.627911], [2.420625, 48.627769], [2.421075, 48.627502], [2.421476, 48.627296], [2.421858, 48.627121], [2.422148, 48.627003], [2.422444, 48.626888], [2.4228, 48.62677], [2.423119, 48.626675], [2.423587, 48.626556], [2.423804, 48.626507], [2.424238, 48.626427], [2.42479, 48.62635], [2.425623, 48.626255], [2.426099, 48.626209], [2.429932, 48.625919], [2.429932, 48.625919], [2.432871, 48.625694], [2.433859, 48.625603], [2.435844, 48.625431], [2.437305, 48.625332], [2.438391, 48.625198], [2.439167, 48.625088], [2.440469, 48.624798], [2.441574, 48.624462], [2.442998, 48.62394], [2.444149, 48.623577], [2.444795, 48.623432], [2.445793, 48.623268], [2.446803, 48.623188], [2.447274, 48.623173], [2.4476, 48.623177], [2.450768, 48.623314], [2.450768, 48.623314], [2.455222, 48.623512], [2.456314, 48.623543], [2.457187, 48.623497], [2.458019, 48.623413], [2.458589, 48.623322], [2.459153, 48.623215], [2.465098, 48.622017], [2.466865, 48.621643], [2.467434, 48.621498], [2.468028, 48.621319], [2.468613, 48.621105], [2.468899, 48.620991], [2.46953, 48.620701], [2.469832, 48.620541], [2.470319, 48.620258], [2.472514, 48.618916], [2.473067, 48.618534], [2.473365, 48.618305], [2.473676, 48.618038], [2.47379, 48.617928], [2.473996, 48.617695], [2.474086, 48.617573], [2.474216, 48.617374], [2.474311, 48.617203], [2.474442, 48.616905], [2.474484, 48.616768], [2.474555, 48.616482], [2.474575, 48.616325], [2.474583, 48.615913], [2.474576, 48.615814], [2.474544, 48.615597], [2.474472, 48.615307], [2.474355, 48.615009], [2.47425, 48.614815], [2.474055, 48.614517], [2.473868, 48.614292], [2.473766, 48.614182], [2.473583, 48.614006], [2.472516, 48.613091]]}, "properties": {"id": "rer-d", "branchId": "rer-d::0", "termini": "Creil - Corbeil-Essonnes", "source": "Ile-de-France Mobilites GTFS (data.iledefrance-mobilites.fr), Mobility License"}}, {"type": "Feature", "geometry": {"type": "LineString", "coordinates": [[2.655023, 48.527115], [2.654121, 48.527325], [2.652954, 48.527569], [2.652118, 48.52779], [2.651789, 48.527866], [2.651352, 48.527958], [2.650453, 48.528122], [2.650141, 48.528168], [2.649687, 48.528214], [2.649352, 48.528225], [2.648999, 48.528217], [2.648658, 48.528187], [2.648174, 48.528118], [2.647724, 48.52803], [2.647068, 48.527866], [2.646839, 48.527798], [2.646394, 48.527645], [2.645913, 48.527443], [2.6456, 48.527302], [2.645406, 48.527199], [2.645045, 48.526989], [2.644882, 48.526882], [2.644537, 48.52663], [2.643571, 48.525871], [2.643248, 48.525631], [2.643075, 48.525517], [2.642685, 48.525284], [2.642284, 48.525078], [2.641665, 48.524803], [2.640786, 48.524452], [2.639947, 48.524128], [2.639318, 48.523914], [2.638634, 48.523712], [2.638017, 48.523556], [2.637721, 48.523491], [2.637187, 48.52338], [2.636431, 48.523254], [2.631158, 48.522503], [2.630076, 48.522335], [2.629429, 48.522217], [2.628659, 48.522049], [2.628285, 48.521957], [2.62766, 48.521786], [2.626979, 48.52158], [2.626696, 48.521484], [2.626021, 48.52124], [2.625432, 48.521004], [2.618478, 48.517986], [2.617917, 48.51775], [2.61736, 48.517536], [2.617054, 48.517426], [2.616389, 48.517208], [2.616047, 48.517105], [2.615376, 48.516922], [2.614689, 48.516758], [2.614347, 48.516685], [2.613631, 48.516548], [2.612854, 48.516422], [2.605364, 48.515289], [2.604654, 48.515186], [2.604188, 48.515129], [2.603501, 48.515072], [2.603218, 48.515057], [2.602589, 48.515049], [2.601945, 48.515064], [2.599144, 48.515148], [2.599144, 48.515148], [2.598436, 48.515171], [2.598153, 48.51519], [2.597494, 48.515259], [2.596878, 48.515347], [2.596543, 48.515408], [2.596142, 48.515488], [2.595806, 48.51556], [2.595334, 48.515678], [2.59417, 48.515984], [2.593703, 48.516117], [2.593361, 48.516228], [2.593027, 48.51635], [2.59268, 48.516491], [2.592234, 48.516693], [2.591954, 48.516838], [2.591083, 48.517342], [2.588286, 48.519016], [2.587917, 48.519241], [2.587557, 48.519474], [2.586864, 48.519978], [2.586626, 48.520168], [2.586408, 48.520355], [2.585961, 48.520767], [2.585493, 48.521259], [2.584618, 48.522224], [2.584173, 48.522682], [2.583869, 48.522972], [2.583562, 48.523254], [2.582939, 48.523773], [2.582228, 48.524307], [2.581883, 48.524548], [2.579487, 48.526081], [2.578536, 48.52668], [2.577548, 48.527252], [2.576582, 48.527756], [2.57561, 48.528214], [2.574521, 48.528687], [2.572946, 48.529358], [2.572946, 48.529358], [2.571688, 48.529884], [2.570627, 48.530293], [2.570257, 48.53043], [2.569212, 48.530788], [2.568298, 48.531075], [2.567149, 48.531406], [2.565866, 48.531738], [2.565357, 48.53186], [2.564653, 48.532017], [2.563814, 48.532188], [2.563017, 48.532337], [2.562378, 48.532448], [2.561362, 48.532604], [2.560532, 48.532719], [2.55527, 48.533382], [2.550849, 48.533936], [2.54906, 48.534172], [2.54828, 48.53429], [2.547858, 48.534363], [2.547433, 48.534435], [2.546672, 48.534584], [2.546136, 48.534695], [2.545, 48.534966], [2.545, 48.534966], [2.544028, 48.535233], [2.543194, 48.53548], [2.542578, 48.535679], [2.541957, 48.535892], [2.541163, 48.536182], [2.540493, 48.536446], [2.539917, 48.536686], [2.538922, 48.537144], [2.534016, 48.539505], [2.533653, 48.539688], [2.533232, 48.539917], [2.532874, 48.540142], [2.532538, 48.540382], [2.532072, 48.54076], [2.530874, 48.541866], [2.530454, 48.542271], [2.530258, 48.542473], [2.529836, 48.542946], [2.529424, 48.543442], [2.529249, 48.543674], [2.529101, 48.543888], [2.528827, 48.544308], [2.528716, 48.544483], [2.528494, 48.544872], [2.528402, 48.545055], [2.528296, 48.545288], [2.528238, 48.545444], [2.528148, 48.54575], [2.528099, 48.545971], [2.528063, 48.54631], [2.528061, 48.54668], [2.528239, 48.549686], [2.528301, 48.550304], [2.528333, 48.55048], [2.528381, 48.550678], [2.528431, 48.550842], [2.528554, 48.551159], [2.528638, 48.551338], [2.528756, 48.551559], [2.528838, 48.551697], [2.52908, 48.552048], [2.529197, 48.552204], [2.529445, 48.552502], [2.529679, 48.552757], [2.529814, 48.552895], [2.530012, 48.553078], [2.530275, 48.55331], [2.531698, 48.554455], [2.53508, 48.557148], [2.535537, 48.557487], [2.535848, 48.557701], [2.540049, 48.560524], [2.540488, 48.560829], [2.540717, 48.561005], [2.540983, 48.561222], [2.541166, 48.561382], [2.541459, 48.561684], [2.541692, 48.561954], [2.541805, 48.562103], [2.541907, 48.562241], [2.542017, 48.562408], [2.542186, 48.562702], [2.542264, 48.562866], [2.542408, 48.563213], [2.54247, 48.5634], [2.542566, 48.563766], [2.542608, 48.564056], [2.54263, 48.564503], [2.54263, 48.564503], [2.542607, 48.564865], [2.542561, 48.565197], [2.542507, 48.565422], [2.542398, 48.565773], [2.542284, 48.566044], [2.542146, 48.566319], [2.542003, 48.566555], [2.541902, 48.566704], [2.541803, 48.566849], [2.541615, 48.567097], [2.541379, 48.567364], [2.541217, 48.567528], [2.540931, 48.567787], [2.540652, 48.568008], [2.540297, 48.56826], [2.539986, 48.568459], [2.539598, 48.568684], [2.539204, 48.568882], [2.538785, 48.569061], [2.538151, 48.569298], [2.537609, 48.569481], [2.537001, 48.569672], [2.536385, 48.569851], [2.53576, 48.570019], [2.535139, 48.570175], [2.533871, 48.57045], [2.53323, 48.570576], [2.532216, 48.57074], [2.531423, 48.570847], [2.530833, 48.570915], [2.530054, 48.570995], [2.52959, 48.571033], [2.528972, 48.571072], [2.528075, 48.57111], [2.52711, 48.571129], [2.52615, 48.571121], [2.525747, 48.57111], [2.525175, 48.571091], [2.524747, 48.571064], [2.524206, 48.57103], [2.523577, 48.57098], [2.522922, 48.570915], [2.521751, 48.570766], [2.521315, 48.570702], [2.52041, 48.570549], [2.519705, 48.570412], [2.518554, 48.570156], [2.517704, 48.569939], [2.51732, 48.569832], [2.516612, 48.569622], [2.50888, 48.567257], [2.508044, 48.567024], [2.507453, 48.566872], [2.507113, 48.566788], [2.506254, 48.566597], [2.505767, 48.566494], [2.505091, 48.566372], [2.504427, 48.566254], [2.501093, 48.565708], [2.500098, 48.565552], [2.499683, 48.565491], [2.499428, 48.56546], [2.49905, 48.565426], [2.498709, 48.565407], [2.498245, 48.565392], [2.497494, 48.565395], [2.496992, 48.565418], [2.496713, 48.565441], [2.495775, 48.565544], [2.495376, 48.565594], [2.494376, 48.56575], [2.493534, 48.565914], [2.492464, 48.566162], [2.492464, 48.566162], [2.489352, 48.566967], [2.488845, 48.567104], [2.488246, 48.567287], [2.487782, 48.567444], [2.487435, 48.567574], [2.486827, 48.567825], [2.486413, 48.568008], [2.485771, 48.568329], [2.485498, 48.568474], [2.484882, 48.568844], [2.484299, 48.569241], [2.483252, 48.570011], [2.482389, 48.57066], [2.482074, 48.570927], [2.481757, 48.57122], [2.480857, 48.572102], [2.48009, 48.572876], [2.479788, 48.573246], [2.479573, 48.573563], [2.479573, 48.573563], [2.479361, 48.573956], [2.479235, 48.574238], [2.479074, 48.574715], [2.479017, 48.574944], [2.478767, 48.576122], [2.478713, 48.576347], [2.47861, 48.576698], [2.478472, 48.577042], [2.47839, 48.577209], [2.478259, 48.577435], [2.478108, 48.57766], [2.477898, 48.5779], [2.477624, 48.57819], [2.477202, 48.578571], [2.476632, 48.578976], [2.476331, 48.579155], [2.475947, 48.579338], [2.475307, 48.579609], [2.474684, 48.579819], [2.473185, 48.580212], [2.47062, 48.580921], [2.470072, 48.581089], [2.469737, 48.581207], [2.469488, 48.58131], [2.469194, 48.581444], [2.468767, 48.581665], [2.4685, 48.581825], [2.468194, 48.582027], [2.468007, 48.582165], [2.467829, 48.58231], [2.46756, 48.582561], [2.467316, 48.582806], [2.467128, 48.583031], [2.467049, 48.583138], [2.466975, 48.583241], [2.466753, 48.583603], [2.466635, 48.583851], [2.466547, 48.58408], [2.466477, 48.584309], [2.466424, 48.584541], [2.46639, 48.584774], [2.466375, 48.585011], [2.466377, 48.585243], [2.466392, 48.585415], [2.466439, 48.585754], [2.466614, 48.586571], [2.466673, 48.58688], [2.466705, 48.587128], [2.466718, 48.587383], [2.466716, 48.587498], [2.4667, 48.58773], [2.466685, 48.587849], [2.466634, 48.588093], [2.466548, 48.58839], [2.466461, 48.588615], [2.466407, 48.588737], [2.466239, 48.58905], [2.466026, 48.589371], [2.465922, 48.589504], [2.465752, 48.589703], [2.465468, 48.589989], [2.465135, 48.590271], [2.464876, 48.590466], [2.461895, 48.592533], [2.461517, 48.592804], [2.461517, 48.592804], [2.461117, 48.593105], [2.460874, 48.593323], [2.460677, 48.593517], [2.460429, 48.593803], [2.460343, 48.593918], [2.46012, 48.594261], [2.46001, 48.594467], [2.459912, 48.594677], [2.459854, 48.594822], [2.459764, 48.595116], [2.459712, 48.595356], [2.459685, 48.595531], [2.459619, 48.596214], [2.459255, 48.601223], [2.459238, 48.601707], [2.459251, 48.602024], [2.459282, 48.602264], [2.459305, 48.602379], [2.459362, 48.602589], [2.459438, 48.602821], [2.459593, 48.603176], [2.459783, 48.6035], [2.459888, 48.603653], [2.460134, 48.603966], [2.460313, 48.604168], [2.460626, 48.604462], [2.460847, 48.604637], [2.461345, 48.604977], [2.461609, 48.605137], [2.461816, 48.605251], [2.46261, 48.605637], [2.46261, 48.605637], [2.4635, 48.606049], [2.463847, 48.606216], [2.464291, 48.606457], [2.464778, 48.606758], [2.465222, 48.607063], [2.465645, 48.607372], [2.466535, 48.608055], [2.466937, 48.608387], [2.468327, 48.609585], [2.468938, 48.610119], [2.469413, 48.610561], [2.470291, 48.611427], [2.470828, 48.611942], [2.47228, 48.613216]]}, "properties": {"id": "rer-d", "branchId": "rer-d::1", "termini": "Melun - Corbeil-Essonnes", "source": "Ile-de-France Mobilites GTFS (data.iledefrance-mobilites.fr), Mobility License"}}, {"type": "Feature", "geometry": {"type": "LineString", "coordinates": [[2.655123, 48.527325], [2.654218, 48.527527], [2.64998, 48.528408], [2.648249, 48.528778], [2.647308, 48.528999], [2.64585, 48.529392], [2.645075, 48.529621], [2.644307, 48.529861], [2.643602, 48.530102], [2.643229, 48.530239], [2.642292, 48.530613], [2.641586, 48.53093], [2.637334, 48.532951], [2.63622, 48.533455], [2.635415, 48.533791], [2.631549, 48.535297], [2.63087, 48.535583], [2.630164, 48.535912], [2.629481, 48.536266], [2.628859, 48.536602], [2.628221, 48.536987], [2.625017, 48.539078], [2.625017, 48.539078], [2.622968, 48.540447], [2.622324, 48.54089], [2.620693, 48.542034], [2.620258, 48.542324], [2.61608, 48.545082], [2.613897, 48.546528], [2.613298, 48.546932], [2.612861, 48.547241], [2.6121, 48.547829], [2.611593, 48.548248], [2.608064, 48.551392], [2.606844, 48.552464], [2.605672, 48.55352], [2.604614, 48.554447], [2.603794, 48.555195], [2.601141, 48.557533], [2.5982, 48.560158], [2.597588, 48.560734], [2.597124, 48.561214], [2.596821, 48.561546], [2.596195, 48.562286], [2.595906, 48.562672], [2.595622, 48.563087], [2.595309, 48.563587], [2.594918, 48.564255], [2.594703, 48.564655], [2.594513, 48.565033], [2.594301, 48.565483], [2.594301, 48.565483], [2.593716, 48.566868], [2.593308, 48.567905], [2.593109, 48.56847], [2.592616, 48.570084], [2.591553, 48.573517], [2.589933, 48.578815], [2.589709, 48.579552], [2.589518, 48.580223], [2.589398, 48.580578], [2.589025, 48.581787], [2.58767, 48.586216], [2.586689, 48.589397], [2.586495, 48.589954], [2.586343, 48.59034], [2.586183, 48.590717], [2.585646, 48.591934], [2.585401, 48.592438], [2.585123, 48.592976], [2.584563, 48.594135], [2.583916, 48.595562], [2.583916, 48.595562], [2.583081, 48.597477], [2.582656, 48.598572], [2.582198, 48.599674], [2.581224, 48.601871], [2.580808, 48.602787], [2.579738, 48.605217], [2.577675, 48.609856], [2.577421, 48.610374], [2.57728, 48.610699], [2.577187, 48.610939], [2.575317, 48.615162], [2.570404, 48.626152], [2.569805, 48.627575], [2.569568, 48.628269], [2.569568, 48.628269], [2.569355, 48.628853], [2.569151, 48.629326], [2.568043, 48.631569], [2.567699, 48.632301], [2.567309, 48.633152], [2.565607, 48.636799], [2.564487, 48.639313], [2.564127, 48.640091], [2.563848, 48.640625], [2.563688, 48.640907], [2.562988, 48.642021], [2.56276, 48.642399], [2.562627, 48.642624], [2.562351, 48.64315], [2.562235, 48.643406], [2.562115, 48.643696], [2.561996, 48.644012], [2.560481, 48.64822], [2.560303, 48.648666], [2.557989, 48.65387], [2.557764, 48.654346], [2.557462, 48.654922], [2.556943, 48.655792], [2.556504, 48.656437], [2.556349, 48.656647], [2.555075, 48.658276], [2.554501, 48.658947], [2.552913, 48.660561], [2.552736, 48.660755], [2.552425, 48.661121], [2.551701, 48.662022], [2.551474, 48.662323], [2.551133, 48.662796], [2.550092, 48.66431], [2.549479, 48.665176], [2.548997, 48.665806], [2.548095, 48.667011], [2.547503, 48.667763]]}, "properties": {"id": "rer-d", "branchId": "rer-d::2", "termini": "Melun - Combs-la-Ville - Quincy", "source": "Ile-de-France Mobilites GTFS (data.iledefrance-mobilites.fr), Mobility License"}}, {"type": "Feature", "geometry": {"type": "Point", "coordinates": [2.46892902764167, 49.264185555044406]}, "properties": {"name": "Creil"}}, {"type": "Feature", "geometry": {"type": "Point", "coordinates": [2.4595159140085237, 49.187030004663995]}, "properties": {"name": "Chantilly - Gouvieux"}}, {"type": "Feature", "geometry": {"type": "Point", "coordinates": [2.489862086302069, 49.13840546145438]}, "properties": {"name": "Orry-la-Ville - Coye"}}, {"type": "Feature", "geometry": {"type": "Point", "coordinates": [2.5069908684194053, 49.1261949449139]}, "properties": {"name": "La Borne Blanche (Gare)"}}, {"type": "Feature", "geometry": {"type": "Point", "coordinates": [2.525517836696695, 49.09951161811565]}, "properties": {"name": "Survilliers - Fosses"}}, {"type": "Feature", "geometry": {"type": "Point", "coordinates": [2.5018113143714777, 49.04933726826723]}, "properties": {"name": "Louvres"}}, {"type": "Feature", "geometry": {"type": "Point", "coordinates": [2.477713962139221, 49.03307204384692]}, "properties": {"name": "Les Noues"}}, {"type": "Feature", "geometry": {"type": "Point", "coordinates": [2.4625658079312593, 49.02341075826703]}, "properties": {"name": "Goussainville"}}, {"type": "Feature", "geometry": {"type": "Point", "coordinates": [2.4162467958973055, 48.99377204005172]}, "properties": {"name": "Villiers-le-Bel - Gonesse - Arnouville"}}, {"type": "Feature", "geometry": {"type": "Point", "coordinates": [2.3899547555239407, 48.97632635843972]}, "properties": {"name": "Garges - Sarcelles"}}, {"type": "Feature", "geometry": {"type": "Point", "coordinates": [2.3703314284767747, 48.96277628555098]}, "properties": {"name": "Pierrefitte - Stains"}}, {"type": "Feature", "geometry": {"type": "Point", "coordinates": [2.345479004987329, 48.93482889939617]}, "properties": {"name": "Saint-Denis"}}, {"type": "Feature", "geometry": {"type": "Point", "coordinates": [2.3504430479100207, 48.91769737260247]}, "properties": {"name": "Stade de France Saint-Denis"}}, {"type": "Feature", "geometry": {"type": "Point", "coordinates": [2.356693437528564, 48.88230685842714]}, "properties": {"name": "Gare du Nord"}}, {"type": "Feature", "geometry": {"type": "Point", "coordinates": [2.34697651043533, 48.86174503191322]}, "properties": {"name": "Châtelet - Les Halles"}}, {"type": "Feature", "geometry": {"type": "Point", "coordinates": [2.376365660931201, 48.84340211646564]}, "properties": {"name": "Gare de Lyon"}}, {"type": "Feature", "geometry": {"type": "Point", "coordinates": [2.4264376603578035, 48.80217813521484]}, "properties": {"name": "Maisons-Alfort - Alfortville"}}, {"type": "Feature", "geometry": {"type": "Point", "coordinates": [2.4321242678299977, 48.78883131123265]}, "properties": {"name": "Le Vert de Maisons"}}, {"type": "Feature", "geometry": {"type": "Point", "coordinates": [2.435315840251248, 48.771254072297346]}, "properties": {"name": "Créteil Pompadour"}}, {"type": "Feature", "geometry": {"type": "Point", "coordinates": [2.438697833840877, 48.744611139140474]}, "properties": {"name": "Villeneuve Triage"}}, {"type": "Feature", "geometry": {"type": "Point", "coordinates": [2.446304786739812, 48.730080267741016]}, "properties": {"name": "Villeneuve-Saint-Georges"}}, {"type": "Feature", "geometry": {"type": "Point", "coordinates": [2.413499342148242, 48.70808932141768]}, "properties": {"name": "Vigneux-sur-Seine"}}, {"type": "Feature", "geometry": {"type": "Point", "coordinates": [2.383334629403869, 48.68970940912314]}, "properties": {"name": "Juvisy"}}, {"type": "Feature", "geometry": {"type": "Point", "coordinates": [2.39678605544789, 48.65484195083382]}, "properties": {"name": "Grigny Centre"}}, {"type": "Feature", "geometry": {"type": "Point", "coordinates": [2.40769076622141, 48.6363396147683]}, "properties": {"name": "Orangis Bois de l'Épine"}}, {"type": "Feature", "geometry": {"type": "Point", "coordinates": [2.4300329095214526, 48.62588794663492]}, "properties": {"name": "Évry - Courcouronnes"}}, {"type": "Feature", "geometry": {"type": "Point", "coordinates": [2.4520047548737254, 48.623306397197155]}, "properties": {"name": "Le Bras de Fer"}}, {"type": "Feature", "geometry": {"type": "Point", "coordinates": [2.472467657639279, 48.61323864277619]}, "properties": {"name": "Corbeil-Essonnes"}}, {"type": "Feature", "geometry": {"type": "Point", "coordinates": [2.65469836071817, 48.527491277248295]}, "properties": {"name": "Melun"}}, {"type": "Feature", "geometry": {"type": "Point", "coordinates": [2.5994097381795305, 48.51507609100275]}, "properties": {"name": "Vosves"}}, {"type": "Feature", "geometry": {"type": "Point", "coordinates": [2.57179291425262, 48.52985734002498]}, "properties": {"name": "Boissise-le-Roi"}}, {"type": "Feature", "geometry": {"type": "Point", "coordinates": [2.5445365646399507, 48.535084951085466]}, "properties": {"name": "Ponthierry - Pringy"}}, {"type": "Feature", "geometry": {"type": "Point", "coordinates": [2.5426100742385285, 48.56502608446919]}, "properties": {"name": "Saint-Fargeau"}}, {"type": "Feature", "geometry": {"type": "Point", "coordinates": [2.492424499497774, 48.56619819315809]}, "properties": {"name": "Le Coudray-Montceaux"}}, {"type": "Feature", "geometry": {"type": "Point", "coordinates": [2.4795222910084975, 48.57358727886637]}, "properties": {"name": "Le Plessis Chenet"}}, {"type": "Feature", "geometry": {"type": "Point", "coordinates": [2.461533386360794, 48.592814943454]}, "properties": {"name": "Villabé"}}, {"type": "Feature", "geometry": {"type": "Point", "coordinates": [2.463295818844443, 48.60581740091332]}, "properties": {"name": "Essonnes Robinson"}}, {"type": "Feature", "geometry": {"type": "Point", "coordinates": [2.6255537322060074, 48.538746730738936]}, "properties": {"name": "Le Mée"}}, {"type": "Feature", "geometry": {"type": "Point", "coordinates": [2.5946150549367304, 48.56486314053174]}, "properties": {"name": "Cesson"}}, {"type": "Feature", "geometry": {"type": "Point", "coordinates": [2.5839359760934313, 48.59548998563483]}, "properties": {"name": "Savigny-le-Temple - Nandy"}}, {"type": "Feature", "geometry": {"type": "Point", "coordinates": [2.569507070898012, 48.62833648393033]}, "properties": {"name": "Lieusaint - Moissy"}}, {"type": "Feature", "geometry": {"type": "Point", "coordinates": [2.5476998823085504, 48.667819721800015]}, "properties": {"name": "Combs-la-Ville - Quincy"}}]}