{"type": "FeatureCollection", "features": [{"type": "Feature", "geometry": {"type": "LineString", "coordinates": [[2.303175, 48.762768], [2.302118, 48.762489], [2.300792, 48.762207], [2.300598, 48.76218], [2.300232, 48.762161], [2.299741, 48.76215], [2.299491, 48.762127], [2.298628, 48.761967], [2.298393, 48.761913], [2.298015, 48.76181], [2.295504, 48.76133], [2.294729, 48.7612], [2.29412, 48.76115], [2.29361, 48.761139], [2.293202, 48.761116], [2.293014, 48.761116], [2.292872, 48.761127], [2.290325, 48.761452], [2.290325, 48.761452], [2.284979, 48.762161], [2.280379, 48.762783], [2.280379, 48.762783], [2.273926, 48.763649], [2.273489, 48.763729], [2.272546, 48.763863], [2.272546, 48.763863], [2.271441, 48.764011], [2.270578, 48.764095], [2.265885, 48.764736], [2.265885, 48.764736], [2.263273, 48.765091], [2.260527, 48.765453], [2.259551, 48.765575], [2.259551, 48.765575], [2.258942, 48.765656], [2.255635, 48.766106], [2.255388, 48.766144], [2.255322, 48.766163], [2.255216, 48.766201], [2.254737, 48.766472], [2.254737, 48.766472], [2.253772, 48.767036], [2.253199, 48.767357], [2.250949, 48.768658], [2.249554, 48.769447], [2.249554, 48.769447], [2.248479, 48.770077], [2.248379, 48.770164], [2.248338, 48.770222], [2.248307, 48.77029], [2.248291, 48.770382], [2.248306, 48.770481], [2.248358, 48.770695], [2.248426, 48.77092], [2.248492, 48.771088], [2.248732, 48.771629], [2.249083, 48.772526], [2.249271, 48.773159], [2.24933, 48.773415], [2.249401, 48.773674], [2.249619, 48.774719], [2.249906, 48.776215], [2.250096, 48.776833], [2.250096, 48.776833], [2.25021, 48.777149], [2.25035, 48.777504], [2.250523, 48.777836], [2.250725, 48.778191], [2.250925, 48.778496], [2.251269, 48.77898], [2.25194, 48.779858], [2.25194, 48.779858], [2.252311, 48.78035], [2.252613, 48.780865], [2.252737, 48.781147], [2.252856, 48.781471], [2.253061, 48.782135], [2.2531, 48.782291], [2.253191, 48.782745], [2.253191, 48.782745], [2.25334, 48.783531], [2.25343, 48.784214], [2.253464, 48.784782], [2.253513, 48.784981], [2.253532, 48.785122], [2.253542, 48.785271], [2.253509, 48.785759], [2.253474, 48.786068], [2.253401, 48.78653], [2.253249, 48.787064], [2.253181, 48.787354], [2.253181, 48.787354], [2.253055, 48.787922], [2.252769, 48.790222]]}, "properties": {"id": "tram-10", "branchId": "tram-10::0", "termini": "La Croix de Berny - Jardin Parisien", "source": "Ile-de-France Mobilites GTFS (data.iledefrance-mobilites.fr), Mobility License"}}, {"type": "Feature", "geometry": {"type": "Point", "coordinates": [2.3029180081362925, 48.76272082680263]}, "properties": {"name": "La Croix de Berny"}}, {"type": "Feature", "geometry": {"type": "Point", "coordinates": [2.290459587558967, 48.76145121893071]}, "properties": {"name": "LaVallée"}}, {"type": "Feature", "geometry": {"type": "Point", "coordinates": [2.2807006826726486, 48.76275998240396]}, "properties": {"name": "Petit-Châtenay"}}, {"type": "Feature", "geometry": {"type": "Point", "coordinates": [2.272794831394837, 48.76383639978567]}, "properties": {"name": "Théâtre La Piscine"}}, {"type": "Feature", "geometry": {"type": "Point", "coordinates": [2.266088616748746, 48.764721796864]}, "properties": {"name": "Les Peintres"}}, {"type": "Feature", "geometry": {"type": "Point", "coordinates": [2.2597634832013664, 48.765582197472746]}, "properties": {"name": "Cité-Jardin"}}, {"type": "Feature", "geometry": {"type": "Point", "coordinates": [2.254908219839857, 48.76639747585887]}, "properties": {"name": "Vallée aux Loups"}}, {"type": "Feature", "geometry": {"type": "Point", "coordinates": [2.249694872613051, 48.76939592802492]}, "properties": {"name": "Malabry"}}, {"type": "Feature", "geometry": {"type": "Point", "coordinates": [2.250066396091131, 48.77668362906781]}, "properties": {"name": "Noveos"}}, {"type": "Feature", "geometry": {"type": "Point", "coordinates": [2.251955070610537, 48.779735522436795]}, "properties": {"name": "Parc des Sports"}}, {"type": "Feature", "geometry": {"type": "Point", "coordinates": [2.253248517857635, 48.78254980857258]}, "properties": {"name": "Le Hameau"}}, {"type": "Feature", "geometry": {"type": "Point", "coordinates": [2.2532225449568815, 48.78721762813691]}, "properties": {"name": "Hôpital Béclère"}}, {"type": "Feature", "geometry": {"type": "Point", "coordinates": [2.252773412609051, 48.79006596776754]}, "properties": {"name": "Jardin Parisien"}}]}