{"type": "FeatureCollection", "features": [{"type": "Feature", "geometry": {"type": "LineString", "coordinates": [[2.905486, 48.859573], [2.902881, 48.859779], [2.90134, 48.85989], [2.897658, 48.860176], [2.897081, 48.860241], [2.89662, 48.86031], [2.886941, 48.862377], [2.885748, 48.862625], [2.8845, 48.8629], [2.884256, 48.862953], [2.883985, 48.863026], [2.883502, 48.863171], [2.883099, 48.863331], [2.882903, 48.863415], [2.882903, 48.863415], [2.88256, 48.863571], [2.882077, 48.863819], [2.876355, 48.866901], [2.876067, 48.867062], [2.875575, 48.867348], [2.875138, 48.867661], [2.874801, 48.867939], [2.872041, 48.870491], [2.871368, 48.871101], [2.871192, 48.871243], [2.870943, 48.871433], [2.870411, 48.871784], [2.870234, 48.871891], [2.869704, 48.872169], [2.869209, 48.872387], [2.868963, 48.872482], [2.868644, 48.872601], [2.868367, 48.872688], [2.867887, 48.872822], [2.866117, 48.87328], [2.861949, 48.874332], [2.861521, 48.874454], [2.861266, 48.874538], [2.860869, 48.874691], [2.860439, 48.874878], [2.859963, 48.87513], [2.85978, 48.87524], [2.859538, 48.875401], [2.859314, 48.875561], [2.859066, 48.875763], [2.858871, 48.875935], [2.858716, 48.876087], [2.858555, 48.876263], [2.858431, 48.876408], [2.858317, 48.87656], [2.858184, 48.876755], [2.858062, 48.876961], [2.857199, 48.878593], [2.857083, 48.878796], [2.856823, 48.879204], [2.856679, 48.879414], [2.855249, 48.881378], [2.854621, 48.882267], [2.854234, 48.882793], [2.854234, 48.882793], [2.853854, 48.88332], [2.85361, 48.883602], [2.85351, 48.883709], [2.853393, 48.883827], [2.853235, 48.883968], [2.852936, 48.884209], [2.852758, 48.884331], [2.852488, 48.884502], [2.8523, 48.884609], [2.852107, 48.884708], [2.851722, 48.884888], [2.851557, 48.884956], [2.850965, 48.885174], [2.850591, 48.885284], [2.850194, 48.885391], [2.849931, 48.885448], [2.849715, 48.88549], [2.849259, 48.885571], [2.845763, 48.886074], [2.844927, 48.886189], [2.839271, 48.887001], [2.83828, 48.88718], [2.837849, 48.887264], [2.837332, 48.887383], [2.836375, 48.887623], [2.835769, 48.887794], [2.835385, 48.887909], [2.832165, 48.888958], [2.827312, 48.890553], [2.826377, 48.890858], [2.826032, 48.890984], [2.826032, 48.890984], [2.825554, 48.891174], [2.825202, 48.891335], [2.824631, 48.891621], [2.8197, 48.894184], [2.817347, 48.895393], [2.816944, 48.89558], [2.816471, 48.895779], [2.81582, 48.896008], [2.815518, 48.896099], [2.815161, 48.896198], [2.814696, 48.896313], [2.814389, 48.896374], [2.81384, 48.896473], [2.813578, 48.896511], [2.813061, 48.896572], [2.812546, 48.89661], [2.812046, 48.896633], [2.811759, 48.896637], [2.810841, 48.896622], [2.808807, 48.896484], [2.808447, 48.896473], [2.808289, 48.896473], [2.807909, 48.896488], [2.807487, 48.896538], [2.807153, 48.896595], [2.806941, 48.896645], [2.806538, 48.896759], [2.806258, 48.896862], [2.805912, 48.897022], [2.805654, 48.897163], [2.805465, 48.897285], [2.805248, 48.897438], [2.805077, 48.897575], [2.804955, 48.897686], [2.804792, 48.897869], [2.804664, 48.898029], [2.804387, 48.898434], [2.804255, 48.898659], [2.804171, 48.898857], [2.804115, 48.89904], [2.804067, 48.899296], [2.804058, 48.899399], [2.804059, 48.899601], [2.804066, 48.899685], [2.804096, 48.899883], [2.804153, 48.900082], [2.804186, 48.900173], [2.804268, 48.900352], [2.804359, 48.900517], [2.804493, 48.900707], [2.804617, 48.90086], [2.804771, 48.901016], [2.804965, 48.901192], [2.805205, 48.901379], [2.80543, 48.901531], [2.805664, 48.901669], [2.806089, 48.901871], [2.806459, 48.902016], [2.807008, 48.902187], [2.807543, 48.902321], [2.80825, 48.902481], [2.809334, 48.902752]]}, "properties": {"id": "tram-14", "branchId": "tram-14::0", "termini": "Crécy-la-Chapelle - Esbly", "source": "Ile-de-France Mobilites GTFS (data.iledefrance-mobilites.fr), Mobility License"}}, {"type": "Feature", "geometry": {"type": "Point", "coordinates": [2.9051922787891398, 48.859563576644945]}, "properties": {"name": "Crécy-la-Chapelle"}}, {"type": "Feature", "geometry": {"type": "Point", "coordinates": [2.8825308779964818, 48.86352745620305]}, "properties": {"name": "Villiers Montbarbin"}}, {"type": "Feature", "geometry": {"type": "Point", "coordinates": [2.854152348003086, 48.88280440161704]}, "properties": {"name": "Couilly - Saint-Germain - Quincy"}}, {"type": "Feature", "geometry": {"type": "Point", "coordinates": [2.8255986508264512, 48.89108472386095]}, "properties": {"name": "Montry - Condé"}}, {"type": "Feature", "geometry": {"type": "Point", "coordinates": [2.809285919946294, 48.90274164027046]}, "properties": {"name": "Esbly"}}]}