{"type": "FeatureCollection", "features": [{"type": "Feature", "geometry": {"type": "LineString", "coordinates": [[2.371813, 48.714516], [2.372448, 48.715065], [2.372637, 48.715237], [2.372677, 48.71529], [2.372697, 48.715343], [2.372701, 48.715412], [2.372694, 48.715466], [2.371926, 48.717606], [2.371828, 48.717831], [2.371756, 48.717941], [2.371683, 48.718029], [2.371314, 48.718422], [2.371204, 48.718575], [2.371143, 48.718685], [2.371107, 48.718769], [2.371067, 48.71891], [2.371043, 48.719097], [2.370821, 48.723049], [2.370779, 48.723309], [2.370741, 48.723492], [2.370542, 48.72422], [2.370031, 48.725449], [2.369884, 48.725819], [2.369669, 48.726311], [2.368299, 48.729565], [2.368299, 48.729565], [2.368135, 48.729961], [2.368124, 48.730087], [2.368137, 48.730171], [2.36817, 48.730263], [2.368196, 48.730305], [2.368271, 48.7304], [2.368323, 48.73045], [2.368429, 48.730526], [2.368574, 48.730598], [2.368709, 48.730644], [2.368843, 48.730671], [2.369478, 48.730785], [2.370037, 48.730862], [2.371932, 48.731209], [2.372072, 48.731243], [2.372136, 48.73127], [2.372212, 48.731312], [2.372259, 48.731358], [2.372301, 48.731419], [2.372324, 48.731487], [2.372326, 48.731533], [2.372316, 48.731583], [2.371597, 48.733311], [2.371597, 48.733311], [2.371435, 48.733688], [2.371163, 48.734356], [2.371024, 48.734676], [2.3701, 48.736908], [2.370033, 48.737156], [2.370012, 48.737358], [2.369937, 48.738564], [2.369937, 48.738564], [2.369909, 48.738968], [2.369899, 48.739254], [2.36988, 48.739334], [2.369859, 48.73938], [2.369799, 48.739475], [2.369755, 48.739513], [2.369694, 48.739555], [2.369626, 48.73959], [2.369557, 48.739613], [2.369443, 48.739643], [2.36937, 48.739651], [2.369212, 48.739655], [2.365692, 48.739567], [2.365405, 48.739567], [2.365041, 48.739574], [2.359469, 48.740005], [2.359469, 48.740005], [2.358141, 48.740097], [2.357894, 48.740105], [2.357543, 48.740097], [2.353975, 48.739815], [2.353834, 48.739815], [2.353765, 48.739826], [2.353695, 48.739845], [2.35361, 48.739887], [2.353569, 48.739918], [2.353532, 48.73996], [2.353502, 48.740013], [2.353472, 48.740078], [2.353175, 48.740967], [2.353093, 48.741184], [2.352953, 48.741459], [2.352809, 48.741711], [2.352809, 48.741711], [2.35264, 48.742027], [2.352621, 48.742081], [2.352619, 48.742123], [2.352633, 48.742168], [2.352657, 48.742207], [2.352733, 48.742275], [2.352792, 48.742306], [2.353075, 48.742405], [2.353207, 48.742474], [2.353242, 48.7425], [2.353271, 48.742538], [2.353295, 48.742592], [2.353298, 48.742683], [2.353278, 48.742733], [2.353237, 48.74279], [2.35187, 48.74432], [2.351837, 48.744366], [2.351819, 48.744411], [2.351815, 48.744453], [2.351821, 48.744495], [2.351847, 48.744556], [2.351921, 48.744629], [2.351966, 48.744659], [2.352026, 48.744694], [2.353071, 48.745102], [2.353154, 48.74514], [2.353291, 48.745232], [2.35337, 48.745327], [2.353407, 48.745392], [2.353434, 48.745468], [2.353485, 48.745739], [2.353485, 48.745857], [2.353461, 48.745914], [2.353421, 48.745975], [2.352896, 48.746574], [2.352896, 48.746574], [2.352433, 48.747093], [2.352358, 48.747215], [2.352349, 48.747246], [2.352347, 48.747314], [2.352372, 48.747387], [2.352593, 48.747692], [2.352643, 48.747746], [2.352719, 48.747799], [2.352827, 48.747849], [2.353266, 48.74802], [2.353358, 48.748066], [2.353439, 48.748119], [2.353528, 48.748203], [2.353591, 48.748302], [2.353812, 48.748959], [2.354025, 48.749561], [2.354142, 48.749786], [2.354419, 48.750202], [2.354419, 48.750202], [2.354631, 48.750534], [2.354659, 48.750587], [2.354673, 48.750648], [2.354671, 48.75071], [2.354648, 48.750763], [2.354615, 48.750816], [2.35428, 48.751076], [2.354135, 48.751213], [2.354073, 48.751339], [2.354069, 48.751411], [2.354094, 48.751503], [2.354125, 48.751556], [2.35422, 48.751652], [2.354725, 48.752041], [2.35485, 48.752167], [2.355018, 48.752369], [2.355172, 48.752502], [2.355386, 48.752663], [2.355386, 48.752663], [2.35599, 48.75312], [2.356041, 48.753147], [2.3562, 48.753212], [2.356323, 48.753242], [2.356449, 48.753265], [2.356573, 48.753277], [2.357445, 48.753284], [2.358336, 48.753258], [2.358672, 48.75322], [2.358981, 48.753166], [2.359367, 48.753082], [2.359626, 48.753006], [2.35971, 48.752972], [2.359864, 48.752895], [2.360621, 48.75248], [2.360715, 48.752438], [2.360796, 48.752415], [2.360974, 48.752388], [2.361104, 48.752384], [2.361234, 48.752396], [2.361377, 48.75243], [2.361478, 48.752472], [2.361598, 48.752541], [2.362118, 48.752899], [2.362118, 48.752899], [2.362328, 48.753044], [2.362425, 48.753105], [2.362528, 48.753151], [2.36267, 48.753193], [2.362768, 48.753208], [2.362923, 48.75322], [2.364513, 48.753284], [2.364653, 48.7533], [2.364944, 48.753338], [2.365287, 48.753407], [2.365669, 48.753513], [2.36598, 48.753635], [2.366241, 48.753761], [2.366465, 48.753891], [2.366726, 48.754074], [2.368144, 48.755096], [2.368263, 48.755192], [2.368347, 48.755276], [2.368421, 48.755402], [2.368443, 48.755478], [2.368456, 48.755558], [2.368383, 48.756828], [2.368383, 48.756828], [2.368308, 48.758289], [2.368312, 48.758499], [2.368347, 48.758831], [2.368352, 48.759098], [2.368325, 48.759506], [2.368312, 48.759552], [2.368292, 48.75959], [2.368228, 48.759651], [2.368155, 48.759693], [2.368068, 48.759724], [2.367939, 48.759735], [2.367821, 48.759727], [2.367013, 48.759613], [2.36619, 48.759586], [2.36619, 48.759586], [2.365852, 48.759583], [2.365644, 48.759602], [2.365471, 48.759647], [2.364726, 48.759869], [2.364603, 48.759926], [2.364563, 48.759953], [2.364515, 48.760006], [2.364486, 48.760059], [2.364478, 48.760109], [2.364492, 48.760189], [2.364504, 48.760216], [2.364561, 48.760284], [2.364717, 48.760437], [2.36528, 48.760986], [2.36686, 48.762501], [2.367129, 48.762753], [2.367507, 48.763065], [2.367825, 48.763371], [2.367825, 48.763371], [2.368171, 48.763702], [2.368248, 48.763794], [2.368279, 48.76384], [2.368308, 48.763939], [2.368313, 48.764], [2.368246, 48.765045], [2.368057, 48.768322], [2.368057, 48.768322], [2.367824, 48.772198], [2.367824, 48.772198], [2.367765, 48.773396], [2.36769, 48.774506], [2.367422, 48.779053], [2.367422, 48.779053], [2.367174, 48.783241], [2.367174, 48.783241], [2.36705, 48.785381], [2.367032, 48.785851], [2.367037, 48.786415], [2.367021, 48.786819], [2.367012, 48.786888], [2.366982, 48.787418]]}, "properties": {"id": "tram-7", "branchId": "tram-7::0", "termini": "Porte de l'Essonne - Villejuif - Louis Aragon", "source": "Ile-de-France Mobilites GTFS (data.iledefrance-mobilites.fr), Mobility License"}}, {"type": "Feature", "geometry": {"type": "Point", "coordinates": [2.371672327475938, 48.71448743246356]}, "properties": {"name": "Porte de l'Essonne"}}, {"type": "Feature", "geometry": {"type": "Point", "coordinates": [2.368322986536, 48.729571616306195]}, "properties": {"name": "Aéroport d'Orly"}}, {"type": "Feature", "geometry": {"type": "Point", "coordinates": [2.3715660843582294, 48.73349234197916]}, "properties": {"name": "Coeur d'Orly"}}, {"type": "Feature", "geometry": {"type": "Point", "coordinates": [2.369982657031674, 48.738511893495435]}, "properties": {"name": "Caroline Aigle (Orlyfret)"}}, {"type": "Feature", "geometry": {"type": "Point", "coordinates": [2.3595069186987048, 48.74002118038836]}, "properties": {"name": "Hélène Boucher (Orlytech)"}}, {"type": "Feature", "geometry": {"type": "Point", "coordinates": [2.352849598393902, 48.74172120277371]}, "properties": {"name": "La Fraternelle"}}, {"type": "Feature", "geometry": {"type": "Point", "coordinates": [2.352883938486683, 48.746632333280374]}, "properties": {"name": "Robert Schuman (Parc Silic Centre)"}}, {"type": "Feature", "geometry": {"type": "Point", "coordinates": [2.354444784134944, 48.75019355837689]}, "properties": {"name": "Saarinen"}}, {"type": "Feature", "geometry": {"type": "Point", "coordinates": [2.3553000637375106, 48.752527714710325]}, "properties": {"name": "Porte de Rungis"}}, {"type": "Feature", "geometry": {"type": "Point", "coordinates": [2.3620163305782853, 48.75278864475148]}, "properties": {"name": "Place de la Logistique"}}, {"type": "Feature", "geometry": {"type": "Point", "coordinates": [2.3684301777519883, 48.7566902914413]}, "properties": {"name": "La Belle Epine"}}, {"type": "Feature", "geometry": {"type": "Point", "coordinates": [2.366381339786971, 48.75962056877212]}, "properties": {"name": "Chevilly-Larue"}}, {"type": "Feature", "geometry": {"type": "Point", "coordinates": [2.3678192066888246, 48.76333382151934]}, "properties": {"name": "Auguste Perret (Cimetière Parisien)"}}, {"type": "Feature", "geometry": {"type": "Point", "coordinates": [2.3681004100826413, 48.768201183107806]}, "properties": {"name": "Bretagne"}}, {"type": "Feature", "geometry": {"type": "Point", "coordinates": [2.3678767059851387, 48.772067499844496]}, "properties": {"name": "Moulin Vert"}}, {"type": "Feature", "geometry": {"type": "Point", "coordinates": [2.367466444252223, 48.778972831519006]}, "properties": {"name": "Domaine Chérioux"}}, {"type": "Feature", "geometry": {"type": "Point", "coordinates": [2.3672374121860154, 48.78327079902779]}, "properties": {"name": "Lamartine"}}, {"type": "Feature", "geometry": {"type": "Point", "coordinates": [2.367011615613775, 48.78729894568862]}, "properties": {"name": "Villejuif - Louis Aragon"}}]}