{"type": "FeatureCollection", "features": [{"type": "Feature", "geometry": {"type": "LineString", "coordinates": [[2.295468, 48.955441], [2.296312, 48.955624], [2.296609, 48.955666], [2.296779, 48.955677], [2.301452, 48.955765], [2.302067, 48.955822], [2.302067, 48.955822], [2.30285, 48.955894], [2.303077, 48.955944], [2.303281, 48.956001], [2.303555, 48.956116], [2.303715, 48.956207], [2.304025, 48.956417], [2.304094, 48.956455], [2.304192, 48.956486], [2.304237, 48.956493], [2.30442, 48.956497], [2.304502, 48.956478], [2.304562, 48.956451], [2.307025, 48.955048], [2.307146, 48.954998], [2.307237, 48.954979], [2.307345, 48.954975], [2.307482, 48.954998], [2.307603, 48.955044], [2.307708, 48.955124], [2.307811, 48.95528], [2.307897, 48.955433], [2.307897, 48.955433], [2.308349, 48.956139], [2.308452, 48.95628], [2.308908, 48.956833], [2.309226, 48.957123], [2.309416, 48.957275], [2.309536, 48.95734], [2.309648, 48.957363], [2.309765, 48.957367], [2.309905, 48.95734], [2.309948, 48.957325], [2.310046, 48.95726], [2.31012, 48.957195], [2.311487, 48.955883], [2.311487, 48.955883], [2.312308, 48.955078], [2.312423, 48.954979], [2.313113, 48.954468], [2.315427, 48.95314], [2.315427, 48.95314], [2.3158, 48.952927], [2.315999, 48.952827], [2.316253, 48.952717], [2.316473, 48.952641], [2.319545, 48.951836], [2.321233, 48.951481], [2.321233, 48.951481], [2.329717, 48.949738], [2.329717, 48.949738], [2.332027, 48.949261], [2.337297, 48.948193], [2.338619, 48.947906], [2.339174, 48.947792], [2.339174, 48.947792], [2.344371, 48.946743], [2.345165, 48.946579], [2.345733, 48.946419], [2.347153, 48.946133], [2.347228, 48.946106], [2.347305, 48.946068], [2.347362, 48.946018], [2.347392, 48.945976], [2.347407, 48.945942], [2.347418, 48.945881], [2.347409, 48.945824], [2.34722, 48.945415], [2.34722, 48.945415], [2.34716, 48.945293], [2.347125, 48.945168], [2.347125, 48.945038], [2.347227, 48.944584], [2.347414, 48.943672], [2.347661, 48.942547], [2.347659, 48.942459], [2.347631, 48.942394], [2.347568, 48.942322], [2.347497, 48.942272], [2.347198, 48.942116], [2.347049, 48.941994], [2.346914, 48.941776], [2.346722, 48.941406], [2.34654, 48.941189], [2.346099, 48.940788], [2.345991, 48.940678], [2.345781, 48.940411], [2.345655, 48.940292], [2.345432, 48.940132], [2.345334, 48.940041], [2.345268, 48.939926], [2.345184, 48.939686], [2.345184, 48.939686], [2.345084, 48.9394], [2.345059, 48.939266], [2.345068, 48.939121], [2.345397, 48.937698], [2.345409, 48.937653], [2.34545, 48.93755], [2.345584, 48.937397], [2.346278, 48.936844], [2.346428, 48.93668], [2.346553, 48.936512], [2.346715, 48.936211], [2.347009, 48.935844], [2.347116, 48.935741], [2.347978, 48.935169], [2.347978, 48.935169], [2.34976, 48.93399], [2.350301, 48.933651], [2.351891, 48.932587], [2.352254, 48.932327], [2.352865, 48.931919], [2.352865, 48.931919], [2.353565, 48.931446], [2.354216, 48.93103], [2.35548, 48.930183], [2.355671, 48.930069], [2.355786, 48.930012], [2.355974, 48.929935], [2.35622, 48.929867], [2.356477, 48.929817], [2.35665, 48.929802], [2.356874, 48.929794], [2.357512, 48.929798]]}, "properties": {"id": "tram-8", "branchId": "tram-8::0", "termini": "Épinay - Orgemont - Saint-Denis - Porte de Paris", "source": "Ile-de-France Mobilites GTFS (data.iledefrance-mobilites.fr), Mobility License"}}, {"type": "Feature", "geometry": {"type": "LineString", "coordinates": [[2.34203, 48.95932], [2.341775, 48.958912], [2.341726, 48.958797], [2.34171, 48.958672], [2.341779, 48.957638], [2.341811, 48.957531], [2.34184, 48.957478], [2.341877, 48.957428], [2.341966, 48.95734], [2.342027, 48.957298], [2.343096, 48.956665], [2.343096, 48.956665], [2.3438, 48.956253], [2.343933, 48.956154], [2.344032, 48.956039], [2.344079, 48.955898], [2.344067, 48.955757], [2.343754, 48.954784], [2.343736, 48.954681], [2.343728, 48.954575], [2.343733, 48.954472], [2.343754, 48.954311], [2.343758, 48.954178], [2.34374, 48.954041], [2.343626, 48.953499], [2.343571, 48.953152], [2.343518, 48.95295], [2.343434, 48.952709], [2.343434, 48.952709], [2.342726, 48.950611], [2.34269, 48.95047], [2.34265, 48.950199], [2.342499, 48.949574], [2.342499, 48.949574], [2.34243, 48.949287], [2.342406, 48.949223], [2.342369, 48.949135], [2.342265, 48.948963], [2.342229, 48.948883], [2.342215, 48.948811], [2.342215, 48.948738], [2.34223, 48.948673], [2.342654, 48.947388], [2.342688, 48.947304], [2.342752, 48.947208], [2.342843, 48.947124], [2.342989, 48.947052], [2.343223, 48.94698], [2.345165, 48.946579], [2.345733, 48.946419], [2.347153, 48.946133], [2.347228, 48.946106], [2.347305, 48.946068], [2.347362, 48.946018], [2.347392, 48.945976], [2.347407, 48.945942], [2.347418, 48.945881], [2.347409, 48.945824], [2.34722, 48.945415], [2.34722, 48.945415], [2.34716, 48.945293], [2.347125, 48.945168], [2.347125, 48.945038], [2.347227, 48.944584], [2.347414, 48.943672], [2.347661, 48.942547], [2.347659, 48.942459], [2.347631, 48.942394], [2.347568, 48.942322], [2.347497, 48.942272], [2.347198, 48.942116], [2.347049, 48.941994], [2.346914, 48.941776], [2.346722, 48.941406], [2.34654, 48.941189], [2.346099, 48.940788], [2.345991, 48.940678], [2.345781, 48.940411], [2.345655, 48.940292], [2.345432, 48.940132], [2.345334, 48.940041], [2.345268, 48.939926], [2.345184, 48.939686], [2.345184, 48.939686], [2.345084, 48.9394], [2.345059, 48.939266], [2.345068, 48.939121], [2.345397, 48.937698], [2.345409, 48.937653], [2.34545, 48.93755], [2.345584, 48.937397], [2.346278, 48.936844], [2.346428, 48.93668], [2.346553, 48.936512], [2.346715, 48.936211], [2.347009, 48.935844], [2.347116, 48.935741], [2.347978, 48.935169], [2.347978, 48.935169], [2.34976, 48.93399], [2.350301, 48.933651], [2.351891, 48.932587], [2.352254, 48.932327], [2.352865, 48.931919], [2.352865, 48.931919], [2.353565, 48.931446], [2.354216, 48.93103], [2.35548, 48.930183], [2.355671, 48.930069], [2.355786, 48.930012], [2.355974, 48.929935], [2.35622, 48.929867], [2.356477, 48.929817], [2.35665, 48.929802], [2.356874, 48.929794], [2.357512, 48.929798]]}, "properties": {"id": "tram-8", "branchId": "tram-8::1", "termini": "Villetaneuse - Université - Saint-Denis - Porte de Paris", "source": "Ile-de-France Mobilites GTFS (data.iledefrance-mobilites.fr), Mobility License"}}, {"type": "Feature", "geometry": {"type": "Point", "coordinates": [2.2953781736331234, 48.95541719963809]}, "properties": {"name": "Épinay - Orgemont"}}, {"type": "Feature", "geometry": {"type": "Point", "coordinates": [2.3018601844901805, 48.95573389275546]}, "properties": {"name": "Épinay-sur-Seine - Gare"}}, {"type": "Feature", "geometry": {"type": "Point", "coordinates": [2.3079274852128253, 48.95540935753423]}, "properties": {"name": "Gilbert Bonnemaison"}}, {"type": "Feature", "geometry": {"type": "Point", "coordinates": [2.3114442040809027, 48.95588823426514]}, "properties": {"name": "Lacépède"}}, {"type": "Feature", "geometry": {"type": "Point", "coordinates": [2.315317073249133, 48.953176619462994]}, "properties": {"name": "Rose Bertin"}}, {"type": "Feature", "geometry": {"type": "Point", "coordinates": [2.321306841575554, 48.95143910339942]}, "properties": {"name": "Les Béatus"}}, {"type": "Feature", "geometry": {"type": "Point", "coordinates": [2.3298359704014917, 48.949688531186794]}, "properties": {"name": "Les Mobiles"}}, {"type": "Feature", "geometry": {"type": "Point", "coordinates": [2.33913133956827, 48.947761723568384]}, "properties": {"name": "Blumenthal"}}, {"type": "Feature", "geometry": {"type": "Point", "coordinates": [2.3472549019997713, 48.94559400828969]}, "properties": {"name": "Delaunay - Belleville"}}, {"type": "Feature", "geometry": {"type": "Point", "coordinates": [2.3451445619236657, 48.93971019310891]}, "properties": {"name": "Paul Éluard"}}, {"type": "Feature", "geometry": {"type": "Point", "coordinates": [2.3477395329422346, 48.93525489527047]}, "properties": {"name": "Saint-Denis - Gare"}}, {"type": "Feature", "geometry": {"type": "Point", "coordinates": [2.3526942374838447, 48.93198137103362]}, "properties": {"name": "Pierre de Geyter"}}, {"type": "Feature", "geometry": {"type": "Point", "coordinates": [2.3572533079864235, 48.92974869176176]}, "properties": {"name": "Saint-Denis - Porte de Paris"}}, {"type": "Feature", "geometry": {"type": "Point", "coordinates": [2.341975216299932, 48.95931503044353]}, "properties": {"name": "Villetaneuse - Université"}}, {"type": "Feature", "geometry": {"type": "Point", "coordinates": [2.3431292576788487, 48.95660556715761]}, "properties": {"name": "Pablo Neruda"}}, {"type": "Feature", "geometry": {"type": "Point", "coordinates": [2.343396442304727, 48.95274915719777]}, "properties": {"name": "Jean Vilar"}}, {"type": "Feature", "geometry": {"type": "Point", "coordinates": [2.3424532936156943, 48.94958753577555]}, "properties": {"name": "César"}}]}