{"type": "FeatureCollection", "features": [{"type": "Feature", "geometry": {"type": "LineString", "coordinates": [[2.217592, 48.923141], [2.217684, 48.922653], [2.217707, 48.922592], [2.217745, 48.922527], [2.217794, 48.922466], [2.21786, 48.922405], [2.221296, 48.91996], [2.222462, 48.919144], [2.223305, 48.918568], [2.224709, 48.917561], [2.224709, 48.917561], [2.229041, 48.914474], [2.229961, 48.913692], [2.229961, 48.913692], [2.23051, 48.913242], [2.234386, 48.910496], [2.234386, 48.910496], [2.236125, 48.909267], [2.236484, 48.909058], [2.2368, 48.908905], [2.237003, 48.908787], [2.237255, 48.908581], [2.238542, 48.907433], [2.238542, 48.907433], [2.238722, 48.907276], [2.238858, 48.907089], [2.238885, 48.907024], [2.238928, 48.906853], [2.239173, 48.905128], [2.239575, 48.902397], [2.239575, 48.902397], [2.239867, 48.900227], [2.23985, 48.899933], [2.23983, 48.899761], [2.239833, 48.899643], [2.240085, 48.897934], [2.240101, 48.897732], [2.240087, 48.897652], [2.240065, 48.897579], [2.239991, 48.897404], [2.239977, 48.897297], [2.23998, 48.897202], [2.240112, 48.896324], [2.240112, 48.896324], [2.240292, 48.895142], [2.240299, 48.894974], [2.240292, 48.894913], [2.240264, 48.894852], [2.240184, 48.894741], [2.2401, 48.894646], [2.23982, 48.894432], [2.239239, 48.894096], [2.238769, 48.893803], [2.238418, 48.893559], [2.238198, 48.893391], [2.237916, 48.893166], [2.23766, 48.892941], [2.237519, 48.892788], [2.237225, 48.892437], [2.237225, 48.892437], [2.237023, 48.892174], [2.23687, 48.891949], [2.236757, 48.891724], [2.236607, 48.891376], [2.23643, 48.891083], [2.236276, 48.890785], [2.235995, 48.890179], [2.235856, 48.88982], [2.235735, 48.889462], [2.235663, 48.889107], [2.235607, 48.888767], [2.235548, 48.888245], [2.235532, 48.887337], [2.235514, 48.887074], [2.235463, 48.886711], [2.235414, 48.886486], [2.235256, 48.885921], [2.234646, 48.884502], [2.234539, 48.884293], [2.234482, 48.88419], [2.234158, 48.88369], [2.234087, 48.883617], [2.233796, 48.883282], [2.233796, 48.883282], [2.233466, 48.882923], [2.233283, 48.882744], [2.233049, 48.882542], [2.232151, 48.88179], [2.231893, 48.881557], [2.230929, 48.880665], [2.230444, 48.880161], [2.229438, 48.879292], [2.228383, 48.878315], [2.226595, 48.876644], [2.22595, 48.876022], [2.22595, 48.876022], [2.224633, 48.874775], [2.222249, 48.872654], [2.221795, 48.872242], [2.221617, 48.872005], [2.221289, 48.871395], [2.22108, 48.870823], [2.221001, 48.870495], [2.220951, 48.870094], [2.22094, 48.869827], [2.221006, 48.869465], [2.221369, 48.868286], [2.221369, 48.868286], [2.221495, 48.867889], [2.221537, 48.867729], [2.221656, 48.86734], [2.221728, 48.867035], [2.221753, 48.866802], [2.221756, 48.866608], [2.221734, 48.866379], [2.221695, 48.866184], [2.221642, 48.865982], [2.221587, 48.86581], [2.221504, 48.86562], [2.220929, 48.864559], [2.220801, 48.864307], [2.220688, 48.864044], [2.220588, 48.863781], [2.220516, 48.86356], [2.220453, 48.863316], [2.220347, 48.862728], [2.220331, 48.862549], [2.220323, 48.862293], [2.220325, 48.862015], [2.220345, 48.861721], [2.220372, 48.861485], [2.220414, 48.861256], [2.220491, 48.860931], [2.220652, 48.860321], [2.220796, 48.859726], [2.220829, 48.859516], [2.220851, 48.859268], [2.22085, 48.859016], [2.220816, 48.858608], [2.220789, 48.858448], [2.22056, 48.85738], [2.22056, 48.85738], [2.220135, 48.855309], [2.220115, 48.855103], [2.220104, 48.854885], [2.220126, 48.854317], [2.220152, 48.854023], [2.220176, 48.853844], [2.220215, 48.853664], [2.220267, 48.853474], [2.220526, 48.852665], [2.220577, 48.852474], [2.220646, 48.852169], [2.220923, 48.850693], [2.221097, 48.850136], [2.221211, 48.849834], [2.221211, 48.849834], [2.222298, 48.846897], [2.22235, 48.846729], [2.222404, 48.846489], [2.222428, 48.84634], [2.222447, 48.846157], [2.222459, 48.845921], [2.222452, 48.845695], [2.22242, 48.845432], [2.222382, 48.845188], [2.22227, 48.844635], [2.222215, 48.844418], [2.221925, 48.843498], [2.221807, 48.843014], [2.221807, 48.843014], [2.221761, 48.842785], [2.22175, 48.842686], [2.221723, 48.841976], [2.221842, 48.840111], [2.221837, 48.839886], [2.221725, 48.839085], [2.221708, 48.838879], [2.221702, 48.83865], [2.221728, 48.838432], [2.221772, 48.838154], [2.22235, 48.835491], [2.222373, 48.835304], [2.222393, 48.834972], [2.222392, 48.833023], [2.222398, 48.83268], [2.222421, 48.832436], [2.222485, 48.832127], [2.222654, 48.83152], [2.222722, 48.831329], [2.222767, 48.831234], [2.222883, 48.831055], [2.222989, 48.830933], [2.223117, 48.830803], [2.223262, 48.830681], [2.223396, 48.830589], [2.223648, 48.830444], [2.223942, 48.830315], [2.224069, 48.830273], [2.224492, 48.830147], [2.224702, 48.830067], [2.22486, 48.829983], [2.224921, 48.829941], [2.225009, 48.829865], [2.225052, 48.829815], [2.225096, 48.829754], [2.225149, 48.829643], [2.225205, 48.829391], [2.225326, 48.828751], [2.225326, 48.828751], [2.225401, 48.828369], [2.225449, 48.828224], [2.225575, 48.827896], [2.22566, 48.827736], [2.225865, 48.827442], [2.22627, 48.826992], [2.226566, 48.826694], [2.227236, 48.826088], [2.227645, 48.825703], [2.228353, 48.825081], [2.228809, 48.824615], [2.229078, 48.824368], [2.229244, 48.824226], [2.230179, 48.823521], [2.230619, 48.823154], [2.230728, 48.82304], [2.231015, 48.822681], [2.231402, 48.822174], [2.231402, 48.822174], [2.23174, 48.821732], [2.23191, 48.82156], [2.232092, 48.821392], [2.232267, 48.821247], [2.232566, 48.821037], [2.23317, 48.820644], [2.234229, 48.819981], [2.234517, 48.819824], [2.234749, 48.819717], [2.235187, 48.819546], [2.23554, 48.819427], [2.235891, 48.819336], [2.236198, 48.819267], [2.236568, 48.819202], [2.236962, 48.819153], [2.237386, 48.819126], [2.23776, 48.81913], [2.23822, 48.819138], [2.238906, 48.819168], [2.239199, 48.819187], [2.239199, 48.819187], [2.242134, 48.81942], [2.242865, 48.819508], [2.24357, 48.81963], [2.243982, 48.819721], [2.245869, 48.820171], [2.247138, 48.820484], [2.249795, 48.821114], [2.251038, 48.821423], [2.251038, 48.821423], [2.252872, 48.821896], [2.253173, 48.821991], [2.253436, 48.822094], [2.253995, 48.82235], [2.254249, 48.822449], [2.254518, 48.822533], [2.256091, 48.822929], [2.256377, 48.823013], [2.256869, 48.823174], [2.257135, 48.82325], [2.257448, 48.823315], [2.258119, 48.823418], [2.258391, 48.823467], [2.258734, 48.823555], [2.258958, 48.823627], [2.259209, 48.823727], [2.25941, 48.823822], [2.259628, 48.82394], [2.25977, 48.824036], [2.259917, 48.824139], [2.260062, 48.824261], [2.260381, 48.824562], [2.260578, 48.82476], [2.260578, 48.82476], [2.260928, 48.825142], [2.26107, 48.825317], [2.261129, 48.825397], [2.261309, 48.825684], [2.261412, 48.825882], [2.261517, 48.82613], [2.261616, 48.826424], [2.262073, 48.8279], [2.262194, 48.828274], [2.262252, 48.828423], [2.262308, 48.828545], [2.262438, 48.828785], [2.262571, 48.828991], [2.263117, 48.829765], [2.263117, 48.829765], [2.263596, 48.830441], [2.264304, 48.831356], [2.264672, 48.831806], [2.26485, 48.831993], [2.265078, 48.832134], [2.265293, 48.832241], [2.26582, 48.832466], [2.26602, 48.832592], [2.266582, 48.833168], [2.267438, 48.834087], [2.267613, 48.834229], [2.267787, 48.834339], [2.267891, 48.834396], [2.268011, 48.83445], [2.268288, 48.834545], [2.268557, 48.83461], [2.268826, 48.834648], [2.269509, 48.834702], [2.270161, 48.834732], [2.270692, 48.834736], [2.271269, 48.834728], [2.271269, 48.834728], [2.272598, 48.834717], [2.273021, 48.834698], [2.273248, 48.834667], [2.27353, 48.834621], [2.274336, 48.834454], [2.274573, 48.834396], [2.274814, 48.834316], [2.275076, 48.834206], [2.275254, 48.834114], [2.275409, 48.834023], [2.27603, 48.833611], [2.276123, 48.833565], [2.277224, 48.833157], [2.277224, 48.833157], [2.277538, 48.833046], [2.277926, 48.832939], [2.278098, 48.832882], [2.280326, 48.832062], [2.28047, 48.832016], [2.280883, 48.831905], [2.28201, 48.831486], [2.28201, 48.831486], [2.282483, 48.831318], [2.282768, 48.831226], [2.283216, 48.831062], [2.283659, 48.830887], [2.284719, 48.830441], [2.284805, 48.830421], [2.28487, 48.830414], [2.284978, 48.830414], [2.285096, 48.830444], [2.285179, 48.830486], [2.286736, 48.83152], [2.28723, 48.831829]]}, "properties": {"id": "tram-2", "branchId": "tram-2::0", "termini": "Pont de Bezons - Porte de Versailles", "source": "Ile-de-France Mobilites GTFS (data.iledefrance-mobilites.fr), Mobility License"}}, {"type": "Feature", "geometry": {"type": "Point", "coordinates": [2.217520042522579, 48.92334205110835]}, "properties": {"name": "Pont de Bezons"}}, {"type": "Feature", "geometry": {"type": "Point", "coordinates": [2.224785553203926, 48.91748979096629]}, "properties": {"name": "Parc Pierre Lagravère"}}, {"type": "Feature", "geometry": {"type": "Point", "coordinates": [2.2298623604927506, 48.91375440154659]}, "properties": {"name": "Victor Basch"}}, {"type": "Feature", "geometry": {"type": "Point", "coordinates": [2.2340421678368707, 48.910660566492425]}, "properties": {"name": "Jacqueline Auriol"}}, {"type": "Feature", "geometry": {"type": "Point", "coordinates": [2.2383307423844765, 48.907558278449365]}, "properties": {"name": "Charlebourg"}}, {"type": "Feature", "geometry": {"type": "Point", "coordinates": [2.239494331449759, 48.9026193952111]}, "properties": {"name": "Les Fauvelles"}}, {"type": "Feature", "geometry": {"type": "Point", "coordinates": [2.2399884849947362, 48.89680388376041]}, "properties": {"name": "Faubourg de l'Arche"}}, {"type": "Feature", "geometry": {"type": "Point", "coordinates": [2.237383596838505, 48.8930550980173]}, "properties": {"name": "La Défense"}}, {"type": "Feature", "geometry": {"type": "Point", "coordinates": [2.233221865294192, 48.88299191277544]}, "properties": {"name": "Puteaux"}}, {"type": "Feature", "geometry": {"type": "Point", "coordinates": [2.2258920592837224, 48.87612770571695]}, "properties": {"name": "Belvédère"}}, {"type": "Feature", "geometry": {"type": "Point", "coordinates": [2.2213761180397262, 48.86811217143994]}, "properties": {"name": "Suresnes - Longchamp"}}, {"type": "Feature", "geometry": {"type": "Point", "coordinates": [2.220474910117483, 48.857278013470946]}, "properties": {"name": "Les Coteaux"}}, {"type": "Feature", "geometry": {"type": "Point", "coordinates": [2.221116114820213, 48.84994335348533]}, "properties": {"name": "Les Milons"}}, {"type": "Feature", "geometry": {"type": "Point", "coordinates": [2.22177794256949, 48.843040477407804]}, "properties": {"name": "Parc de Saint-Cloud"}}, {"type": "Feature", "geometry": {"type": "Point", "coordinates": [2.2252730995722283, 48.82882596459613]}, "properties": {"name": "Musée de Sèvres"}}, {"type": "Feature", "geometry": {"type": "Point", "coordinates": [2.231325036095582, 48.82211060754302]}, "properties": {"name": "Brimborion"}}, {"type": "Feature", "geometry": {"type": "Point", "coordinates": [2.238587341846867, 48.81913511485187]}, "properties": {"name": "Meudon-sur-Seine"}}, {"type": "Feature", "geometry": {"type": "Point", "coordinates": [2.2513836421244737, 48.82146439159181]}, "properties": {"name": "Les Moulineaux"}}, {"type": "Feature", "geometry": {"type": "Point", "coordinates": [2.260544985471807, 48.82470522680052]}, "properties": {"name": "Jacques-Henri Lartigue"}}, {"type": "Feature", "geometry": {"type": "Point", "coordinates": [2.2631035941137103, 48.82967662517859]}, "properties": {"name": "Issy - Val de Seine"}}, {"type": "Feature", "geometry": {"type": "Point", "coordinates": [2.271398029105086, 48.834665033908735]}, "properties": {"name": "Henri Farman"}}, {"type": "Feature", "geometry": {"type": "Point", "coordinates": [2.27681264536782, 48.833249898033536]}, "properties": {"name": "Suzanne Lenglen"}}, {"type": "Feature", "geometry": {"type": "Point", "coordinates": [2.2809892431392185, 48.83169217409569]}, "properties": {"name": "Porte d'Issy"}}, {"type": "Feature", "geometry": {"type": "Point", "coordinates": [2.2872126781717754, 48.83185533860844]}, "properties": {"name": "Porte de Versailles"}}]}