{"type": "FeatureCollection", "features": [{"type": "Feature", "geometry": {"type": "LineString", "coordinates": [[2.390551, 48.977257], [2.389877, 48.977665], [2.389703, 48.977734], [2.389537, 48.977779], [2.388816, 48.977917], [2.387738, 48.978085], [2.386822, 48.978264], [2.384988, 48.978542], [2.384988, 48.978542], [2.38017, 48.979294], [2.38017, 48.979294], [2.379791, 48.979347], [2.379675, 48.97934], [2.3796, 48.979324], [2.379564, 48.979305], [2.379523, 48.979275], [2.379487, 48.979233], [2.379463, 48.979179], [2.379364, 48.978882], [2.379088, 48.978199], [2.378574, 48.976707], [2.37854, 48.976643], [2.378505, 48.976604], [2.378409, 48.976555], [2.378328, 48.97654], [2.378242, 48.97654], [2.377942, 48.976608], [2.377271, 48.976715], [2.377271, 48.976715], [2.376871, 48.976776], [2.376561, 48.97681], [2.376246, 48.97686], [2.375489, 48.977001], [2.372017, 48.977539], [2.372017, 48.977539], [2.368578, 48.978069], [2.368451, 48.978069], [2.368346, 48.97805], [2.368279, 48.978031], [2.368199, 48.977993], [2.368123, 48.977932], [2.36807, 48.977867], [2.367722, 48.977184], [2.367053, 48.976089], [2.366286, 48.974651], [2.366029, 48.974133], [2.365995, 48.974037], [2.365985, 48.973988], [2.365987, 48.973888], [2.366071, 48.97348], [2.366071, 48.97348], [2.366296, 48.972404], [2.366311, 48.972286], [2.366315, 48.972107], [2.366302, 48.971996], [2.366268, 48.97184], [2.365935, 48.970726], [2.365935, 48.970726], [2.365035, 48.967747], [2.364974, 48.967583], [2.364923, 48.96748], [2.364792, 48.967285], [2.363866, 48.966145], [2.363765, 48.966042], [2.362882, 48.96529], [2.362882, 48.96529], [2.361692, 48.964268], [2.361572, 48.964169], [2.361448, 48.964085], [2.361339, 48.964016], [2.361206, 48.963947], [2.361034, 48.963871], [2.360045, 48.963448], [2.360045, 48.963448], [2.359753, 48.963322], [2.359669, 48.96328], [2.35956, 48.9632], [2.359463, 48.963089], [2.359236, 48.962738], [2.35916, 48.962597], [2.359138, 48.962528], [2.359117, 48.962421], [2.358708, 48.959007], [2.358708, 48.959007], [2.358285, 48.955441], [2.358285, 48.955441], [2.357948, 48.952545], [2.357948, 48.952545], [2.357471, 48.948441], [2.357421, 48.948059], [2.357421, 48.948059], [2.35735, 48.94751], [2.357274, 48.947163], [2.357228, 48.946903], [2.357146, 48.946129], [2.356976, 48.944702], [2.356976, 48.944702], [2.356944, 48.944416], [2.356929, 48.944016], [2.356912, 48.943844], [2.356699, 48.94202], [2.356699, 48.94202], [2.356412, 48.939575], [2.356391, 48.939491], [2.356331, 48.939327], [2.356307, 48.939228], [2.356262, 48.93885]]}, "properties": {"id": "tram-5", "branchId": "tram-5::0", "termini": "Garges - Sarcelles - Marché de Saint-Denis", "source": "Ile-de-France Mobilites GTFS (data.iledefrance-mobilites.fr), Mobility License"}}, {"type": "Feature", "geometry": {"type": "Point", "coordinates": [2.3906824255995547, 48.97717984665593]}, "properties": {"name": "Garges - Sarcelles"}}, {"type": "Feature", "geometry": {"type": "Point", "coordinates": [2.385065101404375, 48.978563000308895]}, "properties": {"name": "Lochères"}}, {"type": "Feature", "geometry": {"type": "Point", "coordinates": [2.380247523132252, 48.979302567383094]}, "properties": {"name": "Paul Valéry"}}, {"type": "Feature", "geometry": {"type": "Point", "coordinates": [2.377478440264173, 48.9766714162375]}, "properties": {"name": "Les Flanades"}}, {"type": "Feature", "geometry": {"type": "Point", "coordinates": [2.3722084084835706, 48.97755219236446]}, "properties": {"name": "Les Cholettes"}}, {"type": "Feature", "geometry": {"type": "Point", "coordinates": [2.3659861231439723, 48.973607721805635]}, "properties": {"name": "Butte Pinson (Parc Régional)"}}, {"type": "Feature", "geometry": {"type": "Point", "coordinates": [2.3659376221571997, 48.97086473970564]}, "properties": {"name": "Jacques Prévert"}}, {"type": "Feature", "geometry": {"type": "Point", "coordinates": [2.3629312701804097, 48.965399304705166]}, "properties": {"name": "Alcide d'Orbigny"}}, {"type": "Feature", "geometry": {"type": "Point", "coordinates": [2.3601952566268714, 48.96354125320171]}, "properties": {"name": "Mairie de Pierrefitte"}}, {"type": "Feature", "geometry": {"type": "Point", "coordinates": [2.358692660794154, 48.959135825225516]}, "properties": {"name": "Suzanne Valadon"}}, {"type": "Feature", "geometry": {"type": "Point", "coordinates": [2.358272439968033, 48.95556348483242]}, "properties": {"name": "Joncherolles"}}, {"type": "Feature", "geometry": {"type": "Point", "coordinates": [2.357939191024479, 48.95269302854845]}, "properties": {"name": "Petit Pierrefitte"}}, {"type": "Feature", "geometry": {"type": "Point", "coordinates": [2.3573939918117484, 48.94819374051071]}, "properties": {"name": "Guynemer"}}, {"type": "Feature", "geometry": {"type": "Point", "coordinates": [2.356944088576183, 48.94482803299838]}, "properties": {"name": "Roger Semât"}}, {"type": "Feature", "geometry": {"type": "Point", "coordinates": [2.356636169972587, 48.94212854286052]}, "properties": {"name": "Baudelaire"}}, {"type": "Feature", "geometry": {"type": "Point", "coordinates": [2.3562931195300902, 48.93896122921449]}, "properties": {"name": "Marché de Saint-Denis"}}]}