{"type": "FeatureCollection", "features": [{"type": "Feature", "geometry": {"type": "LineString", "coordinates": [[2.409656, 48.847378], [2.410684, 48.847282], [2.410855, 48.847286], [2.410952, 48.847313], [2.411051, 48.847359], [2.411122, 48.84742], [2.411168, 48.8475], [2.41138, 48.849026], [2.411387, 48.849194], [2.411368, 48.849419], [2.411041, 48.851303], [2.411027, 48.851341], [2.41092, 48.851959], [2.410839, 48.852581], [2.410769, 48.852985], [2.410769, 48.852985], [2.410638, 48.853706], [2.410532, 48.85413], [2.409915, 48.85751], [2.409714, 48.8587], [2.409714, 48.8587], [2.409243, 48.861446], [2.409132, 48.86203], [2.409076, 48.862404], [2.408858, 48.863441], [2.408858, 48.863441], [2.408756, 48.863956], [2.408744, 48.864136], [2.408753, 48.86433], [2.40901, 48.867523], [2.40901, 48.867523], [2.409038, 48.867939], [2.409029, 48.868279], [2.408823, 48.87093], [2.408689, 48.871799], [2.408689, 48.871799], [2.408484, 48.873299], [2.408447, 48.873505], [2.408385, 48.873714], [2.408154, 48.874371], [2.407879, 48.874954], [2.407665, 48.87537], [2.40734, 48.876053], [2.407029, 48.876637], [2.407029, 48.876637], [2.406693, 48.877224], [2.406566, 48.877419], [2.406475, 48.877529], [2.406398, 48.877598], [2.406307, 48.877663], [2.406194, 48.877728], [2.406075, 48.877773], [2.40588, 48.877831], [2.402497, 48.878479], [2.402269, 48.878536], [2.402131, 48.87859], [2.402049, 48.878628], [2.401915, 48.878712], [2.401849, 48.878761], [2.401726, 48.878883], [2.401253, 48.879456], [2.401253, 48.879456], [2.400792, 48.880039], [2.400291, 48.880653], [2.400177, 48.880821], [2.400149, 48.880928], [2.400168, 48.881046], [2.400253, 48.881203], [2.40058, 48.881531], [2.400682, 48.881672], [2.400741, 48.881844], [2.400738, 48.881981], [2.400701, 48.882111], [2.400636, 48.882225], [2.400497, 48.882366], [2.400354, 48.882469], [2.400203, 48.882553], [2.399905, 48.882675], [2.399611, 48.882755], [2.399422, 48.882786], [2.398348, 48.882896], [2.398115, 48.882942], [2.397943, 48.882996], [2.397721, 48.883087], [2.397538, 48.883202], [2.397389, 48.883327], [2.397313, 48.883411], [2.397248, 48.883499], [2.397201, 48.883591], [2.396949, 48.884251], [2.396873, 48.884472], [2.396826, 48.884678], [2.396772, 48.885025], [2.396772, 48.885025], [2.39652, 48.886715], [2.396462, 48.887062], [2.396396, 48.887337], [2.396219, 48.887959], [2.396149, 48.888184], [2.396105, 48.888287], [2.396025, 48.888386], [2.395872, 48.888542], [2.395823, 48.888622], [2.395707, 48.889015], [2.395707, 48.889015], [2.395627, 48.889294], [2.395599, 48.889427], [2.3956, 48.889465], [2.395619, 48.889538], [2.395655, 48.889606], [2.395679, 48.889633], [2.39579, 48.889721], [2.39587, 48.889763], [2.39675, 48.890003], [2.3981, 48.890358], [2.398268, 48.890419], [2.398346, 48.890465], [2.398413, 48.890514], [2.398505, 48.890621], [2.398538, 48.890694], [2.398554, 48.890759], [2.398552, 48.890831], [2.398541, 48.890892], [2.397769, 48.893856], [2.397769, 48.893856], [2.397654, 48.894283], [2.397578, 48.894474], [2.397517, 48.894588], [2.397203, 48.895168], [2.396347, 48.896656], [2.395934, 48.897316], [2.395888, 48.897366], [2.395798, 48.897423], [2.395714, 48.897453], [2.39564, 48.897469], [2.395493, 48.897472], [2.394983, 48.897446], [2.394983, 48.897446], [2.393428, 48.897358], [2.393251, 48.897339], [2.393093, 48.897297], [2.392946, 48.897224], [2.392858, 48.897163], [2.392749, 48.897068], [2.392661, 48.897011], [2.392579, 48.89698], [2.392497, 48.896961], [2.392379, 48.89695], [2.392293, 48.896961], [2.392167, 48.896984], [2.391788, 48.897102], [2.391331, 48.897209], [2.390705, 48.897312], [2.39043, 48.897343], [2.389722, 48.897388], [2.389059, 48.897423], [2.386561, 48.897446], [2.386561, 48.897446], [2.385625, 48.897446], [2.385456, 48.897415], [2.385346, 48.897377], [2.385278, 48.897339], [2.38517, 48.897251], [2.384145, 48.896309], [2.384006, 48.896198], [2.383916, 48.89616], [2.383791, 48.896126], [2.383681, 48.896118], [2.383545, 48.89613], [2.383445, 48.89616], [2.383364, 48.896194], [2.383258, 48.896278], [2.38322, 48.896328], [2.382789, 48.897007], [2.382535, 48.897381], [2.381826, 48.898525], [2.381776, 48.898582], [2.381714, 48.898636], [2.381598, 48.898701], [2.381511, 48.898731], [2.3814, 48.898754], [2.381241, 48.898762], [2.380504, 48.898746], [2.380504, 48.898746], [2.37556, 48.898651], [2.375365, 48.898643], [2.375221, 48.898632], [2.375125, 48.898613], [2.374977, 48.898552], [2.374921, 48.898518], [2.374841, 48.898453], [2.374707, 48.898232], [2.374478, 48.8978], [2.374411, 48.897713], [2.374351, 48.897663], [2.374293, 48.897625], [2.37423, 48.897598], [2.374146, 48.897575], [2.374013, 48.897564], [2.37338, 48.897568], [2.37338, 48.897568], [2.371515, 48.897591], [2.370923, 48.897617], [2.370567, 48.897648], [2.370468, 48.897694], [2.370401, 48.897743], [2.370372, 48.897774], [2.370327, 48.897842], [2.370308, 48.897881], [2.370295, 48.897938], [2.37028, 48.898228], [2.370265, 48.898338], [2.370235, 48.898411], [2.370191, 48.898464], [2.370115, 48.898525], [2.370068, 48.898552], [2.369973, 48.89859], [2.369887, 48.898613], [2.369798, 48.898621], [2.369048, 48.898613], [2.369048, 48.898613], [2.363637, 48.898502], [2.363637, 48.898502], [2.362175, 48.898472], [2.360186, 48.898415], [2.359607, 48.898403], [2.359052, 48.898411], [2.358437, 48.898399], [2.358437, 48.898399], [2.356606, 48.898373], [2.355957, 48.898396], [2.355633, 48.898415], [2.355245, 48.898422], [2.351402, 48.898342], [2.351402, 48.898342], [2.350395, 48.898319], [2.34867, 48.898239], [2.347171, 48.898205], [2.346544, 48.89817], [2.345074, 48.898056], [2.345074, 48.898056], [2.344418, 48.898003], [2.344034, 48.897976], [2.342419, 48.897934], [2.338239, 48.897846], [2.338239, 48.897846], [2.329764, 48.897671], [2.329764, 48.897671], [2.32493, 48.897564], [2.32493, 48.897564], [2.322568, 48.897522], [2.322186, 48.897491], [2.321925, 48.897453], [2.321707, 48.897404], [2.321425, 48.897324], [2.318766, 48.896309], [2.318766, 48.896309], [2.316853, 48.89558], [2.316284, 48.895374], [2.31547, 48.895111], [2.313933, 48.894535], [2.313933, 48.894535], [2.31298, 48.894165], [2.312375, 48.893902], [2.31048, 48.893185], [2.310189, 48.893055], [2.309364, 48.892666], [2.308481, 48.892258], [2.306966, 48.891541], [2.306381, 48.891251], [2.302973, 48.889614], [2.302973, 48.889614], [2.301268, 48.888798], [2.298086, 48.887291], [2.29798, 48.887249], [2.297821, 48.887218], [2.297722, 48.887215], [2.2976, 48.887226], [2.297483, 48.887257], [2.29681, 48.887455], [2.29681, 48.887455], [2.295784, 48.887753], [2.295656, 48.887779], [2.295495, 48.887794], [2.295381, 48.887794], [2.295229, 48.887779], [2.29512, 48.887756], [2.294981, 48.887711], [2.294798, 48.887623], [2.292099, 48.885967], [2.292099, 48.885967], [2.289599, 48.884415], [2.289069, 48.884106], [2.288028, 48.883453], [2.288028, 48.883453], [2.287376, 48.883045], [2.286853, 48.882702], [2.286296, 48.882351], [2.286155, 48.882252], [2.286065, 48.882168], [2.285999, 48.88208], [2.285485, 48.881168], [2.285485, 48.881168], [2.285244, 48.880737], [2.285144, 48.880539], [2.28421, 48.878407], [2.284148, 48.8783], [2.283879, 48.87793], [2.283879, 48.87793], [2.283401, 48.877281], [2.283289, 48.87714], [2.283158, 48.876995], [2.283001, 48.876842], [2.282825, 48.876698], [2.282638, 48.87656], [2.282433, 48.876431], [2.282196, 48.876301], [2.282053, 48.876232], [2.281807, 48.876129], [2.281554, 48.876038], [2.28061, 48.87574], [2.280423, 48.875675], [2.278877, 48.87505], [2.278725, 48.874973], [2.27865, 48.874924], [2.278231, 48.874573], [2.278231, 48.874573], [2.276163, 48.872803], [2.276072, 48.872711], [2.275996, 48.872601], [2.275963, 48.87252], [2.275947, 48.872444], [2.275943, 48.872356], [2.275981, 48.871525], [2.275965, 48.871441], [2.275946, 48.871403], [2.275893, 48.871334], [2.275858, 48.8713], [2.275763, 48.871239], [2.275398, 48.871098], [2.27528, 48.871037], [2.27518, 48.870953], [2.274687, 48.870296]]}, "properties": {"id": "tram-3b", "branchId": "tram-3b::0", "termini": "Porte de Vincennes - Porte Dauphine (Avenue Foch)", "source": "Ile-de-France Mobilites GTFS (data.iledefrance-mobilites.fr), Mobility License"}}, {"type": "Feature", "geometry": {"type": "Point", "coordinates": [2.4096294961774425, 48.847325703571016]}, "properties": {"name": "Porte de Vincennes"}}, {"type": "Feature", "geometry": {"type": "Point", "coordinates": [2.410819038635312, 48.85299747973053]}, "properties": {"name": "Porte de Montreuil"}}, {"type": "Feature", "geometry": {"type": "Point", "coordinates": [2.4097457105651214, 48.858721027828636]}, "properties": {"name": "Marie de Miribel"}}, {"type": "Feature", "geometry": {"type": "Point", "coordinates": [2.408875014954352, 48.86338431754405]}, "properties": {"name": "Porte de Bagnolet"}}, {"type": "Feature", "geometry": {"type": "Point", "coordinates": [2.4090192175057994, 48.86749500857692]}, "properties": {"name": "Séverine"}}, {"type": "Feature", "geometry": {"type": "Point", "coordinates": [2.408738694818512, 48.87179244694016]}, "properties": {"name": "Adrienne Bolland"}}, {"type": "Feature", "geometry": {"type": "Point", "coordinates": [2.407046599200534, 48.876721408971456]}, "properties": {"name": "Porte des Lilas"}}, {"type": "Feature", "geometry": {"type": "Point", "coordinates": [2.4012745460995935, 48.87949858689952]}, "properties": {"name": "Hôpital Robert Debré"}}, {"type": "Feature", "geometry": {"type": "Point", "coordinates": [2.396819678860734, 48.88505204731925]}, "properties": {"name": "Butte du Chapeau Rouge"}}, {"type": "Feature", "geometry": {"type": "Point", "coordinates": [2.3957504466943305, 48.88905763403042]}, "properties": {"name": "Porte de Pantin - Parc de la Villette"}}, {"type": "Feature", "geometry": {"type": "Point", "coordinates": [2.397794479232845, 48.89391525883582]}, "properties": {"name": "Delphine Seyrig"}}, {"type": "Feature", "geometry": {"type": "Point", "coordinates": [2.3950936519984656, 48.89746293559589]}, "properties": {"name": "Ella Fitzgerald"}}, {"type": "Feature", "geometry": {"type": "Point", "coordinates": [2.3864592292211495, 48.89749095730542]}, "properties": {"name": "Porte de la Villette (Cité des Sciences et de l'industrie)"}}, {"type": "Feature", "geometry": {"type": "Point", "coordinates": [2.380442597848103, 48.898754995770666]}, "properties": {"name": "Canal Saint-Denis"}}, {"type": "Feature", "geometry": {"type": "Point", "coordinates": [2.373377140155362, 48.89760308551223]}, "properties": {"name": "Rosa Parks"}}, {"type": "Feature", "geometry": {"type": "Point", "coordinates": [2.368890634791775, 48.89864071936045]}, "properties": {"name": "Porte d'Aubervilliers"}}, {"type": "Feature", "geometry": {"type": "Point", "coordinates": [2.363613279976056, 48.8985228616988]}, "properties": {"name": "Colette Besson"}}, {"type": "Feature", "geometry": {"type": "Point", "coordinates": [2.3583900631505386, 48.898441034062756]}, "properties": {"name": "Porte de la Chapelle"}}, {"type": "Feature", "geometry": {"type": "Point", "coordinates": [2.3516934796371, 48.89837799137393]}, "properties": {"name": "Diane Arbus - Porte des Poissonniers"}}, {"type": "Feature", "geometry": {"type": "Point", "coordinates": [2.3450545241806258, 48.89807207348968]}, "properties": {"name": "Porte de Clignancourt"}}, {"type": "Feature", "geometry": {"type": "Point", "coordinates": [2.3381825237286495, 48.897863424530414]}, "properties": {"name": "Angélique Compoint - Porte de Montmartre"}}, {"type": "Feature", "geometry": {"type": "Point", "coordinates": [2.3295638459854024, 48.89771656108591]}, "properties": {"name": "Porte de Saint-Ouen"}}, {"type": "Feature", "geometry": {"type": "Point", "coordinates": [2.3248455273300745, 48.897627101917976]}, "properties": {"name": "Epinettes - Pouchet"}}, {"type": "Feature", "geometry": {"type": "Point", "coordinates": [2.318697253843428, 48.89632423964413]}, "properties": {"name": "Honoré De Balzac"}}, {"type": "Feature", "geometry": {"type": "Point", "coordinates": [2.3141767587052646, 48.894688648692544]}, "properties": {"name": "Porte de Clichy - Tribunal de Paris"}}, {"type": "Feature", "geometry": {"type": "Point", "coordinates": [2.3030324129038307, 48.88966901512059]}, "properties": {"name": "Marguerite Long"}}, {"type": "Feature", "geometry": {"type": "Point", "coordinates": [2.2968164352852605, 48.88742931300661]}, "properties": {"name": "Square Sainte-Odile"}}, {"type": "Feature", "geometry": {"type": "Point", "coordinates": [2.291994963614582, 48.88597096158269]}, "properties": {"name": "Porte de Champerret"}}, {"type": "Feature", "geometry": {"type": "Point", "coordinates": [2.288453177914627, 48.88369263626842]}, "properties": {"name": "Thérèse Pierre"}}, {"type": "Feature", "geometry": {"type": "Point", "coordinates": [2.285459684787077, 48.88122861239746]}, "properties": {"name": "Anny Flore"}}, {"type": "Feature", "geometry": {"type": "Point", "coordinates": [2.2837326845388546, 48.87790872414125]}, "properties": {"name": "Porte Maillot - Palais des Congrès"}}, {"type": "Feature", "geometry": {"type": "Point", "coordinates": [2.2780670919239996, 48.87448416999379]}, "properties": {"name": "Anna de Noailles"}}, {"type": "Feature", "geometry": {"type": "Point", "coordinates": [2.2746344140069596, 48.87034441363534]}, "properties": {"name": "Porte Dauphine (Avenue Foch)"}}]}