{"type": "FeatureCollection", "features": [{"type": "Feature", "geometry": {"type": "LineString", "coordinates": [[2.169002, 48.805573], [2.169133, 48.805302], [2.169183, 48.805161], [2.169874, 48.80249], [2.169925, 48.802345], [2.16999, 48.802204], [2.170069, 48.802063], [2.170161, 48.801929], [2.170266, 48.8018], [2.170385, 48.801674], [2.170515, 48.801552], [2.170657, 48.801441], [2.170937, 48.801243], [2.170937, 48.801243], [2.171254, 48.801018], [2.171394, 48.800903], [2.171523, 48.800785], [2.17162, 48.800682], [2.174968, 48.796734], [2.178025, 48.793575], [2.179214, 48.792313], [2.179339, 48.792168], [2.179495, 48.791954], [2.179638, 48.791718], [2.179749, 48.791489], [2.179837, 48.791248], [2.179879, 48.791096], [2.17991, 48.790943], [2.179928, 48.790813], [2.179943, 48.790558], [2.179939, 48.790428], [2.179915, 48.790199], [2.179862, 48.789948], [2.179708, 48.789513], [2.179417, 48.788773], [2.179366, 48.788593], [2.179338, 48.788403], [2.179338, 48.788216], [2.179357, 48.78804], [2.179579, 48.786369], [2.179621, 48.78603], [2.179623, 48.785889], [2.179598, 48.785782], [2.179556, 48.78569], [2.179467, 48.785572], [2.179401, 48.785511], [2.179344, 48.785465], [2.179232, 48.785389], [2.178669, 48.785072], [2.178669, 48.785072], [2.177129, 48.784176], [2.176959, 48.784061], [2.176856, 48.783943], [2.176825, 48.783867], [2.176818, 48.783752], [2.176831, 48.783691], [2.176869, 48.783611], [2.176914, 48.78355], [2.176985, 48.783485], [2.177459, 48.783123], [2.17841, 48.782406], [2.178622, 48.782288], [2.1789, 48.782211], [2.180677, 48.781944], [2.180677, 48.781944], [2.181484, 48.781815], [2.181811, 48.781731], [2.182214, 48.781616], [2.182449, 48.781559], [2.18319, 48.781441], [2.188846, 48.78059], [2.189183, 48.780556], [2.189595, 48.780525], [2.19047, 48.780506], [2.191605, 48.78043], [2.191605, 48.78043], [2.196741, 48.78006], [2.196741, 48.78006], [2.204101, 48.779522], [2.204329, 48.779514], [2.204527, 48.779526], [2.204813, 48.779587], [2.20773, 48.780796], [2.209248, 48.781437], [2.209248, 48.781437], [2.212586, 48.782825], [2.214614, 48.783688], [2.214614, 48.783688], [2.2156, 48.784088], [2.217679, 48.784969], [2.217828, 48.785019], [2.21796, 48.785057], [2.218081, 48.785076], [2.2182, 48.785084], [2.218332, 48.78508], [2.220334, 48.784935], [2.220334, 48.784935], [2.221205, 48.784885], [2.221329, 48.784855], [2.22222, 48.784508], [2.222469, 48.784428], [2.222739, 48.78437], [2.22371, 48.784187], [2.22391, 48.784157], [2.224743, 48.784069], [2.224805, 48.784058], [2.224875, 48.784027], [2.224991, 48.783951], [2.225291, 48.783489], [2.225291, 48.783489], [2.225665, 48.782921], [2.226155, 48.782299], [2.226264, 48.782173], [2.226424, 48.782055], [2.226611, 48.781975], [2.226765, 48.781933], [2.226903, 48.781914], [2.227066, 48.78191], [2.227203, 48.781921], [2.227422, 48.781971], [2.227718, 48.782082], [2.227951, 48.782181], [2.228189, 48.782291], [2.229324, 48.782944], [2.229611, 48.783077], [2.229904, 48.783188], [2.230188, 48.783272], [2.231295, 48.783554], [2.231295, 48.783554], [2.233357, 48.784126], [2.234312, 48.784359], [2.234584, 48.784439], [2.234871, 48.784531], [2.235178, 48.784615], [2.235398, 48.784664], [2.235911, 48.784752], [2.236371, 48.784824], [2.237282, 48.784904], [2.237282, 48.784904], [2.237632, 48.784927], [2.237735, 48.784912], [2.237822, 48.78487], [2.237884, 48.784809], [2.237919, 48.784721], [2.237956, 48.784519], [2.238368, 48.782982], [2.238636, 48.781921], [2.238877, 48.781021], [2.238967, 48.780746], [2.239005, 48.780659], [2.23905, 48.780609], [2.239106, 48.780575], [2.239148, 48.780556], [2.239232, 48.780533], [2.239372, 48.780533], [2.239493, 48.780567], [2.240045, 48.780807], [2.240045, 48.780807], [2.240947, 48.781193], [2.247193, 48.783764], [2.247193, 48.783764], [2.247615, 48.783939], [2.247882, 48.784027], [2.248259, 48.78413], [2.248546, 48.784237], [2.249822, 48.784763], [2.251005, 48.78524], [2.25194, 48.78566], [2.254743, 48.786797], [2.254743, 48.786797], [2.25514, 48.786957], [2.256156, 48.787338], [2.257369, 48.787838], [2.261755, 48.789619], [2.262893, 48.790115], [2.26352, 48.790375], [2.26352, 48.790375], [2.26427, 48.790672], [2.264759, 48.790855], [2.265451, 48.791138], [2.268525, 48.792362], [2.269056, 48.79258], [2.269582, 48.792824], [2.270694, 48.793362], [2.271191, 48.79361], [2.272772, 48.794521], [2.272772, 48.794521], [2.274168, 48.795334], [2.275535, 48.796093], [2.279045, 48.798138], [2.280221, 48.798824], [2.280806, 48.799194], [2.281345, 48.799519], [2.282104, 48.799961], [2.282104, 48.799961], [2.283414, 48.800724], [2.283783, 48.800926], [2.285021, 48.801678], [2.288094, 48.803608], [2.288672, 48.80394], [2.289221, 48.804295], [2.289221, 48.804295], [2.291233, 48.805557], [2.292206, 48.80611], [2.293673, 48.806915], [2.294198, 48.807213], [2.294198, 48.807213], [2.296414, 48.808483], [2.2982, 48.809525], [2.298358, 48.80965], [2.299465, 48.810692], [2.299554, 48.810753], [2.29964, 48.810799], [2.299737, 48.810814], [2.299904, 48.810799], [2.300033, 48.810745], [2.300515, 48.810513]]}, "properties": {"id": "tram-6", "branchId": "tram-6::0", "termini": "Viroflay - Rive Droite - Châtillon - Montrouge", "source": "Ile-de-France Mobilites GTFS (data.iledefrance-mobilites.fr), Mobility License"}}, {"type": "Feature", "geometry": {"type": "Point", "coordinates": [2.1686748606512247, 48.80561009622073]}, "properties": {"name": "Viroflay - Rive Droite"}}, {"type": "Feature", "geometry": {"type": "Point", "coordinates": [2.1711991185385857, 48.80099564654413]}, "properties": {"name": "Viroflay - Rive Gauche"}}, {"type": "Feature", "geometry": {"type": "Point", "coordinates": [2.1788820103815865, 48.78517390333494]}, "properties": {"name": "Robert Wagner"}}, {"type": "Feature", "geometry": {"type": "Point", "coordinates": [2.1804982309435825, 48.78192907052959]}, "properties": {"name": "L'Onde (Maison des Arts)"}}, {"type": "Feature", "geometry": {"type": "Point", "coordinates": [2.1913961992214706, 48.78041133277371]}, "properties": {"name": "Mairie de Vélizy"}}, {"type": "Feature", "geometry": {"type": "Point", "coordinates": [2.1965056630980224, 48.78003206639097]}, "properties": {"name": "Louvois"}}, {"type": "Feature", "geometry": {"type": "Point", "coordinates": [2.2091153745461254, 48.78134841711339]}, "properties": {"name": "Inovel Parc Nord"}}, {"type": "Feature", "geometry": {"type": "Point", "coordinates": [2.214444234350852, 48.783569174000206]}, "properties": {"name": "Dewoitine"}}, {"type": "Feature", "geometry": {"type": "Point", "coordinates": [2.2199908686470313, 48.78490967437756]}, "properties": {"name": "Vélizy 2"}}, {"type": "Feature", "geometry": {"type": "Point", "coordinates": [2.2251829010480453, 48.78356733886981]}, "properties": {"name": "Meudon-la-Forêt"}}, {"type": "Feature", "geometry": {"type": "Point", "coordinates": [2.2305618235735856, 48.783377242510845]}, "properties": {"name": "Georges Millandy"}}, {"type": "Feature", "geometry": {"type": "Point", "coordinates": [2.237100368305561, 48.784858242636766]}, "properties": {"name": "Georges Pompidou"}}, {"type": "Feature", "geometry": {"type": "Point", "coordinates": [2.2400048759245865, 48.78074840684925]}, "properties": {"name": "Pavé Blanc"}}, {"type": "Feature", "geometry": {"type": "Point", "coordinates": [2.2470398600557604, 48.78366210243149]}, "properties": {"name": "Mail de la Plaine"}}, {"type": "Feature", "geometry": {"type": "Point", "coordinates": [2.254577527895755, 48.78669543253745]}, "properties": {"name": "Hôpital Béclère"}}, {"type": "Feature", "geometry": {"type": "Point", "coordinates": [2.2633606463464826, 48.790275605481305]}, "properties": {"name": "Soleil Levant"}}, {"type": "Feature", "geometry": {"type": "Point", "coordinates": [2.272708519795419, 48.79444316830182]}, "properties": {"name": "Division Leclerc"}}, {"type": "Feature", "geometry": {"type": "Point", "coordinates": [2.281986227494856, 48.79985972577238]}, "properties": {"name": "Parc André Malraux"}}, {"type": "Feature", "geometry": {"type": "Point", "coordinates": [2.289075082231418, 48.80417425521201]}, "properties": {"name": "Centre de Châtillon"}}, {"type": "Feature", "geometry": {"type": "Point", "coordinates": [2.2943031744221876, 48.80721821660816]}, "properties": {"name": "Vauban"}}, {"type": "Feature", "geometry": {"type": "Point", "coordinates": [2.300247623254254, 48.81070683539769]}, "properties": {"name": "Châtillon - Montrouge"}}]}