{
    "type": "FeatureCollection",
    "features": [
        {
            "type": "Feature",
            "geometry": {
                "type": "LineString",
                "coordinates": [
                    [
                        2.271222,
                        48.838078
                    ],
                    [
                        2.271821,
                        48.837849
                    ],
                    [
                        2.272119,
                        48.837704
                    ],
                    [
                        2.272649,
                        48.837513
                    ],
                    [
                        2.273854,
                        48.837132
                    ],
                    [
                        2.274133,
                        48.837051
                    ],
                    [
                        2.274981,
                        48.836823
                    ],
                    [
                        2.276028,
                        48.836578
                    ],
                    [
                        2.278886,
                        48.835934
                    ],
                    [
                        2.278886,
                        48.835934
                    ],
                    [
                        2.279286,
                        48.835838
                    ],
                    [
                        2.282106,
                        48.835007
                    ],
                    [
                        2.282476,
                        48.834888
                    ],
                    [
                        2.284572,
                        48.834145
                    ],
                    [
                        2.284572,
                        48.834145
                    ],
                    [
                        2.285952,
                        48.833637
                    ],
                    [
                        2.286309,
                        48.833496
                    ],
                    [
                        2.28702,
                        48.833176
                    ],
                    [
                        2.287487,
                        48.832912
                    ],
                    [
                        2.288102,
                        48.832642
                    ],
                    [
                        2.288102,
                        48.832642
                    ],
                    [
                        2.288677,
                        48.832401
                    ],
                    [
                        2.289291,
                        48.832203
                    ],
                    [
                        2.289572,
                        48.832088
                    ],
                    [
                        2.29192,
                        48.831066
                    ],
                    [
                        2.292597,
                        48.830803
                    ],
                    [
                        2.293056,
                        48.830647
                    ],
                    [
                        2.295374,
                        48.829899
                    ],
                    [
                        2.295772,
                        48.829784
                    ],
                    [
                        2.296471,
                        48.829628
                    ],
                    [
                        2.296471,
                        48.829628
                    ],
                    [
                        2.29881,
                        48.829102
                    ],
                    [
                        2.300799,
                        48.828671
                    ],
                    [
                        2.300799,
                        48.828671
                    ],
                    [
                        2.302942,
                        48.828209
                    ],
                    [
                        2.304439,
                        48.827869
                    ],
                    [
                        2.305476,
                        48.82766
                    ],
                    [
                        2.306645,
                        48.827396
                    ],
                    [
                        2.306645,
                        48.827396
                    ],
                    [
                        2.313343,
                        48.825912
                    ],
                    [
                        2.313343,
                        48.825912
                    ],
                    [
                        2.318839,
                        48.824699
                    ],
                    [
                        2.318839,
                        48.824699
                    ],
                    [
                        2.323749,
                        48.823605
                    ],
                    [
                        2.323981,
                        48.82354
                    ],
                    [
                        2.324311,
                        48.82341
                    ],
                    [
                        2.324416,
                        48.82338
                    ],
                    [
                        2.326259,
                        48.822968
                    ],
                    [
                        2.326259,
                        48.822968
                    ],
                    [
                        2.326612,
                        48.822887
                    ],
                    [
                        2.326697,
                        48.822876
                    ],
                    [
                        2.326894,
                        48.822857
                    ],
                    [
                        2.327147,
                        48.822845
                    ],
                    [
                        2.327278,
                        48.82283
                    ],
                    [
                        2.3333,
                        48.821503
                    ],
                    [
                        2.3333,
                        48.821503
                    ],
                    [
                        2.339196,
                        48.820202
                    ],
                    [
                        2.339196,
                        48.820202
                    ],
                    [
                        2.340642,
                        48.819881
                    ],
                    [
                        2.341214,
                        48.819782
                    ],
                    [
                        2.344985,
                        48.819328
                    ],
                    [
                        2.345115,
                        48.819324
                    ],
                    [
                        2.345248,
                        48.819332
                    ],
                    [
                        2.345778,
                        48.819473
                    ],
                    [
                        2.345778,
                        48.819473
                    ],
                    [
                        2.350664,
                        48.820816
                    ],
                    [
                        2.350795,
                        48.820843
                    ],
                    [
                        2.350985,
                        48.820858
                    ],
                    [
                        2.351736,
                        48.820862
                    ],
                    [
                        2.351736,
                        48.820862
                    ],
                    [
                        2.354918,
                        48.820869
                    ],
                    [
                        2.355088,
                        48.820847
                    ],
                    [
                        2.355205,
                        48.820816
                    ],
                    [
                        2.355731,
                        48.820625
                    ],
                    [
                        2.355826,
                        48.82058
                    ],
                    [
                        2.355905,
                        48.82053
                    ],
                    [
                        2.356342,
                        48.820202
                    ],
                    [
                        2.357133,
                        48.819588
                    ],
                    [
                        2.357369,
                        48.819431
                    ],
                    [
                        2.357618,
                        48.819305
                    ],
                    [
                        2.357832,
                        48.819218
                    ],
                    [
                        2.358005,
                        48.81916
                    ],
                    [
                        2.358344,
                        48.819084
                    ],
                    [
                        2.358604,
                        48.81905
                    ],
                    [
                        2.359226,
                        48.818989
                    ],
                    [
                        2.359405,
                        48.818981
                    ],
                    [
                        2.359668,
                        48.818989
                    ],
                    [
                        2.360195,
                        48.819046
                    ],
                    [
                        2.360195,
                        48.819046
                    ],
                    [
                        2.362425,
                        48.81929
                    ],
                    [
                        2.362622,
                        48.819336
                    ],
                    [
                        2.363019,
                        48.819454
                    ],
                    [
                        2.363396,
                        48.819511
                    ],
                    [
                        2.36348,
                        48.81953
                    ],
                    [
                        2.364111,
                        48.819733
                    ],
                    [
                        2.364111,
                        48.819733
                    ],
                    [
                        2.36467,
                        48.819912
                    ],
                    [
                        2.364832,
                        48.819988
                    ],
                    [
                        2.365042,
                        48.82011
                    ],
                    [
                        2.365132,
                        48.820145
                    ],
                    [
                        2.369005,
                        48.821404
                    ],
                    [
                        2.369224,
                        48.821491
                    ],
                    [
                        2.36939,
                        48.821575
                    ],
                    [
                        2.369613,
                        48.821667
                    ],
                    [
                        2.370103,
                        48.821831
                    ],
                    [
                        2.370103,
                        48.821831
                    ],
                    [
                        2.372692,
                        48.822681
                    ],
                    [
                        2.377665,
                        48.824345
                    ],
                    [
                        2.377665,
                        48.824345
                    ],
                    [
                        2.379283,
                        48.824875
                    ],
                    [
                        2.379725,
                        48.825039
                    ],
                    [
                        2.380207,
                        48.825226
                    ],
                    [
                        2.381141,
                        48.825535
                    ],
                    [
                        2.381141,
                        48.825535
                    ],
                    [
                        2.381613,
                        48.825691
                    ],
                    [
                        2.381895,
                        48.825794
                    ],
                    [
                        2.38325,
                        48.826233
                    ],
                    [
                        2.383615,
                        48.826359
                    ],
                    [
                        2.383999,
                        48.826504
                    ],
                    [
                        2.384367,
                        48.826668
                    ],
                    [
                        2.387723,
                        48.828297
                    ],
                    [
                        2.38864,
                        48.828735
                    ],
                    [
                        2.389118,
                        48.828941
                    ],
                    [
                        2.391379,
                        48.829865
                    ],
                    [
                        2.391694,
                        48.829967
                    ],
                    [
                        2.392197,
                        48.830101
                    ],
                    [
                        2.393545,
                        48.830399
                    ],
                    [
                        2.393545,
                        48.830399
                    ],
                    [
                        2.394901,
                        48.830688
                    ],
                    [
                        2.395779,
                        48.830936
                    ],
                    [
                        2.396241,
                        48.831093
                    ],
                    [
                        2.39668,
                        48.831257
                    ],
                    [
                        2.396912,
                        48.831352
                    ],
                    [
                        2.397529,
                        48.831627
                    ],
                    [
                        2.398367,
                        48.831982
                    ],
                    [
                        2.398367,
                        48.831982
                    ],
                    [
                        2.399184,
                        48.83231
                    ],
                    [
                        2.400048,
                        48.832626
                    ],
                    [
                        2.403579,
                        48.833885
                    ],
                    [
                        2.404467,
                        48.834213
                    ],
                    [
                        2.404758,
                        48.834351
                    ],
                    [
                        2.406398,
                        48.835331
                    ],
                    [
                        2.406636,
                        48.835484
                    ],
                    [
                        2.406754,
                        48.835567
                    ],
                    [
                        2.407232,
                        48.835987
                    ],
                    [
                        2.407232,
                        48.835987
                    ],
                    [
                        2.407554,
                        48.836269
                    ],
                    [
                        2.407743,
                        48.836475
                    ],
                    [
                        2.407823,
                        48.836597
                    ],
                    [
                        2.407889,
                        48.836727
                    ],
                    [
                        2.408891,
                        48.839836
                    ],
                    [
                        2.408891,
                        48.839836
                    ],
                    [
                        2.409479,
                        48.841656
                    ],
                    [
                        2.409873,
                        48.842831
                    ],
                    [
                        2.409928,
                        48.843044
                    ],
                    [
                        2.410133,
                        48.843685
                    ],
                    [
                        2.410133,
                        48.843685
                    ],
                    [
                        2.410506,
                        48.844845
                    ],
                    [
                        2.410663,
                        48.845306
                    ],
                    [
                        2.410705,
                        48.845474
                    ],
                    [
                        2.410842,
                        48.845943
                    ],
                    [
                        2.410887,
                        48.846306
                    ],
                    [
                        2.410969,
                        48.846581
                    ],
                    [
                        2.410965,
                        48.846622
                    ],
                    [
                        2.410946,
                        48.846684
                    ],
                    [
                        2.410925,
                        48.846722
                    ],
                    [
                        2.410874,
                        48.846771
                    ],
                    [
                        2.410798,
                        48.846821
                    ],
                    [
                        2.41066,
                        48.846863
                    ],
                    [
                        2.409546,
                        48.846966
                    ]
                ]
            },
            "properties": {
                "id": "tram-3a",
                "branchId": "tram-3a::0",
                "termini": "Pont du Garigliano - Porte de Vincennes",
                "source": "Ile-de-France Mobilites GTFS (data.iledefrance-mobilites.fr), Mobility License"
            }
        },
        {
            "type": "Feature",
            "geometry": {
                "type": "Point",
                "coordinates": [
                    2.271323138312333,
                    48.83807321092004
                ]
            },
            "properties": {
                "name": "Pont du Garigliano"
            }
        },
        {
            "type": "Feature",
            "geometry": {
                "type": "Point",
                "coordinates": [
                    2.2788605111327747,
                    48.835888441280396
                ]
            },
            "properties": {
                "name": "Balard"
            }
        },
        {
            "type": "Feature",
            "geometry": {
                "type": "Point",
                "coordinates": [
                    2.284538816875225,
                    48.83411479687378
                ]
            },
            "properties": {
                "name": "Desnouettes"
            }
        },
        {
            "type": "Feature",
            "geometry": {
                "type": "Point",
                "coordinates": [
                    2.2880197933556627,
                    48.83260662902873
                ]
            },
            "properties": {
                "name": "Porte de Versailles - Parc des Expositions"
            }
        },
        {
            "type": "Feature",
            "geometry": {
                "type": "Point",
                "coordinates": [
                    2.29645235862634,
                    48.82958965330787
                ]
            },
            "properties": {
                "name": "Georges Brassens"
            }
        },
        {
            "type": "Feature",
            "geometry": {
                "type": "Point",
                "coordinates": [
                    2.3006879774102935,
                    48.82864316650426
                ]
            },
            "properties": {
                "name": "Brancion"
            }
        },
        {
            "type": "Feature",
            "geometry": {
                "type": "Point",
                "coordinates": [
                    2.3066440851164933,
                    48.827373746784275
                ]
            },
            "properties": {
                "name": "Porte de Vanves"
            }
        },
        {
            "type": "Feature",
            "geometry": {
                "type": "Point",
                "coordinates": [
                    2.313338363709676,
                    48.82588342655846
                ]
            },
            "properties": {
                "name": "Didot"
            }
        },
        {
            "type": "Feature",
            "geometry": {
                "type": "Point",
                "coordinates": [
                    2.318884661036553,
                    48.824656012842546
                ]
            },
            "properties": {
                "name": "Jean Moulin"
            }
        },
        {
            "type": "Feature",
            "geometry": {
                "type": "Point",
                "coordinates": [
                    2.326180409502787,
                    48.822943553337296
                ]
            },
            "properties": {
                "name": "Porte d'Orléans"
            }
        },
        {
            "type": "Feature",
            "geometry": {
                "type": "Point",
                "coordinates": [
                    2.333240818516532,
                    48.82149015737766
                ]
            },
            "properties": {
                "name": "Montsouris"
            }
        },
        {
            "type": "Feature",
            "geometry": {
                "type": "Point",
                "coordinates": [
                    2.339141182523244,
                    48.820191827892465
                ]
            },
            "properties": {
                "name": "Cité Universitaire"
            }
        },
        {
            "type": "Feature",
            "geometry": {
                "type": "Point",
                "coordinates": [
                    2.345797007642135,
                    48.81944596603347
                ]
            },
            "properties": {
                "name": "Stade Charléty - Porte de Gentilly"
            }
        },
        {
            "type": "Feature",
            "geometry": {
                "type": "Point",
                "coordinates": [
                    2.3517178700368593,
                    48.82083627815218
                ]
            },
            "properties": {
                "name": "Poterne des Peupliers"
            }
        },
        {
            "type": "Feature",
            "geometry": {
                "type": "Point",
                "coordinates": [
                    2.36015773399431,
                    48.81898404542081
                ]
            },
            "properties": {
                "name": "Porte d'Italie"
            }
        },
        {
            "type": "Feature",
            "geometry": {
                "type": "Point",
                "coordinates": [
                    2.3640167452454044,
                    48.81971514342374
                ]
            },
            "properties": {
                "name": "Porte de Choisy"
            }
        },
        {
            "type": "Feature",
            "geometry": {
                "type": "Point",
                "coordinates": [
                    2.3701746864334314,
                    48.821816307706
                ]
            },
            "properties": {
                "name": "Porte d'Ivry"
            }
        },
        {
            "type": "Feature",
            "geometry": {
                "type": "Point",
                "coordinates": [
                    2.377744762249231,
                    48.82432922348724
                ]
            },
            "properties": {
                "name": "Maryse Bastié"
            }
        },
        {
            "type": "Feature",
            "geometry": {
                "type": "Point",
                "coordinates": [
                    2.381149825464056,
                    48.825489098203334
                ]
            },
            "properties": {
                "name": "Avenue de France"
            }
        },
        {
            "type": "Feature",
            "geometry": {
                "type": "Point",
                "coordinates": [
                    2.3934750366791087,
                    48.830336895691396
                ]
            },
            "properties": {
                "name": "Baron le Roy"
            }
        },
        {
            "type": "Feature",
            "geometry": {
                "type": "Point",
                "coordinates": [
                    2.398455585755042,
                    48.831971917767255
                ]
            },
            "properties": {
                "name": "Porte de Charenton"
            }
        },
        {
            "type": "Feature",
            "geometry": {
                "type": "Point",
                "coordinates": [
                    2.407264913210672,
                    48.83597310359848
                ]
            },
            "properties": {
                "name": "Porte Dorée"
            }
        },
        {
            "type": "Feature",
            "geometry": {
                "type": "Point",
                "coordinates": [
                    2.408937367696815,
                    48.83986661994873
                ]
            },
            "properties": {
                "name": "Montempoivre"
            }
        },
        {
            "type": "Feature",
            "geometry": {
                "type": "Point",
                "coordinates": [
                    2.410161562816697,
                    48.843658959618125
                ]
            },
            "properties": {
                "name": "Alexandra David-Néel"
            }
        },
        {
            "type": "Feature",
            "geometry": {
                "type": "Point",
                "coordinates": [
                    2.409566358514211,
                    48.846884708674125
                ]
            },
            "properties": {
                "name": "Porte de Vincennes"
            }
        }
    ]
}