{"type": "FeatureCollection", "features": [{"type": "Feature", "geometry": {"type": "LineString", "coordinates": [[2.274577, 48.927269], [2.27539, 48.92754], [2.280625, 48.929169], [2.281128, 48.92934], [2.281662, 48.929543], [2.282076, 48.92968], [2.283934, 48.93026], [2.283934, 48.93026], [2.286847, 48.931202], [2.28735, 48.931393], [2.288864, 48.931858], [2.288864, 48.931858], [2.289047, 48.931915], [2.289237, 48.931965], [2.289936, 48.932117], [2.291231, 48.932476], [2.292672, 48.932861], [2.293635, 48.933132], [2.294126, 48.933239], [2.294834, 48.933376], [2.294834, 48.933376], [2.295603, 48.933521], [2.29586, 48.933544], [2.295957, 48.933544], [2.296035, 48.933533], [2.296157, 48.933487], [2.296205, 48.933456], [2.296232, 48.933426], [2.296264, 48.933372], [2.296374, 48.933075], [2.296415, 48.932995], [2.296451, 48.932949], [2.296503, 48.932899], [2.296628, 48.932819], [2.296762, 48.932785], [2.296979, 48.932747], [2.298645, 48.932514], [2.298979, 48.932491], [2.299374, 48.93248], [2.299935, 48.932426], [2.300722, 48.932335], [2.300837, 48.932323], [2.300923, 48.932323], [2.301015, 48.932339], [2.301066, 48.932358], [2.301128, 48.932392], [2.301181, 48.932434], [2.301236, 48.932549], [2.301294, 48.93277], [2.301294, 48.93277], [2.301361, 48.933025], [2.301399, 48.933109], [2.301476, 48.933174], [2.301548, 48.933212], [2.301672, 48.933235], [2.301803, 48.933243], [2.304324, 48.93325], [2.30553, 48.933323], [2.306085, 48.933376], [2.307261, 48.933441], [2.307261, 48.933441], [2.308354, 48.933502], [2.308965, 48.933563], [2.311058, 48.933743], [2.312644, 48.933865], [2.313478, 48.933945], [2.313478, 48.933945], [2.316985, 48.934269], [2.317713, 48.934361], [2.319373, 48.934517], [2.320005, 48.93457], [2.32041, 48.934578], [2.320999, 48.934563], [2.321734, 48.934601], [2.321734, 48.934601], [2.324856, 48.934772], [2.32601, 48.934868], [2.327133, 48.934994], [2.327133, 48.934994], [2.328702, 48.935165], [2.329304, 48.935238], [2.329869, 48.935291], [2.330571, 48.935349], [2.332223, 48.935436], [2.334204, 48.935581], [2.334204, 48.935581], [2.33521, 48.935658], [2.335485, 48.935665], [2.335659, 48.93565], [2.33601, 48.9356], [2.33619, 48.935593], [2.337479, 48.935646], [2.338258, 48.935692], [2.339782, 48.935753], [2.339782, 48.935753], [2.34151, 48.935818], [2.342079, 48.935867], [2.344094, 48.935951], [2.344736, 48.935986], [2.344736, 48.935986], [2.34561, 48.936028], [2.345923, 48.935989], [2.346031, 48.935993], [2.346127, 48.936012], [2.348586, 48.936863], [2.348747, 48.936905], [2.348925, 48.93692], [2.34902, 48.936913], [2.349697, 48.936802], [2.349787, 48.936794], [2.349873, 48.936794], [2.349946, 48.936806], [2.350069, 48.93684], [2.350121, 48.936863], [2.350207, 48.936924], [2.350274, 48.937023], [2.350466, 48.937622], [2.350466, 48.937622], [2.35054, 48.937817], [2.350583, 48.937885], [2.350623, 48.937931], [2.350676, 48.937977], [2.350764, 48.93803], [2.350865, 48.938072], [2.350985, 48.938107], [2.351112, 48.938129], [2.352139, 48.938251], [2.352895, 48.938335], [2.353429, 48.938377], [2.354986, 48.938473], [2.355352, 48.938538], [2.35553, 48.93856], [2.356023, 48.938591], [2.356023, 48.938591], [2.356358, 48.938606], [2.356777, 48.938587], [2.357003, 48.938587], [2.358888, 48.938713], [2.359122, 48.938721], [2.359377, 48.938698], [2.359457, 48.938686], [2.359641, 48.938641], [2.359827, 48.938572], [2.359972, 48.938499], [2.360971, 48.937946], [2.360971, 48.937946], [2.361111, 48.93787], [2.361757, 48.937489], [2.362087, 48.937286], [2.362857, 48.936832], [2.363367, 48.93652], [2.363367, 48.93652], [2.363592, 48.936394], [2.363792, 48.936302], [2.364319, 48.936096], [2.364469, 48.936047], [2.364628, 48.936008], [2.364829, 48.935978], [2.367416, 48.935715], [2.367633, 48.935673], [2.367745, 48.935635], [2.367856, 48.935593], [2.367955, 48.935535], [2.368389, 48.935242], [2.368795, 48.934956], [2.370281, 48.933857], [2.370465, 48.933739], [2.370569, 48.933689], [2.370725, 48.933636], [2.371232, 48.93354], [2.371232, 48.93354], [2.372319, 48.933342], [2.372754, 48.933243], [2.373058, 48.933163], [2.373483, 48.933033], [2.37523, 48.932446], [2.375572, 48.93235], [2.375906, 48.932274], [2.376442, 48.932137], [2.377395, 48.931854], [2.377625, 48.931797], [2.377734, 48.931778], [2.377915, 48.931751], [2.378425, 48.931698], [2.378425, 48.931698], [2.379412, 48.931614], [2.379702, 48.931576], [2.380636, 48.931427], [2.381083, 48.931332], [2.381289, 48.931274], [2.381551, 48.93119], [2.381787, 48.931095], [2.38237, 48.930836], [2.383257, 48.930466], [2.384877, 48.929913], [2.384877, 48.929913], [2.389021, 48.928516], [2.39092, 48.927822], [2.392631, 48.927326], [2.392631, 48.927326], [2.393161, 48.927185], [2.393796, 48.926987], [2.395477, 48.926407], [2.396126, 48.926254], [2.396305, 48.926197], [2.396465, 48.926125], [2.396583, 48.92606], [2.396853, 48.92585], [2.396996, 48.925751], [2.397156, 48.925667], [2.39737, 48.925587], [2.397657, 48.925514], [2.398982, 48.925209], [2.399801, 48.925003], [2.400889, 48.924679], [2.4017, 48.92445], [2.402261, 48.924305], [2.402261, 48.924305], [2.404223, 48.92379], [2.404651, 48.923649], [2.404955, 48.923531], [2.405297, 48.923378], [2.406237, 48.922901], [2.406749, 48.922619], [2.406749, 48.922619], [2.407057, 48.922455], [2.407476, 48.92226], [2.408568, 48.921726], [2.409972, 48.921082], [2.410203, 48.920971], [2.410767, 48.920677], [2.410767, 48.920677], [2.411964, 48.920078], [2.412618, 48.919811], [2.412795, 48.919716], [2.413456, 48.919346], [2.413957, 48.919094], [2.413957, 48.919094], [2.414331, 48.918922], [2.414573, 48.918819], [2.414827, 48.918716], [2.415101, 48.918617], [2.417024, 48.917999], [2.417803, 48.917725], [2.417803, 48.917725], [2.418419, 48.917511], [2.41892, 48.917351], [2.419569, 48.917152], [2.42134, 48.916702], [2.421584, 48.916637], [2.421749, 48.916603], [2.42222, 48.916431], [2.422352, 48.916397], [2.422761, 48.916294], [2.423567, 48.916107], [2.424715, 48.915882], [2.425347, 48.915749], [2.425347, 48.915749], [2.426056, 48.915592], [2.426687, 48.91544], [2.427662, 48.915234], [2.427816, 48.915184], [2.428209, 48.915001], [2.428469, 48.914906], [2.42946, 48.914692], [2.429856, 48.914577], [2.431557, 48.913975], [2.431557, 48.913975], [2.432226, 48.913742], [2.434733, 48.91293], [2.435682, 48.91259], [2.435682, 48.91259], [2.435917, 48.912502], [2.436017, 48.912457], [2.436122, 48.912392], [2.436245, 48.9123], [2.436313, 48.912239], [2.436464, 48.912056], [2.436528, 48.911926], [2.437034, 48.91069], [2.437512, 48.90955], [2.437512, 48.90955], [2.43866, 48.906799], [2.43866, 48.906799], [2.438713, 48.90667], [2.438737, 48.906635], [2.438813, 48.906548], [2.438846, 48.906521], [2.43894, 48.906464], [2.439056, 48.906418], [2.439208, 48.90638], [2.439328, 48.906368], [2.440454, 48.906376], [2.441858, 48.90641], [2.443382, 48.906513], [2.444188, 48.906521], [2.444188, 48.906521], [2.444623, 48.90654], [2.445446, 48.906612], [2.445757, 48.906605], [2.446201, 48.906544], [2.446385, 48.906532], [2.448754, 48.906528], [2.448754, 48.906528], [2.451782, 48.906521], [2.451937, 48.906528], [2.452055, 48.90654], [2.452173, 48.906567], [2.452271, 48.906612], [2.452314, 48.906643], [2.45239, 48.906727], [2.452409, 48.906765], [2.452642, 48.907478], [2.452698, 48.907589], [2.452817, 48.907722], [2.452914, 48.907791], [2.453019, 48.907848], [2.45314, 48.907894], [2.453253, 48.907925], [2.453416, 48.907951], [2.453499, 48.907955], [2.453643, 48.907951], [2.453714, 48.907944], [2.453932, 48.907902], [2.454483, 48.907764], [2.454483, 48.907764], [2.455114, 48.907619], [2.455881, 48.907463], [2.457734, 48.907143], [2.459216, 48.906929], [2.460685, 48.906658], [2.460685, 48.906658], [2.461127, 48.90657], [2.461944, 48.906357], [2.462526, 48.906227], [2.462902, 48.906158], [2.464031, 48.905968], [2.464176, 48.90593], [2.46466, 48.905773], [2.464967, 48.905712], [2.465278, 48.905689], [2.466433, 48.905689], [2.467257, 48.905701], [2.467389, 48.905685], [2.467834, 48.90556], [2.468019, 48.905529], [2.469217, 48.905479], [2.469363, 48.905464], [2.469497, 48.905426], [2.469603, 48.905369], [2.469673, 48.905289], [2.469706, 48.905235], [2.469998, 48.904606], [2.469998, 48.904606], [2.470067, 48.904457], [2.470099, 48.904366], [2.470104, 48.904324], [2.4701, 48.904278], [2.470089, 48.90424], [2.470046, 48.904175], [2.470009, 48.90414], [2.46996, 48.90411], [2.46985, 48.90406], [2.469765, 48.904041], [2.469066, 48.903904], [2.46892, 48.903847], [2.468848, 48.903809], [2.468789, 48.903767], [2.46871, 48.90369], [2.468658, 48.90361], [2.468625, 48.903519], [2.468594, 48.903366], [2.468543, 48.903248], [2.468496, 48.903187], [2.468424, 48.903114], [2.466339, 48.901234], [2.466135, 48.901066], [2.465914, 48.900848], [2.465115, 48.900127], [2.465115, 48.900127], [2.462704, 48.897957], [2.462113, 48.897488], [2.460843, 48.896408], [2.460354, 48.896027]]}, "properties": {"id": "tram-1", "branchId": "tram-1::0", "termini": "Asnières - Quatre Routes - Gare de Noisy-le-Sec", "source": "Ile-de-France Mobilites GTFS (data.iledefrance-mobilites.fr), Mobility License"}}, {"type": "Feature", "geometry": {"type": "Point", "coordinates": [2.274618464997227, 48.92728953577513]}, "properties": {"name": "Asnières - Quatre Routes"}}, {"type": "Feature", "geometry": {"type": "Point", "coordinates": [2.28373684985466, 48.9301501975965]}, "properties": {"name": "Les Courtilles"}}, {"type": "Feature", "geometry": {"type": "Point", "coordinates": [2.288669154708256, 48.93177133057975]}, "properties": {"name": "Le Luth"}}, {"type": "Feature", "geometry": {"type": "Point", "coordinates": [2.29464002267431, 48.93332642981649]}, "properties": {"name": "Le Village"}}, {"type": "Feature", "geometry": {"type": "Point", "coordinates": [2.3012669939202364, 48.93280768803402]}, "properties": {"name": "Timbaud"}}, {"type": "Feature", "geometry": {"type": "Point", "coordinates": [2.3070872688849575, 48.933408035079104]}, "properties": {"name": "Gare de Gennevilliers"}}, {"type": "Feature", "geometry": {"type": "Point", "coordinates": [2.3132911450925286, 48.93391137489369]}, "properties": {"name": "Parc des Chanteraines"}}, {"type": "Feature", "geometry": {"type": "Point", "coordinates": [2.321527043611886, 48.934560806805955]}, "properties": {"name": "Chemin des Reniers"}}, {"type": "Feature", "geometry": {"type": "Point", "coordinates": [2.326954604905829, 48.9349511253198]}, "properties": {"name": "La Noue"}}, {"type": "Feature", "geometry": {"type": "Point", "coordinates": [2.3343450566692696, 48.9355589516835]}, "properties": {"name": "Mairie de Villeneuve-la-Garenne"}}, {"type": "Feature", "geometry": {"type": "Point", "coordinates": [2.3396256453401656, 48.93571406385322]}, "properties": {"name": "L'Île-Saint-Denis"}}, {"type": "Feature", "geometry": {"type": "Point", "coordinates": [2.3440867496171425, 48.9359094255586]}, "properties": {"name": "Gare de Saint-Denis"}}, {"type": "Feature", "geometry": {"type": "Point", "coordinates": [2.350468785750953, 48.93749994624904]}, "properties": {"name": "Théâtre Gérard Philipe"}}, {"type": "Feature", "geometry": {"type": "Point", "coordinates": [2.35587486964062, 48.93856329762427]}, "properties": {"name": "Marché de Saint-Denis"}}, {"type": "Feature", "geometry": {"type": "Point", "coordinates": [2.360754728105203, 48.938031867062115]}, "properties": {"name": "Basilique de Saint-Denis"}}, {"type": "Feature", "geometry": {"type": "Point", "coordinates": [2.3633667784558563, 48.936525979859766]}, "properties": {"name": "Cimetière de Saint-Denis"}}, {"type": "Feature", "geometry": {"type": "Point", "coordinates": [2.3710877875580523, 48.93355413819415]}, "properties": {"name": "Hôpital Delafontaine"}}, {"type": "Feature", "geometry": {"type": "Point", "coordinates": [2.378194084027151, 48.93169372430304]}, "properties": {"name": "Cosmonautes"}}, {"type": "Feature", "geometry": {"type": "Point", "coordinates": [2.384711641960931, 48.92994677460666]}, "properties": {"name": "La Courneuve - Six Routes"}}, {"type": "Feature", "geometry": {"type": "Point", "coordinates": [2.392179348716743, 48.92743989718759]}, "properties": {"name": "Hôtel de ville de la Courneuve"}}, {"type": "Feature", "geometry": {"type": "Point", "coordinates": [2.4020687684654924, 48.92433314315498]}, "properties": {"name": "Stade Géo André"}}, {"type": "Feature", "geometry": {"type": "Point", "coordinates": [2.406618691605552, 48.922656100102074]}, "properties": {"name": "Danton"}}, {"type": "Feature", "geometry": {"type": "Point", "coordinates": [2.410502145012231, 48.92075977558461]}, "properties": {"name": "La Courneuve - 8 Mai 1945"}}, {"type": "Feature", "geometry": {"type": "Point", "coordinates": [2.413808992990479, 48.91914827784848]}, "properties": {"name": "Maurice Lachâtre"}}, {"type": "Feature", "geometry": {"type": "Point", "coordinates": [2.417672743836023, 48.91774623349357]}, "properties": {"name": "Drancy - Avenir"}}, {"type": "Feature", "geometry": {"type": "Point", "coordinates": [2.424994512820818, 48.91579415374291]}, "properties": {"name": "Hôpital Avicenne"}}, {"type": "Feature", "geometry": {"type": "Point", "coordinates": [2.431262727064243, 48.91406145300713]}, "properties": {"name": "Gaston Roulaud"}}, {"type": "Feature", "geometry": {"type": "Point", "coordinates": [2.435412039295621, 48.912669182419]}, "properties": {"name": "Escadrille Normandie-Niémen"}}, {"type": "Feature", "geometry": {"type": "Point", "coordinates": [2.4374365075390196, 48.909666054339084]}, "properties": {"name": "La Ferme"}}, {"type": "Feature", "geometry": {"type": "Point", "coordinates": [2.4385847689545503, 48.90692857213566]}, "properties": {"name": "Libération"}}, {"type": "Feature", "geometry": {"type": "Point", "coordinates": [2.443814245584328, 48.90651230995499]}, "properties": {"name": "Hôtel de Ville de Bobigny"}}, {"type": "Feature", "geometry": {"type": "Point", "coordinates": [2.448752596208078, 48.906526145320015]}, "properties": {"name": "Bobigny - Pablo Picasso"}}, {"type": "Feature", "geometry": {"type": "Point", "coordinates": [2.4543327369587247, 48.90778373791807]}, "properties": {"name": "Jean Rostand"}}, {"type": "Feature", "geometry": {"type": "Point", "coordinates": [2.4605108227517474, 48.90666061731061]}, "properties": {"name": "Auguste Delaune"}}, {"type": "Feature", "geometry": {"type": "Point", "coordinates": [2.4699167940313758, 48.90468817698156]}, "properties": {"name": "Pont de Bondy"}}, {"type": "Feature", "geometry": {"type": "Point", "coordinates": [2.465066204572745, 48.90013411943619]}, "properties": {"name": "Petit Noisy"}}, {"type": "Feature", "geometry": {"type": "Point", "coordinates": [2.4602943808263733, 48.89595790787393]}, "properties": {"name": "Gare de Noisy-le-Sec"}}]}