{"type": "FeatureCollection", "features": [{"type": "Feature", "geometry": {"type": "LineString", "coordinates": [[2.302373, 48.954613], [2.303896, 48.955894], [2.304459, 48.956409], [2.30474, 48.956631], [2.305189, 48.956959], [2.305453, 48.95713], [2.305825, 48.957348], [2.306098, 48.957478], [2.306444, 48.957626], [2.306673, 48.95771], [2.30694, 48.957802], [2.30751, 48.957954], [2.307893, 48.958031], [2.308306, 48.958092], [2.308774, 48.958138], [2.310355, 48.958237], [2.311213, 48.958309], [2.314675, 48.958614], [2.316684, 48.958733], [2.317201, 48.958771], [2.320703, 48.959076], [2.321605, 48.959103], [2.322273, 48.959091], [2.323314, 48.95903], [2.324391, 48.958954], [2.325549, 48.958878], [2.32591, 48.958866], [2.326584, 48.95887], [2.327204, 48.958893], [2.327698, 48.958927], [2.328267, 48.958992], [2.328267, 48.958992], [2.331952, 48.959499], [2.33273, 48.959599], [2.333454, 48.959675], [2.33409, 48.959728], [2.334747, 48.959766], [2.335588, 48.959793], [2.338108, 48.959858], [2.339887, 48.959949], [2.342372, 48.960026], [2.342372, 48.960026], [2.345985, 48.960129], [2.347467, 48.960197], [2.353338, 48.960602], [2.354029, 48.96064], [2.35461, 48.960663], [2.355198, 48.960667], [2.355753, 48.960659], [2.356559, 48.960625], [2.358651, 48.960484], [2.361917, 48.960278], [2.362662, 48.960236], [2.363399, 48.96022], [2.365256, 48.960217], [2.367396, 48.960178], [2.367396, 48.960178], [2.368525, 48.960152], [2.370215, 48.960068], [2.37152, 48.96003], [2.371973, 48.960003], [2.372858, 48.959927], [2.375346, 48.959652], [2.375857, 48.959606], [2.376328, 48.959576], [2.37763, 48.959534], [2.378152, 48.959503], [2.37869, 48.959446], [2.379229, 48.959366], [2.380523, 48.959141], [2.381158, 48.959015], [2.381445, 48.95895], [2.381861, 48.958839], [2.382077, 48.958775], [2.38237, 48.958672], [2.382772, 48.958511], [2.383165, 48.958336], [2.386081, 48.956841], [2.386925, 48.956421], [2.387781, 48.95602], [2.388358, 48.955761], [2.388667, 48.955627], [2.388979, 48.955505], [2.389289, 48.955395], [2.389623, 48.955288], [2.389938, 48.955196], [2.39178, 48.954742], [2.39178, 48.954742], [2.397798, 48.953266], [2.398277, 48.953133], [2.398752, 48.952991], [2.399277, 48.952816], [2.39979, 48.952621], [2.400259, 48.952427], [2.400716, 48.952217], [2.401073, 48.952038], [2.401746, 48.951672], [2.402061, 48.951485], [2.402665, 48.951099], [2.402914, 48.950928], [2.403255, 48.950672], [2.403536, 48.950443], [2.405111, 48.949066], [2.407469, 48.947083], [2.411134, 48.943909], [2.411134, 48.943909], [2.412613, 48.942623], [2.413035, 48.942219], [2.413316, 48.941921], [2.413576, 48.94162], [2.413843, 48.941288], [2.41408, 48.940952], [2.414319, 48.940578], [2.414439, 48.940369], [2.414558, 48.940159], [2.414782, 48.939732], [2.417027, 48.935184], [2.417178, 48.93491], [2.417255, 48.934788], [2.417478, 48.934475], [2.417614, 48.934315], [2.417839, 48.934074], [2.418042, 48.933884], [2.418346, 48.933628], [2.418586, 48.933453], [2.418832, 48.933289], [2.419006, 48.933186], [2.419293, 48.933025], [2.421298, 48.932003], [2.421578, 48.931847], [2.421844, 48.931671], [2.422298, 48.931355], [2.422477, 48.93121], [2.423297, 48.930401]]}, "properties": {"id": "tram-11", "branchId": "tram-11::0", "termini": "Épinay-sur-Seine - Le Bourget", "source": "Ile-de-France Mobilites GTFS (data.iledefrance-mobilites.fr), Mobility License"}}, {"type": "Feature", "geometry": {"type": "Point", "coordinates": [2.3023393905460323, 48.954621581329654]}, "properties": {"name": "Épinay-sur-Seine"}}, {"type": "Feature", "geometry": {"type": "Point", "coordinates": [2.3282543310234183, 48.95903211760871]}, "properties": {"name": "Épinay - Villetaneuse"}}, {"type": "Feature", "geometry": {"type": "Point", "coordinates": [2.342362007854008, 48.96004555875211]}, "properties": {"name": "Villetaneuse - Université"}}, {"type": "Feature", "geometry": {"type": "Point", "coordinates": [2.3673379697174006, 48.9601799349474]}, "properties": {"name": "Pierrefitte - Stains"}}, {"type": "Feature", "geometry": {"type": "Point", "coordinates": [2.391805313917159, 48.95476706123573]}, "properties": {"name": "Stains - La Cerisaie"}}, {"type": "Feature", "geometry": {"type": "Point", "coordinates": [2.4111403934014755, 48.94394644863184]}, "properties": {"name": "Dugny - La Courneuve"}}, {"type": "Feature", "geometry": {"type": "Point", "coordinates": [2.4234557772724115, 48.93029231335691]}, "properties": {"name": "Le Bourget"}}]}