{"type": "FeatureCollection", "features": [{"type": "Feature", "geometry": {"type": "LineString", "coordinates": [[2.570646, 48.900951], [2.57088, 48.900715], [2.571066, 48.900593], [2.571245, 48.90041], [2.571291, 48.900341], [2.571302, 48.900295], [2.571287, 48.900211], [2.571237, 48.900146], [2.571129, 48.900085], [2.570486, 48.899879], [2.570371, 48.89983], [2.570261, 48.899769], [2.569844, 48.899414], [2.569733, 48.899334], [2.569662, 48.899288], [2.569454, 48.899208], [2.567921, 48.898796], [2.567656, 48.898731], [2.567535, 48.898708], [2.567406, 48.898697], [2.566824, 48.898746], [2.566293, 48.898739], [2.566115, 48.898716], [2.565937, 48.898678], [2.565624, 48.898575], [2.56497, 48.898304], [2.564748, 48.898251], [2.564503, 48.898212], [2.564317, 48.898205], [2.563794, 48.89822], [2.563676, 48.898205], [2.563566, 48.898178], [2.56345, 48.898136], [2.563016, 48.897915], [2.56279, 48.897854], [2.562717, 48.897846], [2.562449, 48.897858], [2.562129, 48.897915], [2.561652, 48.897945], [2.561652, 48.897945], [2.55926, 48.898121], [2.559132, 48.898155], [2.559021, 48.898201], [2.5562, 48.90036], [2.556142, 48.900425], [2.556102, 48.900532], [2.556089, 48.900669], [2.556088, 48.900967], [2.556088, 48.900967], [2.556065, 48.904346], [2.556041, 48.904415], [2.556022, 48.904442], [2.555966, 48.904499], [2.555901, 48.904541], [2.555782, 48.904575], [2.555735, 48.904587], [2.555601, 48.904591], [2.554934, 48.904591], [2.554934, 48.904591], [2.548962, 48.904568], [2.548764, 48.904591], [2.548564, 48.904629], [2.547997, 48.904743], [2.547997, 48.904743], [2.546834, 48.904984], [2.546649, 48.905033], [2.546594, 48.90506], [2.546521, 48.905113], [2.546496, 48.905144], [2.546458, 48.905212], [2.546444, 48.9053], [2.546401, 48.907902], [2.546401, 48.907902], [2.546397, 48.908382], [2.546376, 48.908482], [2.546335, 48.90855], [2.546286, 48.908596], [2.546216, 48.908642], [2.546136, 48.908672], [2.546026, 48.908695], [2.545919, 48.908699], [2.541243, 48.908543], [2.539212, 48.908451], [2.539212, 48.908451], [2.533405, 48.908188], [2.533225, 48.908199], [2.533056, 48.908241], [2.53228, 48.908546], [2.53228, 48.908546], [2.527846, 48.910267], [2.527752, 48.910297], [2.527663, 48.910313], [2.527507, 48.910305], [2.527376, 48.910267], [2.527327, 48.910236], [2.52712, 48.910042], [2.526625, 48.90947], [2.525474, 48.908195], [2.525054, 48.907761], [2.524, 48.906597], [2.524, 48.906597], [2.523688, 48.906254], [2.523635, 48.906204], [2.52351, 48.906124], [2.523425, 48.906094], [2.523351, 48.906086], [2.523272, 48.906086], [2.523202, 48.906097], [2.520059, 48.907398], [2.517632, 48.90839], [2.51753, 48.908417], [2.51741, 48.908421], [2.517352, 48.908413], [2.517236, 48.908371], [2.517182, 48.908329], [2.517129, 48.908276], [2.517001, 48.908108], [2.516862, 48.907913], [2.516656, 48.907513], [2.516552, 48.907356], [2.516552, 48.907356], [2.516479, 48.907253], [2.516364, 48.907116], [2.512348, 48.903042], [2.511959, 48.90266], [2.511959, 48.90266], [2.510818, 48.901604], [2.507711, 48.898415], [2.506434, 48.897144], [2.506434, 48.897144], [2.505563, 48.896275], [2.503408, 48.894199], [2.503196, 48.894009], [2.503015, 48.89386], [2.50276, 48.893677], [2.502627, 48.893589], [2.502397, 48.893456], [2.502055, 48.89328], [2.50174, 48.893147], [2.501574, 48.893082], [2.501148, 48.892941], [2.500829, 48.892853], [2.499392, 48.89249], [2.499392, 48.89249], [2.498855, 48.892361], [2.498366, 48.892277], [2.498135, 48.892242], [2.497887, 48.892223], [2.497495, 48.8922], [2.496956, 48.892197], [2.496559, 48.892216], [2.496203, 48.89225], [2.495161, 48.89238], [2.494107, 48.892494], [2.493636, 48.892529], [2.491949, 48.892555], [2.491362, 48.89259], [2.490873, 48.892647], [2.488272, 48.893028], [2.488272, 48.893028], [2.487118, 48.8932], [2.486574, 48.893272], [2.486001, 48.893326], [2.485048, 48.893391], [2.484385, 48.893456], [2.482349, 48.893745]]}, "properties": {"id": "tram-4", "branchId": "tram-4::0", "termini": "Hôpital de Montfermeil - Bondy", "source": "Ile-de-France Mobilites GTFS (data.iledefrance-mobilites.fr), Mobility License"}}, {"type": "Feature", "geometry": {"type": "LineString", "coordinates": [[2.482349, 48.893745], [2.484385, 48.893456], [2.485048, 48.893391], [2.486001, 48.893326], [2.486574, 48.893272], [2.487118, 48.8932], [2.488272, 48.893028], [2.488272, 48.893028], [2.490873, 48.892647], [2.491362, 48.89259], [2.491949, 48.892555], [2.493636, 48.892529], [2.494107, 48.892494], [2.495161, 48.89238], [2.496203, 48.89225], [2.496559, 48.892216], [2.496956, 48.892197], [2.497495, 48.8922], [2.497887, 48.892223], [2.498135, 48.892242], [2.498366, 48.892277], [2.498855, 48.892361], [2.499392, 48.89249], [2.499392, 48.89249], [2.500829, 48.892853], [2.501148, 48.892941], [2.501574, 48.893082], [2.50174, 48.893147], [2.502055, 48.89328], [2.502397, 48.893456], [2.502627, 48.893589], [2.50276, 48.893677], [2.503015, 48.89386], [2.503196, 48.894009], [2.503408, 48.894199], [2.505563, 48.896275], [2.506434, 48.897144], [2.506434, 48.897144], [2.507711, 48.898415], [2.510818, 48.901604], [2.511959, 48.90266], [2.511959, 48.90266], [2.512348, 48.903042], [2.51389, 48.904606], [2.514088, 48.904793], [2.514562, 48.905201], [2.514733, 48.905361], [2.515225, 48.905884], [2.516375, 48.907066], [2.516519, 48.90723], [2.516596, 48.907337], [2.516596, 48.907337], [2.516694, 48.907486], [2.516771, 48.907619], [2.517135, 48.908405], [2.517155, 48.908516], [2.517132, 48.909195], [2.51711, 48.909534], [2.517069, 48.909801], [2.516917, 48.910339], [2.516264, 48.912506], [2.515097, 48.91605], [2.515097, 48.91605], [2.514889, 48.916679], [2.51479, 48.917004], [2.514706, 48.917366], [2.514673, 48.917572], [2.514635, 48.917992], [2.514642, 48.918419], [2.514684, 48.918808], [2.514763, 48.919197], [2.514813, 48.919384], [2.51486, 48.919529], [2.514914, 48.919682], [2.514985, 48.919853], [2.515152, 48.920204], [2.515261, 48.920406], [2.515368, 48.920582], [2.515549, 48.920853], [2.515795, 48.921173], [2.516388, 48.921848], [2.516388, 48.921848], [2.517256, 48.922813], [2.51807, 48.923729], [2.518317, 48.92403], [2.518459, 48.924213], [2.518592, 48.924412], [2.518704, 48.924599], [2.518828, 48.924835], [2.518907, 48.925018], [2.519012, 48.925304], [2.519067, 48.925507], [2.519126, 48.925831], [2.519146, 48.926048], [2.519154, 48.926266], [2.51914, 48.926529], [2.51914, 48.926529], [2.519117, 48.926723], [2.519069, 48.926952], [2.519027, 48.927116], [2.518966, 48.927307], [2.518908, 48.927452], [2.518791, 48.927708], [2.518648, 48.927967], [2.518484, 48.928219], [2.518209, 48.928566], [2.518063, 48.928726], [2.51737, 48.929428], [2.5172, 48.929588], [2.516978, 48.929787], [2.516811, 48.929924], [2.516478, 48.93018], [2.516048, 48.930466], [2.515776, 48.930626], [2.515564, 48.930733], [2.514985, 48.930981], [2.514985, 48.930981], [2.514306, 48.931259], [2.513676, 48.931469], [2.513114, 48.931622], [2.512565, 48.93174], [2.512225, 48.931797], [2.511826, 48.931839], [2.511528, 48.931858], [2.510714, 48.931885], [2.508967, 48.931923], [2.507588, 48.931931], [2.504623, 48.931961], [2.502679, 48.931969], [2.500263, 48.931995], [2.498845, 48.932003], [2.496114, 48.931957]]}, "properties": {"id": "tram-4", "branchId": "tram-4::1", "termini": "Bondy - Aulnay-sous-Bois", "source": "Ile-de-France Mobilites GTFS (data.iledefrance-mobilites.fr), Mobility License"}}, {"type": "Feature", "geometry": {"type": "Point", "coordinates": [2.570637395661968, 48.90090084796803]}, "properties": {"name": "Hôpital de Montfermeil"}}, {"type": "Feature", "geometry": {"type": "Point", "coordinates": [2.5617274917506396, 48.897963837074215]}, "properties": {"name": "Arboretum"}}, {"type": "Feature", "geometry": {"type": "Point", "coordinates": [2.5561234945096047, 48.900928874629386]}, "properties": {"name": "Notre-Dame-des-Anges"}}, {"type": "Feature", "geometry": {"type": "Point", "coordinates": [2.555041681454517, 48.904611980150186]}, "properties": {"name": "Clichy - Montfermeil"}}, {"type": "Feature", "geometry": {"type": "Point", "coordinates": [2.5479602585141476, 48.90477431674464]}, "properties": {"name": "Romain Rolland"}}, {"type": "Feature", "geometry": {"type": "Point", "coordinates": [2.5464189682631786, 48.907880051184826]}, "properties": {"name": "Clichy-sous-Bois - Mairie"}}, {"type": "Feature", "geometry": {"type": "Point", "coordinates": [2.5391967519797514, 48.90848199184545]}, "properties": {"name": "Maurice Audin"}}, {"type": "Feature", "geometry": {"type": "Point", "coordinates": [2.532333917960648, 48.90854532457516]}, "properties": {"name": "Léon Blum"}}, {"type": "Feature", "geometry": {"type": "Point", "coordinates": [2.5239342778690173, 48.90658774434411]}, "properties": {"name": "République - Marx Dormoy"}}, {"type": "Feature", "geometry": {"type": "Point", "coordinates": [2.5164385595960947, 48.90725017733822]}, "properties": {"name": "Gargan"}}, {"type": "Feature", "geometry": {"type": "Point", "coordinates": [2.511897313188358, 48.90270828680124]}, "properties": {"name": "Les Pavillons-sous-Bois"}}, {"type": "Feature", "geometry": {"type": "Point", "coordinates": [2.5065734409130265, 48.89735360569665]}, "properties": {"name": "Allée de la Tour-Rendez-vous"}}, {"type": "Feature", "geometry": {"type": "Point", "coordinates": [2.4997443661584247, 48.89263088858735]}, "properties": {"name": "Les Coquetiers"}}, {"type": "Feature", "geometry": {"type": "Point", "coordinates": [2.487969467567442, 48.89312070600031]}, "properties": {"name": "Remise à Jorelle"}}, {"type": "Feature", "geometry": {"type": "Point", "coordinates": [2.482193298612344, 48.893824310177635]}, "properties": {"name": "Bondy"}}, {"type": "Feature", "geometry": {"type": "Point", "coordinates": [2.515170468742955, 48.91596819231036]}, "properties": {"name": "Lycée Henri Sellier"}}, {"type": "Feature", "geometry": {"type": "Point", "coordinates": [2.516385223304965, 48.92180048027322]}, "properties": {"name": "L'Abbaye"}}, {"type": "Feature", "geometry": {"type": "Point", "coordinates": [2.519166419761055, 48.92651491932228]}, "properties": {"name": "Freinville Sevran"}}, {"type": "Feature", "geometry": {"type": "Point", "coordinates": [2.5148936222347817, 48.931030062759795]}, "properties": {"name": "Rougemont Chanteloup"}}, {"type": "Feature", "geometry": {"type": "Point", "coordinates": [2.496963789365468, 48.93198132034067]}, "properties": {"name": "Aulnay-sous-Bois"}}]}