{"type": "FeatureCollection", "features": [{"type": "Feature", "geometry": {"type": "LineString", "coordinates": [[2.408607, 48.745041], [2.409903, 48.745365], [2.410364, 48.745441], [2.410655, 48.745495], [2.416406, 48.746944], [2.416406, 48.746944], [2.416914, 48.747074], [2.417052, 48.747116], [2.417298, 48.747215], [2.417537, 48.747337], [2.417636, 48.747395], [2.417771, 48.747494], [2.417964, 48.747654], [2.418041, 48.747726], [2.418191, 48.747913], [2.418739, 48.748882], [2.418792, 48.749012], [2.418808, 48.749088], [2.418798, 48.749222], [2.418779, 48.749298], [2.418751, 48.749367], [2.418708, 48.749439], [2.41856, 48.749664], [2.41853, 48.749733], [2.418128, 48.750381], [2.417983, 48.750599], [2.416823, 48.752407], [2.416823, 48.752407], [2.415417, 48.754574], [2.415363, 48.754627], [2.415292, 48.754673], [2.415182, 48.754707], [2.415067, 48.754719], [2.414979, 48.754711], [2.414885, 48.754692], [2.412714, 48.754082], [2.41257, 48.754047], [2.412481, 48.75404], [2.412392, 48.754047], [2.412314, 48.754066], [2.412251, 48.754097], [2.412204, 48.754131], [2.412158, 48.754181], [2.411888, 48.754597], [2.411888, 48.754597], [2.408682, 48.759533], [2.408682, 48.759533], [2.405688, 48.764145], [2.405688, 48.764145], [2.404675, 48.765697], [2.404251, 48.766369], [2.403954, 48.7668], [2.403517, 48.767475], [2.402736, 48.768665], [2.402736, 48.768665], [2.401425, 48.770672], [2.400801, 48.771648], [2.400609, 48.771919], [2.400537, 48.772038], [2.400443, 48.772133], [2.400378, 48.772182], [2.399921, 48.772442], [2.39982, 48.772518], [2.399725, 48.772625], [2.39929, 48.773281], [2.39929, 48.773281], [2.399206, 48.773418], [2.399156, 48.773529], [2.399148, 48.773579], [2.399153, 48.773689], [2.399183, 48.77393], [2.399182, 48.774021], [2.399175, 48.774097], [2.399162, 48.774147], [2.399138, 48.774193], [2.398917, 48.774559], [2.398568, 48.775188], [2.396688, 48.778103], [2.3963, 48.778828], [2.3963, 48.778828], [2.395457, 48.780499], [2.395066, 48.781242], [2.393611, 48.783371], [2.393611, 48.783371], [2.391844, 48.785919], [2.391844, 48.785919], [2.391321, 48.786671], [2.388535, 48.790092], [2.388535, 48.790092], [2.386271, 48.792866], [2.386271, 48.792866], [2.385821, 48.793423], [2.385584, 48.793694], [2.384882, 48.794437], [2.384535, 48.794865], [2.383845, 48.795883], [2.38366, 48.796139], [2.381523, 48.798862], [2.381523, 48.798862], [2.380629, 48.79998], [2.380313, 48.80035], [2.379707, 48.800999], [2.379325, 48.801437], [2.37881, 48.802082], [2.377847, 48.803314], [2.377847, 48.803314], [2.376842, 48.804607], [2.376116, 48.805603], [2.375355, 48.806686], [2.374905, 48.807285], [2.374905, 48.807285], [2.374549, 48.807755], [2.37352, 48.809036], [2.37064, 48.812687], [2.37064, 48.812687], [2.368539, 48.815365], [2.368539, 48.815365], [2.367899, 48.816174], [2.367097, 48.817158], [2.366558, 48.81776], [2.36545, 48.819164], [2.365213, 48.819447]]}, "properties": {"id": "tram-9", "branchId": "tram-9::0", "termini": "Orly - Gaston Viens - Porte de Choisy", "source": "Ile-de-France Mobilites GTFS (data.iledefrance-mobilites.fr), Mobility License"}}, {"type": "Feature", "geometry": {"type": "Point", "coordinates": [2.4086780908021588, 48.745023883930926]}, "properties": {"name": "Orly - Gaston Viens"}}, {"type": "Feature", "geometry": {"type": "Point", "coordinates": [2.41631412411825, 48.74688730805608]}, "properties": {"name": "Les Saules"}}, {"type": "Feature", "geometry": {"type": "Point", "coordinates": [2.417003173639414, 48.752170331546736]}, "properties": {"name": "Christophe Colomb"}}, {"type": "Feature", "geometry": {"type": "Point", "coordinates": [2.4119572796684805, 48.75454706233827]}, "properties": {"name": "Four - Peary"}}, {"type": "Feature", "geometry": {"type": "Point", "coordinates": [2.4088564991148567, 48.75929870781409]}, "properties": {"name": "Carle - Darthé"}}, {"type": "Feature", "geometry": {"type": "Point", "coordinates": [2.405879128241213, 48.76391595684875]}, "properties": {"name": "Rouget de Lisle"}}, {"type": "Feature", "geometry": {"type": "Point", "coordinates": [2.4029160706717363, 48.76842525723445]}, "properties": {"name": "Verdun - Hoche"}}, {"type": "Feature", "geometry": {"type": "Point", "coordinates": [2.3994888414942355, 48.773022077897004]}, "properties": {"name": "Trois Communes"}}, {"type": "Feature", "geometry": {"type": "Point", "coordinates": [2.3964438819631004, 48.77863704971284]}, "properties": {"name": "Watteau - Rondenay"}}, {"type": "Feature", "geometry": {"type": "Point", "coordinates": [2.3938198227601535, 48.783111810398914]}, "properties": {"name": "Constant Coquelin"}}, {"type": "Feature", "geometry": {"type": "Point", "coordinates": [2.392020440579232, 48.78569295540971]}, "properties": {"name": "Camille Groult"}}, {"type": "Feature", "geometry": {"type": "Point", "coordinates": [2.3887871516553467, 48.7898227080983]}, "properties": {"name": "Mairie de Vitry-sur-Seine"}}, {"type": "Feature", "geometry": {"type": "Point", "coordinates": [2.3863012042287175, 48.79286792850484]}, "properties": {"name": "Musée MAC VAL"}}, {"type": "Feature", "geometry": {"type": "Point", "coordinates": [2.3815473189324092, 48.79886938294268]}, "properties": {"name": "Beethoven - Concorde"}}, {"type": "Feature", "geometry": {"type": "Point", "coordinates": [2.377859246357863, 48.80332022767745]}, "properties": {"name": "Germaine Tailleferre"}}, {"type": "Feature", "geometry": {"type": "Point", "coordinates": [2.3748975641912837, 48.80732505068007]}, "properties": {"name": "La Briqueterie"}}, {"type": "Feature", "geometry": {"type": "Point", "coordinates": [2.3706933301011173, 48.8126993138848]}, "properties": {"name": "Cimetière Parisien d'Ivry"}}, {"type": "Feature", "geometry": {"type": "Point", "coordinates": [2.368563652805612, 48.81538623660664]}, "properties": {"name": "Châteaudun - Barbès"}}, {"type": "Feature", "geometry": {"type": "Point", "coordinates": [2.3652042061445444, 48.81950560222635]}, "properties": {"name": "Porte de Choisy"}}]}