{"type": "FeatureCollection", "features": [{"type": "Feature", "geometry": {"type": "LineString", "coordinates": [[2.258061, 48.725616], [2.258061, 48.725616], [2.258061, 48.725616], [2.259178, 48.726547], [2.259986, 48.7272], [2.260615, 48.727718], [2.260723, 48.727837], [2.261026, 48.728195], [2.261241, 48.728401], [2.261494, 48.728661], [2.262132, 48.729172], [2.262405, 48.729347], [2.262759, 48.72953], [2.263062, 48.729668], [2.265519, 48.730694], [2.265836, 48.73082], [2.266113, 48.730911], [2.266609, 48.731037], [2.266952, 48.731098], [2.267106, 48.731121], [2.267501, 48.731155], [2.267938, 48.731171], [2.268215, 48.731167], [2.268745, 48.731133], [2.268886, 48.731117], [2.2693, 48.731049], [2.269878, 48.730907], [2.27032, 48.730759], [2.270769, 48.73056], [2.27126, 48.730278], [2.271456, 48.730148], [2.271604, 48.730034], [2.271898, 48.729774], [2.272123, 48.729523], [2.272315, 48.729256], [2.272483, 48.728954], [2.27259, 48.728683], [2.272629, 48.72855], [2.272663, 48.72839], [2.272685, 48.728233], [2.272697, 48.728046], [2.272681, 48.727242], [2.272597, 48.725056], [2.2726, 48.724056], [2.272612, 48.723896], [2.272664, 48.723492], [2.272664, 48.723492], [2.272698, 48.723309], [2.272807, 48.722858], [2.272931, 48.722443], [2.273106, 48.72179], [2.27487, 48.716049], [2.275023, 48.71558], [2.275396, 48.71463], [2.275668, 48.714046], [2.275934, 48.713535], [2.276293, 48.712929], [2.276681, 48.712315], [2.27702, 48.711838], [2.277386, 48.711369], [2.277656, 48.71101], [2.278099, 48.710499], [2.278666, 48.709911], [2.279182, 48.709408], [2.279444, 48.709164], [2.279726, 48.708908], [2.280309, 48.708416], [2.280757, 48.70805], [2.280757, 48.70805], [2.28131, 48.707638], [2.281753, 48.707321], [2.282584, 48.706741], [2.283534, 48.706161], [2.284034, 48.705879], [2.28514, 48.705288], [2.285875, 48.704937], [2.286838, 48.704514], [2.287711, 48.704166], [2.288622, 48.703831], [2.289971, 48.703365], [2.290426, 48.703232], [2.290914, 48.703087], [2.291476, 48.702942], [2.292057, 48.702801], [2.293299, 48.702518], [2.293922, 48.702393], [2.294513, 48.702282], [2.294513, 48.702282], [2.295138, 48.702175], [2.296226, 48.702015], [2.297319, 48.701885], [2.298063, 48.701817], [2.299132, 48.701736], [2.302482, 48.701515], [2.303679, 48.701397], [2.304499, 48.701298], [2.305321, 48.701187], [2.306279, 48.701042], [2.306879, 48.700928], [2.307494, 48.70079], [2.307733, 48.700733], [2.307733, 48.700733], [2.308125, 48.700626], [2.308708, 48.700451], [2.309169, 48.700298], [2.309678, 48.700115], [2.310179, 48.699917], [2.310894, 48.699585], [2.311153, 48.699455], [2.311423, 48.69931], [2.311792, 48.6991], [2.312184, 48.698891], [2.3126, 48.698616], [2.313128, 48.698231], [2.313485, 48.697941], [2.314143, 48.697353], [2.31444, 48.697041], [2.314668, 48.696774], [2.314885, 48.696495], [2.31508, 48.696209], [2.315256, 48.695915], [2.315334, 48.695763], [2.315495, 48.695419], [2.315569, 48.695225], [2.315673, 48.694901], [2.315753, 48.694553], [2.315794, 48.694286], [2.315831, 48.693897], [2.315947, 48.692249], [2.316094, 48.690006], [2.316146, 48.689419], [2.316207, 48.689007], [2.316272, 48.688683], [2.316454, 48.688019], [2.316783, 48.68716], [2.316932, 48.686848], [2.317129, 48.686478], [2.317475, 48.685905], [2.317475, 48.685905], [2.317831, 48.685406], [2.317985, 48.685204], [2.318149, 48.685005], [2.318537, 48.684566], [2.318956, 48.684143], [2.319067, 48.68404], [2.319398, 48.683743], [2.319882, 48.683338], [2.32036, 48.682983], [2.320875, 48.682629], [2.321409, 48.682278], [2.326353, 48.679199], [2.327199, 48.678715], [2.327893, 48.678371], [2.328389, 48.678146], [2.32879, 48.678001], [2.329186, 48.677845], [2.331956, 48.676903], [2.331956, 48.676903], [2.332531, 48.676708], [2.332989, 48.676525], [2.33324, 48.676411], [2.333485, 48.676281], [2.333878, 48.676044], [2.334217, 48.675808], [2.334358, 48.675694], [2.334582, 48.675499], [2.334816, 48.675266], [2.334899, 48.675171], [2.334993, 48.67506], [2.33522, 48.674759], [2.335319, 48.674568], [2.335484, 48.674133], [2.335522, 48.673973], [2.335571, 48.673683], [2.335728, 48.673027], [2.335794, 48.672787], [2.335779, 48.672695], [2.335717, 48.672615], [2.335352, 48.672363], [2.335315, 48.672325], [2.335278, 48.672272], [2.335045, 48.671459], [2.335036, 48.671371], [2.335036, 48.671318], [2.33505, 48.671268], [2.335198, 48.67086], [2.335198, 48.67086], [2.335619, 48.66967], [2.335696, 48.669533], [2.335753, 48.669479], [2.335851, 48.669426], [2.33595, 48.669392], [2.33607, 48.669373], [2.336191, 48.669376], [2.336296, 48.669395], [2.336396, 48.669437], [2.336649, 48.669582], [2.33675, 48.669628], [2.33691, 48.669685], [2.33705, 48.669724], [2.337207, 48.669743], [2.338109, 48.669804], [2.339314, 48.669872], [2.340197, 48.66991], [2.340524, 48.669941], [2.341292, 48.669891], [2.341608, 48.669888], [2.341986, 48.669907], [2.342429, 48.669964], [2.342676, 48.670002], [2.343053, 48.670074], [2.343312, 48.670135], [2.343667, 48.670242], [2.344477, 48.670521], [2.345095, 48.670761], [2.345611, 48.671001], [2.345716, 48.671043], [2.345951, 48.671093], [2.346059, 48.671104], [2.346185, 48.671097], [2.346291, 48.67107], [2.346427, 48.671009], [2.347581, 48.670406], [2.348459, 48.66993], [2.34875, 48.669788], [2.349184, 48.669601], [2.350116, 48.669212], [2.351061, 48.66888], [2.351578, 48.668713], [2.352073, 48.668552], [2.353035, 48.668274], [2.353438, 48.668179], [2.354719, 48.667912], [2.354719, 48.667912], [2.358194, 48.667217], [2.358805, 48.667076], [2.359374, 48.666904], [2.360287, 48.66658], [2.360655, 48.666424], [2.361031, 48.666241], [2.361462, 48.666054], [2.362051, 48.665691], [2.362622, 48.665321], [2.362622, 48.665321], [2.363096, 48.66502], [2.363462, 48.664803], [2.36409, 48.664516], [2.366732, 48.66304], [2.368877, 48.661781], [2.369553, 48.661373], [2.370375, 48.660866], [2.373699, 48.658745], [2.373699, 48.658745], [2.374353, 48.658325], [2.374459, 48.658276], [2.374642, 48.658218], [2.375002, 48.658131], [2.375403, 48.658005], [2.375733, 48.657822], [2.375838, 48.657757], [2.37635, 48.65741], [2.376585, 48.657234], [2.377005, 48.65691], [2.377347, 48.656612], [2.377693, 48.6563], [2.377796, 48.656219], [2.377934, 48.656059], [2.378217, 48.655708], [2.37851, 48.655289], [2.378743, 48.654938], [2.378812, 48.654865], [2.378912, 48.654797], [2.379031, 48.654751], [2.379181, 48.654724], [2.380786, 48.654556], [2.380943, 48.654518], [2.381109, 48.654438], [2.381155, 48.654396], [2.382108, 48.653427], [2.383418, 48.652149], [2.383418, 48.652149], [2.38404, 48.651535], [2.385229, 48.650211], [2.385541, 48.649906], [2.386875, 48.648525], [2.390425, 48.644955], [2.39072, 48.64468], [2.391072, 48.644325], [2.391864, 48.643559], [2.392887, 48.642544], [2.393209, 48.642216], [2.393283, 48.642128], [2.39332, 48.642059], [2.393347, 48.641991], [2.393359, 48.641903], [2.39334, 48.641739], [2.393297, 48.641628], [2.392812, 48.640694], [2.392785, 48.640583], [2.392782, 48.640495], [2.392793, 48.640396], [2.392882, 48.640182], [2.393633, 48.638153], [2.393773, 48.637817], [2.393847, 48.637695], [2.393935, 48.6376], [2.394291, 48.637306], [2.394352, 48.637249], [2.394415, 48.63718], [2.394474, 48.637077], [2.394944, 48.635864], [2.395595, 48.634144], [2.395595, 48.634144], [2.396134, 48.632736], [2.396188, 48.632656], [2.396246, 48.632595], [2.396319, 48.632542], [2.396458, 48.632473], [2.396555, 48.632446], [2.396693, 48.632427], [2.39682, 48.632427], [2.397436, 48.632473], [2.397741, 48.632462], [2.397976, 48.632416], [2.398152, 48.632362], [2.398378, 48.632267], [2.400394, 48.631245], [2.400557, 48.631145], [2.400647, 48.631062], [2.400691, 48.631008], [2.400764, 48.63089], [2.400788, 48.630737], [2.400769, 48.629765], [2.4008, 48.629517], [2.400948, 48.629101], [2.401187, 48.6287], [2.4015, 48.628323], [2.401888, 48.627964], [2.402304, 48.627674], [2.402753, 48.627434], [2.403224, 48.627209], [2.403855, 48.626945], [2.404641, 48.626602], [2.405344, 48.626266], [2.407294, 48.625145], [2.407294, 48.625145], [2.410131, 48.623501], [2.410795, 48.623127], [2.412176, 48.622456], [2.413978, 48.621597], [2.414177, 48.62151], [2.414361, 48.62146], [2.414529, 48.621449], [2.414684, 48.621449], [2.414877, 48.621483], [2.415024, 48.621529], [2.41518, 48.621605], [2.415761, 48.621948], [2.415761, 48.621948], [2.417374, 48.622902], [2.417918, 48.623211], [2.418413, 48.623508], [2.419823, 48.624439], [2.420333, 48.624763], [2.420617, 48.624924], [2.420776, 48.625004], [2.420954, 48.625069], [2.421261, 48.625145], [2.421435, 48.625168], [2.421677, 48.625191], [2.421887, 48.625191], [2.422563, 48.625145], [2.425409, 48.62492]]}, "properties": {"id": "tram-12", "branchId": "tram-12::0", "termini": "Massy - Palaiseau - Évry - Courcouronnes", "source": "Ile-de-France Mobilites GTFS (data.iledefrance-mobilites.fr), Mobility License"}}, {"type": "Feature", "geometry": {"type": "Point", "coordinates": [2.2565407731383607, 48.72437639406971]}, "properties": {"name": "Massy - Palaiseau"}}, {"type": "Feature", "geometry": {"type": "Point", "coordinates": [2.2726765210350672, 48.723504400268936]}, "properties": {"name": "Massy Europe"}}, {"type": "Feature", "geometry": {"type": "Point", "coordinates": [2.2808016818526604, 48.70802879952352]}, "properties": {"name": "Champlan"}}, {"type": "Feature", "geometry": {"type": "Point", "coordinates": [2.2939520027613325, 48.70239567385033]}, "properties": {"name": "Longjumeau"}}, {"type": "Feature", "geometry": {"type": "Point", "coordinates": [2.307099110457053, 48.700889681819284]}, "properties": {"name": "Chilly-Mazarin"}}, {"type": "Feature", "geometry": {"type": "Point", "coordinates": [2.3173195266960644, 48.68619709283594]}, "properties": {"name": "Gravigny Balizy"}}, {"type": "Feature", "geometry": {"type": "Point", "coordinates": [2.332847217178883, 48.67660645389401]}, "properties": {"name": "Petit Vaux"}}, {"type": "Feature", "geometry": {"type": "Point", "coordinates": [2.33524625399574, 48.67059322879169]}, "properties": {"name": "Épinay-sur-Orge"}}, {"type": "Feature", "geometry": {"type": "Point", "coordinates": [2.3553396144571788, 48.66779819873873]}, "properties": {"name": "Parc du Château"}}, {"type": "Feature", "geometry": {"type": "Point", "coordinates": [2.36262193257582, 48.665291775191896]}, "properties": {"name": "Coteaux de l'Orge"}}, {"type": "Feature", "geometry": {"type": "Point", "coordinates": [2.3737138539226508, 48.65869425652456]}, "properties": {"name": "Amédée Gordini"}}, {"type": "Feature", "geometry": {"type": "Point", "coordinates": [2.383308967599923, 48.65215091322678]}, "properties": {"name": "Ferme Neuve"}}, {"type": "Feature", "geometry": {"type": "Point", "coordinates": [2.3956699900896696, 48.6339271237468]}, "properties": {"name": "Bois de Saint-Eutrope"}}, {"type": "Feature", "geometry": {"type": "Point", "coordinates": [2.407332573437208, 48.625107425425874]}, "properties": {"name": "Traité de Rome"}}, {"type": "Feature", "geometry": {"type": "Point", "coordinates": [2.415821100604916, 48.62196503646022]}, "properties": {"name": "Bois Briard"}}, {"type": "Feature", "geometry": {"type": "Point", "coordinates": [2.4254628714315247, 48.62490841088466]}, "properties": {"name": "Évry - Courcouronnes"}}]}