{"type": "FeatureCollection", "features": [{"type": "Feature", "geometry": {"type": "LineString", "coordinates": [[2.095332, 48.901558], [2.095179, 48.901859], [2.09393, 48.904427], [2.093755, 48.904743], [2.093396, 48.905308], [2.093089, 48.905853], [2.092877, 48.906273], [2.09201, 48.908081], [2.091699, 48.908714], [2.091538, 48.909008], [2.091426, 48.90918], [2.090938, 48.909874], [2.090778, 48.910126], [2.090612, 48.910412], [2.088488, 48.914791], [2.088413, 48.914906], [2.088324, 48.914974], [2.088214, 48.915031], [2.088057, 48.915073], [2.08791, 48.915089], [2.087747, 48.915077], [2.084074, 48.914364], [2.083685, 48.914295], [2.082689, 48.914162], [2.08167, 48.913963], [2.08167, 48.913963], [2.080619, 48.913754], [2.080025, 48.913631], [2.079116, 48.913433], [2.078028, 48.913212], [2.07713, 48.912979], [2.076802, 48.912907], [2.074926, 48.912548], [2.074775, 48.912506], [2.074665, 48.91246], [2.074561, 48.912395], [2.074464, 48.912304], [2.074409, 48.912216], [2.074393, 48.91217], [2.07437, 48.912048], [2.074343, 48.91151], [2.074349, 48.911377], [2.074376, 48.91119], [2.074544, 48.910568], [2.074568, 48.910343], [2.074555, 48.91011], [2.074449, 48.909237], [2.074426, 48.909111], [2.074379, 48.909], [2.074299, 48.908909], [2.074235, 48.908859], [2.074076, 48.908772], [2.073386, 48.908504], [2.073277, 48.908432], [2.073223, 48.908382], [2.073159, 48.908302], [2.073116, 48.908215], [2.0731, 48.908134], [2.073038, 48.905071], [2.072992, 48.904354], [2.073019, 48.903816], [2.073003, 48.903095], [2.073003, 48.903095], [2.072974, 48.901573], [2.072945, 48.90057], [2.072903, 48.900249], [2.072839, 48.899975], [2.072787, 48.899807], [2.072686, 48.899551], [2.072566, 48.899311], [2.07244, 48.899086], [2.07117, 48.896935], [2.07028, 48.895393], [2.070173, 48.895184], [2.070121, 48.895065], [2.070022, 48.894787], [2.06998, 48.894642], [2.06998, 48.894642], [2.06991, 48.89431], [2.069883, 48.894054], [2.069878, 48.893913], [2.069886, 48.89365], [2.069905, 48.893459], [2.069966, 48.89315], [2.070021, 48.89296], [2.070115, 48.892708], [2.070246, 48.892422], [2.070406, 48.892147], [2.070521, 48.891979], [2.070621, 48.891842], [2.070853, 48.891548], [2.071112, 48.891285], [2.072921, 48.889355], [2.073447, 48.888821], [2.073832, 48.888462], [2.074301, 48.888081], [2.07491, 48.887634], [2.075538, 48.887196], [2.077372, 48.885944], [2.077831, 48.885616], [2.078242, 48.885277], [2.078434, 48.885086], [2.078596, 48.884907], [2.078858, 48.884571], [2.079021, 48.884319], [2.079101, 48.884171], [2.079188, 48.883991], [2.079267, 48.883801], [2.079323, 48.883636], [2.079402, 48.88335], [2.079449, 48.883083], [2.079477, 48.882687], [2.079463, 48.882378], [2.07943, 48.882057], [2.0794, 48.881855], [2.079354, 48.881565], [2.07931, 48.881367], [2.07931, 48.881367], [2.079259, 48.881168], [2.079177, 48.880928], [2.079035, 48.880623], [2.078938, 48.880432], [2.078792, 48.880199], [2.078604, 48.879948], [2.078489, 48.879814], [2.078369, 48.879677], [2.078068, 48.879383], [2.076259, 48.877789], [2.076004, 48.877571], [2.075394, 48.877098], [2.074508, 48.876457], [2.072557, 48.875069], [2.072025, 48.874699], [2.071319, 48.874187], [2.070486, 48.873569], [2.070184, 48.873325], [2.069857, 48.873039], [2.069155, 48.872471], [2.069155, 48.872471], [2.068736, 48.872139], [2.068368, 48.871891], [2.068182, 48.871777], [2.067791, 48.871559], [2.067376, 48.871365], [2.06716, 48.871277], [2.066715, 48.871113], [2.066252, 48.870972], [2.065774, 48.870853], [2.065284, 48.870758], [2.064784, 48.870689], [2.064278, 48.870644], [2.064024, 48.870632], [2.063513, 48.870625], [2.063004, 48.87064], [2.062497, 48.870686], [2.062015, 48.870743], [2.059758, 48.871075], [2.058445, 48.871246], [2.057932, 48.871284], [2.057403, 48.871307], [2.056907, 48.871296], [2.05665, 48.871277], [2.056133, 48.871227], [2.05564, 48.871155], [2.055145, 48.871052], [2.054673, 48.870922], [2.054438, 48.87085], [2.053984, 48.870686], [2.05355, 48.870506], [2.053337, 48.870407], [2.052951, 48.870197], [2.052752, 48.870075], [2.052363, 48.869812], [2.052218, 48.869705], [2.051906, 48.869438], [2.051616, 48.869152], [2.051371, 48.868855], [2.051265, 48.868713], [2.05106, 48.868389], [2.050976, 48.868233], [2.050902, 48.868069], [2.050822, 48.867855], [2.050731, 48.867573], [2.050716, 48.8675], [2.050716, 48.8675], [2.050669, 48.867229], [2.050653, 48.867065], [2.050647, 48.866894], [2.05065, 48.866615], [2.050677, 48.866398], [2.050719, 48.86618], [2.050868, 48.865612], [2.051121, 48.8647], [2.051256, 48.864243], [2.051304, 48.864014], [2.05133, 48.863808], [2.051349, 48.863445], [2.051341, 48.863297], [2.051318, 48.863102], [2.051249, 48.862759], [2.051207, 48.862606], [2.051149, 48.862442], [2.05105, 48.862217], [2.050966, 48.862049], [2.05086, 48.861862], [2.050683, 48.861591], [2.050157, 48.860935], [2.048415, 48.859055], [2.048173, 48.858757], [2.047923, 48.858376], [2.047726, 48.857998], [2.047646, 48.857807], [2.047582, 48.857635], [2.04751, 48.85733], [2.04747, 48.857063], [2.047457, 48.85675], [2.047471, 48.856483], [2.047507, 48.856209], [2.047545, 48.856037], [2.047629, 48.855755], [2.047685, 48.855595], [2.047817, 48.855312], [2.047886, 48.855183], [2.048044, 48.854927], [2.048133, 48.854805], [2.048368, 48.854507], [2.049131, 48.853642], [2.050596, 48.852013], [2.051681, 48.850784], [2.053051, 48.849258], [2.054159, 48.847977], [2.056582, 48.845261], [2.05827, 48.843388], [2.058654, 48.843014], [2.058885, 48.842812], [2.059174, 48.842587], [2.059511, 48.842346], [2.059808, 48.842152], [2.060164, 48.841942], [2.060493, 48.841766], [2.060814, 48.84161], [2.06121, 48.841434], [2.061651, 48.841259], [2.062051, 48.841114], [2.062051, 48.841114], [2.062373, 48.841015], [2.063517, 48.840717], [2.069341, 48.839336], [2.069764, 48.839226], [2.070455, 48.839024], [2.070993, 48.83884], [2.07154, 48.838638], [2.072186, 48.838364], [2.072564, 48.838188], [2.072849, 48.838047], [2.073442, 48.837727], [2.073746, 48.837551], [2.074058, 48.837353], [2.074778, 48.836864], [2.074778, 48.836864], [2.077612, 48.834873], [2.079578, 48.833485], [2.080004, 48.833176], [2.080429, 48.832832], [2.080831, 48.83247], [2.081335, 48.831966], [2.081825, 48.831383], [2.082059, 48.831059], [2.082311, 48.830673], [2.08245, 48.830448], [2.082574, 48.830231], [2.082698, 48.829983], [2.082814, 48.829723], [2.082973, 48.8293], [2.083117, 48.828827], [2.083218, 48.828365], [2.083283, 48.827873], [2.0833, 48.82761], [2.08331, 48.827282], [2.083292, 48.82682], [2.083234, 48.826214], [2.083136, 48.825562], [2.082989, 48.824844], [2.082866, 48.824356], [2.082649, 48.823635], [2.082435, 48.823051], [2.082132, 48.822353], [2.080978, 48.82], [2.079113, 48.816319], [2.078952, 48.815945], [2.078757, 48.815392], [2.078688, 48.815159], [2.078601, 48.814766], [2.078601, 48.814766], [2.077222, 48.806366], [2.077222, 48.806366], [2.076867, 48.804207], [2.076829, 48.803932], [2.076815, 48.803753], [2.076813, 48.803463], [2.07682, 48.803333], [2.076841, 48.803154], [2.076884, 48.802921], [2.076914, 48.802795], [2.077021, 48.802475], [2.077183, 48.802113], [2.077254, 48.801979], [2.077348, 48.801823], [2.077476, 48.801636], [2.07764, 48.801422], [2.077826, 48.801212], [2.077932, 48.801105], [2.078199, 48.800861], [2.079919, 48.799469], [2.080022, 48.799362], [2.080084, 48.799267], [2.080099, 48.799221], [2.080115, 48.79916], [2.080117, 48.799095], [2.08011, 48.79903], [2.080094, 48.798965], [2.080038, 48.798862], [2.080001, 48.798813], [2.079958, 48.798767], [2.079848, 48.798683], [2.079715, 48.798615], [2.079586, 48.798573], [2.079511, 48.798553], [2.079367, 48.798534], [2.079276, 48.798531], [2.079008, 48.798542], [2.075459, 48.79892], [2.074713, 48.798977]]}, "properties": {"id": "tram-13", "branchId": "tram-13::0", "termini": "Saint-Germain-en-Laye - Saint-Cyr", "source": "Ile-de-France Mobilites GTFS (data.iledefrance-mobilites.fr), Mobility License"}}, {"type": "Feature", "geometry": {"type": "LineString", "coordinates": [[2.095332, 48.901558], [2.095179, 48.901859], [2.09393, 48.904427], [2.093755, 48.904743], [2.093396, 48.905308], [2.093089, 48.905853], [2.092877, 48.906273], [2.09201, 48.908081], [2.091699, 48.908714], [2.091538, 48.909008], [2.091426, 48.90918], [2.090938, 48.909874], [2.090778, 48.910126], [2.090612, 48.910412], [2.088488, 48.914791], [2.088413, 48.914906], [2.088324, 48.914974], [2.088214, 48.915031], [2.088057, 48.915073], [2.08791, 48.915089], [2.087747, 48.915077], [2.084074, 48.914364], [2.083685, 48.914295], [2.082689, 48.914162], [2.08167, 48.913963], [2.08167, 48.913963], [2.080619, 48.913754], [2.080025, 48.913631], [2.079116, 48.913433], [2.078028, 48.913212], [2.07713, 48.912979], [2.076802, 48.912907], [2.074926, 48.912548], [2.074775, 48.912506], [2.074665, 48.91246], [2.074561, 48.912395], [2.074464, 48.912304], [2.074409, 48.912216], [2.074393, 48.91217], [2.07437, 48.912048], [2.074343, 48.91151], [2.074349, 48.911377], [2.074376, 48.91119], [2.074544, 48.910568], [2.074568, 48.910343], [2.074555, 48.91011], [2.074449, 48.909237], [2.074426, 48.909111], [2.074379, 48.909], [2.074299, 48.908909], [2.074235, 48.908859], [2.074076, 48.908772], [2.073386, 48.908504], [2.073277, 48.908432], [2.073223, 48.908382], [2.073159, 48.908302], [2.073116, 48.908215], [2.0731, 48.908134], [2.073038, 48.905071], [2.072992, 48.904354], [2.073019, 48.903816], [2.073003, 48.903095], [2.073003, 48.903095], [2.072974, 48.901573], [2.072945, 48.90057], [2.072903, 48.900249], [2.072839, 48.899975], [2.072787, 48.899807], [2.072686, 48.899551], [2.072566, 48.899311], [2.07244, 48.899086], [2.07117, 48.896935], [2.07028, 48.895393], [2.070173, 48.895184], [2.070121, 48.895065], [2.070022, 48.894787], [2.06998, 48.894642], [2.06998, 48.894642], [2.06991, 48.89431], [2.069883, 48.894054], [2.069878, 48.893913], [2.069886, 48.89365], [2.069905, 48.893459], [2.069966, 48.89315], [2.070021, 48.89296], [2.070115, 48.892708], [2.070246, 48.892422], [2.070406, 48.892147], [2.070521, 48.891979], [2.070621, 48.891842], [2.070853, 48.891548], [2.071112, 48.891285], [2.072921, 48.889355], [2.073447, 48.888821], [2.073832, 48.888462], [2.074301, 48.888081], [2.07491, 48.887634], [2.075538, 48.887196], [2.077372, 48.885944], [2.077831, 48.885616], [2.078242, 48.885277], [2.078434, 48.885086], [2.078596, 48.884907], [2.078858, 48.884571], [2.079021, 48.884319], [2.079101, 48.884171], [2.079188, 48.883991], [2.079267, 48.883801], [2.079323, 48.883636], [2.079402, 48.88335], [2.079449, 48.883083], [2.079477, 48.882687], [2.079463, 48.882378], [2.07943, 48.882057], [2.0794, 48.881855], [2.079354, 48.881565], [2.07931, 48.881367], [2.07931, 48.881367], [2.079259, 48.881168], [2.079177, 48.880928], [2.079035, 48.880623], [2.078938, 48.880432], [2.078792, 48.880199], [2.078604, 48.879948], [2.078489, 48.879814], [2.078369, 48.879677], [2.078068, 48.879383], [2.076259, 48.877789], [2.076004, 48.877571], [2.075394, 48.877098], [2.074508, 48.876457], [2.072557, 48.875069], [2.072025, 48.874699], [2.071319, 48.874187], [2.070486, 48.873569], [2.070184, 48.873325], [2.069857, 48.873039], [2.069155, 48.872471], [2.069155, 48.872471], [2.068736, 48.872139], [2.068368, 48.871891], [2.068182, 48.871777], [2.067791, 48.871559], [2.067376, 48.871365], [2.06716, 48.871277], [2.066715, 48.871113], [2.066252, 48.870972], [2.065774, 48.870853], [2.065284, 48.870758], [2.064784, 48.870689], [2.064278, 48.870644], [2.064024, 48.870632], [2.063513, 48.870625], [2.063004, 48.87064], [2.062497, 48.870686], [2.062015, 48.870743], [2.059758, 48.871075], [2.058445, 48.871246], [2.057932, 48.871284], [2.057403, 48.871307], [2.056907, 48.871296], [2.05665, 48.871277], [2.056133, 48.871227], [2.05564, 48.871155], [2.055145, 48.871052], [2.054673, 48.870922], [2.054438, 48.87085], [2.053984, 48.870686], [2.05355, 48.870506], [2.053337, 48.870407], [2.052951, 48.870197], [2.052752, 48.870075], [2.052363, 48.869812], [2.052218, 48.869705], [2.051906, 48.869438], [2.051616, 48.869152], [2.051371, 48.868855], [2.051265, 48.868713], [2.05106, 48.868389], [2.050976, 48.868233], [2.050902, 48.868069], [2.050822, 48.867855], [2.050731, 48.867573], [2.050716, 48.8675], [2.050716, 48.8675], [2.050669, 48.867229], [2.050653, 48.867065], [2.050647, 48.866894], [2.05065, 48.866615], [2.050677, 48.866398], [2.050719, 48.86618], [2.050868, 48.865612], [2.051121, 48.8647], [2.051256, 48.864243], [2.051304, 48.864014], [2.05133, 48.863808], [2.051349, 48.863445], [2.051341, 48.863297], [2.051318, 48.863102], [2.051249, 48.862759], [2.051207, 48.862606], [2.051149, 48.862442], [2.05105, 48.862217], [2.050966, 48.862049], [2.05086, 48.861862], [2.050683, 48.861591], [2.050157, 48.860935], [2.048415, 48.859055], [2.048173, 48.858757], [2.047923, 48.858376], [2.047726, 48.857998], [2.047646, 48.857807], [2.047582, 48.857635], [2.04751, 48.85733], [2.04747, 48.857063], [2.047457, 48.85675], [2.047471, 48.856483], [2.047507, 48.856209], [2.047545, 48.856037], [2.047629, 48.855755], [2.047685, 48.855595], [2.047817, 48.855312], [2.047886, 48.855183], [2.048044, 48.854927], [2.048133, 48.854805], [2.048368, 48.854507], [2.049131, 48.853642], [2.050596, 48.852013], [2.051681, 48.850784], [2.053051, 48.849258], [2.054159, 48.847977], [2.056582, 48.845261], [2.05827, 48.843388], [2.058654, 48.843014], [2.058885, 48.842812], [2.059174, 48.842587], [2.059511, 48.842346], [2.059808, 48.842152], [2.060164, 48.841942], [2.060493, 48.841766], [2.060814, 48.84161], [2.06121, 48.841434], [2.061651, 48.841259], [2.062051, 48.841114], [2.062051, 48.841114], [2.062373, 48.841015], [2.063517, 48.840717], [2.069341, 48.839336], [2.069764, 48.839226], [2.070455, 48.839024], [2.070993, 48.83884], [2.07154, 48.838638], [2.072186, 48.838364], [2.072564, 48.838188], [2.072849, 48.838047], [2.073442, 48.837727], [2.073746, 48.837551], [2.074058, 48.837353], [2.074778, 48.836864], [2.074778, 48.836864], [2.077612, 48.834873], [2.079578, 48.833485], [2.080004, 48.833176], [2.080429, 48.832832], [2.080831, 48.83247], [2.081335, 48.831966], [2.081825, 48.831383], [2.082059, 48.831059], [2.082311, 48.830673], [2.08245, 48.830448], [2.082574, 48.830231], [2.082698, 48.829983], [2.082814, 48.829723], [2.082973, 48.8293], [2.083117, 48.828827], [2.083218, 48.828365], [2.083283, 48.827873], [2.0833, 48.82761], [2.08331, 48.827282], [2.083292, 48.82682], [2.083234, 48.826214], [2.083136, 48.825562], [2.082989, 48.824844], [2.082866, 48.824356], [2.082649, 48.823635], [2.082435, 48.823051], [2.082132, 48.822353], [2.080978, 48.82], [2.079113, 48.816319], [2.078952, 48.815945], [2.078757, 48.815392], [2.078688, 48.815159], [2.078601, 48.814766], [2.078601, 48.814766], [2.077222, 48.806366], [2.077222, 48.806366], [2.076867, 48.804207], [2.076829, 48.803932], [2.076815, 48.803753], [2.076813, 48.803463], [2.07682, 48.803333], [2.076841, 48.803154], [2.076884, 48.802921], [2.076914, 48.802795], [2.077021, 48.802475], [2.077183, 48.802113], [2.077254, 48.801979], [2.077348, 48.801823], [2.077476, 48.801636], [2.07764, 48.801422], [2.077826, 48.801212], [2.077932, 48.801105], [2.078199, 48.800861], [2.079919, 48.799469], [2.080022, 48.799362], [2.080084, 48.799267], [2.080099, 48.799221], [2.080115, 48.79916], [2.080117, 48.799095], [2.08011, 48.79903], [2.080094, 48.798965], [2.080038, 48.798862], [2.080001, 48.798813], [2.079958, 48.798767], [2.079848, 48.798683], [2.079715, 48.798615], [2.079586, 48.798573], [2.079511, 48.798553], [2.079367, 48.798534], [2.079276, 48.798531], [2.079008, 48.798542], [2.075459, 48.79892], [2.074713, 48.798977]]}, "properties": {"id": "tram-13", "branchId": "tram-13::1", "termini": "Saint-Germain-en-Laye - Saint-Cyr - voie 2", "source": "Ile-de-France Mobilites GTFS (data.iledefrance-mobilites.fr), Mobility License"}}, {"type": "Feature", "geometry": {"type": "Point", "coordinates": [2.0952651369703217, 48.901598748769864]}, "properties": {"name": "Saint-Germain-en-Laye"}}, {"type": "Feature", "geometry": {"type": "Point", "coordinates": [2.0816642323152843, 48.91398706552279]}, "properties": {"name": "Camp des Loges"}}, {"type": "Feature", "geometry": {"type": "Point", "coordinates": [2.0730554490728603, 48.90320062581815]}, "properties": {"name": "Lisière Pereire"}}, {"type": "Feature", "geometry": {"type": "Point", "coordinates": [2.0701067715199954, 48.894912754917016]}, "properties": {"name": "Fourqueux - Bel Air"}}, {"type": "Feature", "geometry": {"type": "Point", "coordinates": [2.0793235307843116, 48.881241804914126]}, "properties": {"name": "Mareil-Marly"}}, {"type": "Feature", "geometry": {"type": "Point", "coordinates": [2.069184858163414, 48.872475520756296]}, "properties": {"name": "L'Etang - Les Sablons"}}, {"type": "Feature", "geometry": {"type": "Point", "coordinates": [2.050735118392639, 48.867402049950684]}, "properties": {"name": "Saint-Nom-la-Bretèche - Forêt de Marly"}}, {"type": "Feature", "geometry": {"type": "Point", "coordinates": [2.061579515094916, 48.8413154314931]}, "properties": {"name": "Noisy-le-Roi"}}, {"type": "Feature", "geometry": {"type": "Point", "coordinates": [2.074821796743467, 48.836822664977326]}, "properties": {"name": "Bailly"}}, {"type": "Feature", "geometry": {"type": "Point", "coordinates": [2.078564708832435, 48.814690169640635]}, "properties": {"name": "Allée Royale"}}, {"type": "Feature", "geometry": {"type": "Point", "coordinates": [2.0773050548633556, 48.80660367020067]}, "properties": {"name": "Les Portes de Saint-Cyr"}}, {"type": "Feature", "geometry": {"type": "Point", "coordinates": [2.0747164220775898, 48.79901049572037]}, "properties": {"name": "Saint-Cyr"}}, {"type": "Feature", "geometry": {"type": "Point", "coordinates": [2.074730353991662, 48.79899261499845]}, "properties": {"name": "Saint-Cyr - voie 2"}}]}