{"type": "FeatureCollection", "features": [{"type": "Feature", "geometry": {"type": "LineString", "coordinates": [[2.376104, 48.843956], [2.378352, 48.84272], [2.37923, 48.842228], [2.379537, 48.842087], [2.37993, 48.841934], [2.380471, 48.841682], [2.380827, 48.841549], [2.381131, 48.841454], [2.382538, 48.840961], [2.382926, 48.840824], [2.383287, 48.840687], [2.383709, 48.840515], [2.383882, 48.84045], [2.384319, 48.840267], [2.385084, 48.839901], [2.385426, 48.839725], [2.387135, 48.83876], [2.38792, 48.838257], [2.388272, 48.838058], [2.388665, 48.837826], [2.389008, 48.837593], [2.389321, 48.837357], [2.38957, 48.837154], [2.390728, 48.836075], [2.391463, 48.835358], [2.391784, 48.835072], [2.391944, 48.834942], [2.392264, 48.834705], [2.392438, 48.834591], [2.392802, 48.834377], [2.394437, 48.833534], [2.394946, 48.833252], [2.395485, 48.832924], [2.396022, 48.832581], [2.396367, 48.832352], [2.396701, 48.832115], [2.397009, 48.83186], [2.397319, 48.831558], [2.397572, 48.831261], [2.397737, 48.831043], [2.397868, 48.830841], [2.397992, 48.830612], [2.398072, 48.830444], [2.398431, 48.829556], [2.39851, 48.829369], [2.398644, 48.82909], [2.398776, 48.828876], [2.398984, 48.828583], [2.399102, 48.828434], [2.399204, 48.828316], [2.399457, 48.828056], [2.399928, 48.827644], [2.401397, 48.826477], [2.40172, 48.826237], [2.401959, 48.826069], [2.402274, 48.825859], [2.402756, 48.825565], [2.403059, 48.825394], [2.403394, 48.825214], [2.403671, 48.825066], [2.403951, 48.824932], [2.404555, 48.824657], [2.405168, 48.824402], [2.406838, 48.823792], [2.407603, 48.823486], [2.408149, 48.823246], [2.408853, 48.822899], [2.409163, 48.822731], [2.409642, 48.822453], [2.410389, 48.821999], [2.410873, 48.821686], [2.411456, 48.821278], [2.412193, 48.820736], [2.413045, 48.820076], [2.413331, 48.819839], [2.413668, 48.81953], [2.413875, 48.819321], [2.414112, 48.819061], [2.414383, 48.818726], [2.414734, 48.818237], [2.415092, 48.817699], [2.41553, 48.817089], [2.416342, 48.815918], [2.41703, 48.814957], [2.417209, 48.81472], [2.417468, 48.814404], [2.41781, 48.814014], [2.418062, 48.813744], [2.418364, 48.813435], [2.418765, 48.813046], [2.419195, 48.812649], [2.419673, 48.812241], [2.420012, 48.81197], [2.420658, 48.811493], [2.422053, 48.810478], [2.422437, 48.810165], [2.422657, 48.809971], [2.422917, 48.809723], [2.423117, 48.809517], [2.423419, 48.809174], [2.42378, 48.808674], [2.423933, 48.80843], [2.424141, 48.808044], [2.424349, 48.807587], [2.425559, 48.804699], [2.425868, 48.803932], [2.426223, 48.802963], [2.426501, 48.802307], [2.426501, 48.802307], [2.426799, 48.801624], [2.427007, 48.801216], [2.427265, 48.800785], [2.427492, 48.800446], [2.427735, 48.800114], [2.428784, 48.798782], [2.428931, 48.798592], [2.429202, 48.798206], [2.429402, 48.797878], [2.429563, 48.797573], [2.429682, 48.797314], [2.429816, 48.79697], [2.429857, 48.796844], [2.429928, 48.796597], [2.430021, 48.796181], [2.430051, 48.795982], [2.430095, 48.795475], [2.430121, 48.794819], [2.430173, 48.794106], [2.430246, 48.793652], [2.430364, 48.793179], [2.430426, 48.792976], [2.43064, 48.7924], [2.43125, 48.790901], [2.431556, 48.790249], [2.431818, 48.789715], [2.432038, 48.789238], [2.432117, 48.789047], [2.432117, 48.789047], [2.432232, 48.788773], [2.432353, 48.788445], [2.432764, 48.787197], [2.433219, 48.78595], [2.433336, 48.785698], [2.433887, 48.784336], [2.434256, 48.783367], [2.434637, 48.782272], [2.434868, 48.781559], [2.434925, 48.781361], [2.435011, 48.780991], [2.435078, 48.780609], [2.43512, 48.78027], [2.43523, 48.779167], [2.435282, 48.778816], [2.435332, 48.778553], [2.435464, 48.777981], [2.435754, 48.776814], [2.435874, 48.776283], [2.435962, 48.775845], [2.436011, 48.775536], [2.436068, 48.775055], [2.436107, 48.774502], [2.436111, 48.773846], [2.436098, 48.773598], [2.43606, 48.773232], [2.436004, 48.772926], [2.435923, 48.772606], [2.435842, 48.772346], [2.435781, 48.772179], [2.435651, 48.771862], [2.435519, 48.771591], [2.43533, 48.771259], [2.435226, 48.771095], [2.435226, 48.771095], [2.435089, 48.770889], [2.434454, 48.770004], [2.434222, 48.769642], [2.434111, 48.769447], [2.433924, 48.769081], [2.433833, 48.768867], [2.433703, 48.768513], [2.433628, 48.768265], [2.433546, 48.76791], [2.433505, 48.767658], [2.43347, 48.767319], [2.433459, 48.766819], [2.433669, 48.76054], [2.433739, 48.759209], [2.433899, 48.756485], [2.433907, 48.755856], [2.433878, 48.753601], [2.433887, 48.753334], [2.433908, 48.753109], [2.433963, 48.752815], [2.433995, 48.752693], [2.434067, 48.752468], [2.434114, 48.752346], [2.434221, 48.752113], [2.434341, 48.751896], [2.434416, 48.751778], [2.434583, 48.751537], [2.434773, 48.751301], [2.435139, 48.750881], [2.436452, 48.749401], [2.436709, 48.7491], [2.437031, 48.748676], [2.437258, 48.748322], [2.437374, 48.748119], [2.437563, 48.747742], [2.437722, 48.747356], [2.437804, 48.747116], [2.43794, 48.746666], [2.438321, 48.745377], [2.438425, 48.745068], [2.438478, 48.744938], [2.438572, 48.744724], [2.438655, 48.744564], [2.438655, 48.744564], [2.438834, 48.74427], [2.439139, 48.743855], [2.440261, 48.742462], [2.440446, 48.742252], [2.440701, 48.741985], [2.441054, 48.741657], [2.441272, 48.74147], [2.441451, 48.741333], [2.44164, 48.741188], [2.443604, 48.739796], [2.443879, 48.739594], [2.444092, 48.739426], [2.444263, 48.739277], [2.444454, 48.739098], [2.444572, 48.738979], [2.444834, 48.738678], [2.445017, 48.738438], [2.445112, 48.7383], [2.445289, 48.738007], [2.445429, 48.73772], [2.445538, 48.737442], [2.445627, 48.737144], [2.445906, 48.735916], [2.445975, 48.73558], [2.44602, 48.735325], [2.446069, 48.734921], [2.446112, 48.734184], [2.446149, 48.733685], [2.446181, 48.733418], [2.446373, 48.732121], [2.446409, 48.73177], [2.446427, 48.731354], [2.446418, 48.731033], [2.446405, 48.730843], [2.44634, 48.73032], [2.446303, 48.730141], [2.446303, 48.730141], [2.44621, 48.729752], [2.446087, 48.72937], [2.445956, 48.729053], [2.44582, 48.728771], [2.445582, 48.728363], [2.445308, 48.727959], [2.444801, 48.727264], [2.444536, 48.726883], [2.444401, 48.726665], [2.44424, 48.726387], [2.443717, 48.725418], [2.443458, 48.724964], [2.443325, 48.724743], [2.443151, 48.724476], [2.442883, 48.724106], [2.442795, 48.723995], [2.442602, 48.723774], [2.442336, 48.723495], [2.442053, 48.723232], [2.441818, 48.72303], [2.441565, 48.722832], [2.441146, 48.72253], [2.440784, 48.72229], [2.440087, 48.721848], [2.439744, 48.721615], [2.439495, 48.721428], [2.439274, 48.721241], [2.439041, 48.721016], [2.43879, 48.720745], [2.438539, 48.720413], [2.438418, 48.720234], [2.438318, 48.720058], [2.438255, 48.719925], [2.438137, 48.719643], [2.438074, 48.719456], [2.438039, 48.719326], [2.437978, 48.719025], [2.437959, 48.718876], [2.437943, 48.718582], [2.437958, 48.718273], [2.437991, 48.718048], [2.438063, 48.717731], [2.438161, 48.717442], [2.438265, 48.717186], [2.438385, 48.716961], [2.438476, 48.716801], [2.438675, 48.716499], [2.438896, 48.716225], [2.439016, 48.716099], [2.439159, 48.715954], [2.439451, 48.715694], [2.439596, 48.715576], [2.439939, 48.715332], [2.440296, 48.715118], [2.440496, 48.715008], [2.440868, 48.714825], [2.441285, 48.714653], [2.441499, 48.714573], [2.441976, 48.71442], [2.442398, 48.714302], [2.442868, 48.714211], [2.443334, 48.71413], [2.443824, 48.714081], [2.444312, 48.71405], [2.445048, 48.714043], [2.447174, 48.714104], [2.447844, 48.714104], [2.448339, 48.714085], [2.448905, 48.714031], [2.449475, 48.713943], [2.449889, 48.713856], [2.450154, 48.713791], [2.450473, 48.713699], [2.450908, 48.713554], [2.45134, 48.713398], [2.453773, 48.712463], [2.454409, 48.712215], [2.455242, 48.711864], [2.45598, 48.711533], [2.456559, 48.711258], [2.45707, 48.710983], [2.457805, 48.710541], [2.458702, 48.709965], [2.459162, 48.709694], [2.459645, 48.709431], [2.460191, 48.709156], [2.460469, 48.709026], [2.461317, 48.708652], [2.462102, 48.708324], [2.462102, 48.708324], [2.462984, 48.707977], [2.464063, 48.707619], [2.464435, 48.707504], [2.464856, 48.707386], [2.465959, 48.707108], [2.468175, 48.70657], [2.469445, 48.706276], [2.470497, 48.70607], [2.471281, 48.705944], [2.471965, 48.705853], [2.473096, 48.705734], [2.473801, 48.705681], [2.474555, 48.705639], [2.475676, 48.70562], [2.476037, 48.70562], [2.476827, 48.705639], [2.477523, 48.705673], [2.477945, 48.7057], [2.478337, 48.70573], [2.479028, 48.705799], [2.479388, 48.705841], [2.480118, 48.70594], [2.481234, 48.706123], [2.482738, 48.706394], [2.483415, 48.706497], [2.483415, 48.706497], [2.484435, 48.706627], [2.485854, 48.706799], [2.486215, 48.706833], [2.486962, 48.706882], [2.487456, 48.706902], [2.488245, 48.706913], [2.488932, 48.706902], [2.490039, 48.706848], [2.490792, 48.706787], [2.491492, 48.706711], [2.492214, 48.7066], [2.492957, 48.706459], [2.49451, 48.706142], [2.49543, 48.705925], [2.495845, 48.705811], [2.496889, 48.705498], [2.497304, 48.705364], [2.497853, 48.705162], [2.498576, 48.70488], [2.499118, 48.704651], [2.499733, 48.704384], [2.500481, 48.704025], [2.501236, 48.703644], [2.501609, 48.703442], [2.502501, 48.702911], [2.502855, 48.702675], [2.503536, 48.702183], [2.503812, 48.701962], [2.504161, 48.701664], [2.505002, 48.700893], [2.505238, 48.700657], [2.506593, 48.699219], [2.506593, 48.699219], [2.507655, 48.698101], [2.508414, 48.697273], [2.51189, 48.693573], [2.512413, 48.693062], [2.513175, 48.692383], [2.51795, 48.68808], [2.518394, 48.687691], [2.518899, 48.687283], [2.519396, 48.686924], [2.519872, 48.686611], [2.520418, 48.686287], [2.521031, 48.685947], [2.521869, 48.685505], [2.522783, 48.685066], [2.523352, 48.684826], [2.530712, 48.681915], [2.53162, 48.681538], [2.533178, 48.680859], [2.533178, 48.680859], [2.534734, 48.680183], [2.535317, 48.679913], [2.535781, 48.679668], [2.536644, 48.679176], [2.537366, 48.678734], [2.537668, 48.678539], [2.538178, 48.678188], [2.538713, 48.677807], [2.539274, 48.677376], [2.539813, 48.676937], [2.540333, 48.676483], [2.540829, 48.676025], [2.541099, 48.675762], [2.541737, 48.675087], [2.542167, 48.674595], [2.542475, 48.674221], [2.543685, 48.672699], [2.544154, 48.672092], [2.544896, 48.671108], [2.54546, 48.670403], [2.547027, 48.66861], [2.547663, 48.667816], [2.547663, 48.667816], [2.547992, 48.667389], [2.548249, 48.66703], [2.548571, 48.666561], [2.548912, 48.666046], [2.549099, 48.665779], [2.549542, 48.665199], [2.550414, 48.664146], [2.550967, 48.663502], [2.551608, 48.662716], [2.555119, 48.658291], [2.556112, 48.657028], [2.556544, 48.656464], [2.556906, 48.655914], [2.557248, 48.655373], [2.557547, 48.654846], [2.557841, 48.654285], [2.558096, 48.653732], [2.560074, 48.649311], [2.560312, 48.648758], [2.560534, 48.648205], [2.560704, 48.647743], [2.561879, 48.644474], [2.562179, 48.643677], [2.562417, 48.64315], [2.562711, 48.642605], [2.563551, 48.641251], [2.563987, 48.640522], [2.564268, 48.640026], [2.564501, 48.639584], [2.564677, 48.639229], [2.565192, 48.638092], [2.565595, 48.637177], [2.565728, 48.636906], [2.566103, 48.636063], [2.567184, 48.633766], [2.568586, 48.631062], [2.568865, 48.630493], [2.569088, 48.630005], [2.569379, 48.629307], [2.569643, 48.628616], [2.569733, 48.628342], [2.569733, 48.628342], [2.569818, 48.628101], [2.570035, 48.627399], [2.570219, 48.626877], [2.570309, 48.626644], [2.570751, 48.625626], [2.576799, 48.612068], [2.577523, 48.610386], [2.577773, 48.609863], [2.584122, 48.5956], [2.584122, 48.5956], [2.586288, 48.590729], [2.586594, 48.589973], [2.586792, 48.589409], [2.587967, 48.585587], [2.588115, 48.585072], [2.588813, 48.582829], [2.589142, 48.581795], [2.589495, 48.580589], [2.590032, 48.578823], [2.592398, 48.571121], [2.592738, 48.570068], [2.593889, 48.566856], [2.594023, 48.566528], [2.594359, 48.565765], [2.594479, 48.565514], [2.594479, 48.565514], [2.594906, 48.564648], [2.595308, 48.563908], [2.595482, 48.563614], [2.595973, 48.562824], [2.596212, 48.562469], [2.596665, 48.561867], [2.596931, 48.561565], [2.597298, 48.561165], [2.597749, 48.560711], [2.598289, 48.560204], [2.598888, 48.559669], [2.603312, 48.555737], [2.604698, 48.554489], [2.605763, 48.553551], [2.611102, 48.548794], [2.61169, 48.548279], [2.612177, 48.547874], [2.612556, 48.547581], [2.61294, 48.547291], [2.61338, 48.546978], [2.613957, 48.546581], [2.625169, 48.539169], [2.625169, 48.539169], [2.627513, 48.537621], [2.628386, 48.537079], [2.629008, 48.536716], [2.629624, 48.536377], [2.630297, 48.536034], [2.630998, 48.535702], [2.631874, 48.535313], [2.632425, 48.535084], [2.634806, 48.534157], [2.635491, 48.533878], [2.636319, 48.533527], [2.637422, 48.533016], [2.641652, 48.530998], [2.642355, 48.530682], [2.642977, 48.53043], [2.64366, 48.530178], [2.644363, 48.529945], [2.645854, 48.529522], [2.647399, 48.529121], [2.647852, 48.529011], [2.649545, 48.528622], [2.650247, 48.528473], [2.655201, 48.5275], [2.655201, 48.5275], [2.656068, 48.527298], [2.656602, 48.527164], [2.657067, 48.527031], [2.657624, 48.526859], [2.658828, 48.526428], [2.659247, 48.526264], [2.659703, 48.526066], [2.660092, 48.525887], [2.660435, 48.525719], [2.661, 48.525421], [2.661489, 48.525143], [2.662084, 48.524773], [2.662466, 48.524506], [2.66269, 48.524338], [2.663027, 48.524067], [2.663439, 48.523701], [2.663903, 48.523232], [2.664245, 48.52285], [2.664589, 48.5224], [2.664785, 48.522106], [2.664958, 48.521828], [2.665107, 48.521564], [2.665268, 48.521244], [2.665385, 48.520977], [2.665498, 48.520687], [2.665583, 48.520439], [2.665657, 48.52018], [2.665729, 48.51989], [2.665797, 48.519554], [2.666289, 48.516853], [2.666942, 48.513096], [2.667176, 48.511639], [2.667748, 48.508324], [2.667896, 48.507141], [2.667929, 48.506607], [2.668024, 48.500931], [2.668053, 48.49968], [2.668075, 48.498325], [2.668106, 48.497677], [2.668159, 48.497116], [2.668223, 48.49667], [2.668335, 48.496056], [2.668436, 48.495609], [2.668567, 48.495125], [2.668687, 48.494736], [2.668811, 48.494362], [2.669021, 48.493824], [2.669249, 48.493298], [2.669524, 48.492737], [2.669772, 48.492279], [2.670054, 48.491783], [2.67036, 48.491287], [2.670877, 48.490482], [2.67157, 48.48946], [2.671912, 48.488991], [2.672491, 48.488243], [2.673064, 48.487545], [2.673568, 48.486996], [2.67388, 48.486671], [2.674365, 48.486206], [2.674729, 48.485882], [2.675011, 48.485645], [2.675517, 48.485241], [2.675894, 48.484966], [2.676291, 48.484688], [2.676717, 48.484409], [2.67716, 48.484138], [2.678101, 48.483585], [2.684298, 48.480022], [2.68837, 48.477661], [2.691123, 48.476078], [2.69218, 48.475445], [2.69218, 48.475445], [2.705926, 48.466637], [2.70682, 48.466042], [2.707394, 48.465622], [2.707972, 48.465187], [2.72967, 48.447666], [2.732004, 48.445782], [2.732552, 48.445324], [2.733058, 48.444878], [2.733545, 48.44442], [2.734016, 48.443943], [2.734464, 48.443459], [2.734886, 48.442963], [2.735287, 48.442463], [2.735662, 48.441952], [2.735974, 48.441502], [2.73634, 48.440914], [2.736641, 48.440384], [2.736829, 48.440025], [2.737057, 48.439548], [2.737297, 48.438995], [2.737503, 48.43845], [2.737657, 48.438007], [2.737825, 48.437424], [2.737875, 48.437229], [2.738043, 48.436451], [2.738173, 48.435497], [2.738203, 48.435196], [2.738237, 48.434681], [2.738244, 48.434258], [2.738236, 48.433826], [2.738184, 48.433029], [2.738149, 48.432693], [2.738029, 48.431942], [2.737947, 48.431564], [2.737807, 48.430996], [2.737456, 48.429893], [2.737236, 48.42934], [2.736988, 48.428799], [2.736715, 48.428253], [2.736103, 48.427219], [2.735833, 48.426788], [2.735389, 48.426174], [2.734845, 48.42551], [2.734566, 48.42519], [2.733682, 48.424236], [2.73302, 48.423588], [2.732714, 48.423306], [2.729845, 48.42075], [2.729497, 48.420425], [2.729159, 48.420109], [2.728869, 48.419811], [2.728327, 48.41922], [2.728041, 48.41888], [2.72781, 48.418583], [2.727606, 48.418282], [2.727279, 48.41774], [2.727154, 48.417507], [2.727044, 48.417278], [2.726653, 48.416309], [2.726653, 48.416309], [2.726391, 48.415627], [2.726233, 48.415184], [2.726099, 48.414738], [2.72601, 48.414341], [2.725889, 48.413689], [2.725836, 48.413292], [2.72574, 48.412395], [2.725695, 48.411476], [2.725709, 48.410931], [2.725736, 48.410561], [2.725785, 48.410122], [2.725854, 48.409718], [2.725949, 48.409348], [2.72602, 48.409031], [2.726233, 48.408237], [2.72661, 48.407219], [2.72681, 48.406769], [2.72711, 48.406166], [2.727417, 48.405636], [2.727941, 48.404819], [2.728335, 48.404274], [2.7287, 48.403812], [2.728923, 48.403553], [2.729229, 48.403214], [2.729644, 48.402771], [2.730126, 48.402302], [2.730605, 48.401863], [2.731146, 48.401409], [2.731694, 48.400986], [2.732302, 48.400543], [2.73286, 48.400173], [2.733494, 48.399773], [2.733944, 48.399506], [2.734784, 48.399036], [2.735266, 48.398788], [2.735795, 48.398533], [2.736325, 48.398289], [2.736962, 48.398018], [2.7377, 48.397728], [2.738427, 48.397461], [2.738807, 48.397343], [2.739205, 48.397205], [2.739982, 48.396973], [2.740765, 48.396759], [2.74156, 48.396568], [2.742389, 48.396381], [2.743188, 48.396229], [2.743991, 48.396091], [2.744822, 48.395969], [2.745661, 48.39587], [2.746506, 48.39579], [2.763973, 48.394329], [2.763973, 48.394329], [2.768521, 48.393955], [2.77815, 48.393147], [2.779081, 48.39304], [2.779606, 48.392956], [2.779959, 48.392891], [2.780539, 48.392773], [2.781231, 48.392605], [2.781896, 48.392414], [2.782548, 48.392197], [2.783188, 48.39196], [2.783811, 48.391701], [2.784584, 48.391323], [2.784971, 48.391109], [2.785425, 48.390842], [2.785868, 48.390556], [2.786099, 48.3904], [2.78666, 48.389977], [2.78718, 48.38953], [2.787531, 48.389198], [2.787851, 48.388859], [2.788155, 48.388504], [2.788429, 48.388145], [2.788675, 48.387779], [2.7889, 48.387402], [2.790431, 48.384594], [2.790906, 48.383759], [2.791148, 48.383389], [2.791415, 48.383022], [2.791706, 48.382675], [2.792029, 48.382332], [2.79236, 48.382], [2.792565, 48.381817], [2.792733, 48.381672], [2.793358, 48.381184], [2.793522, 48.381065], [2.793948, 48.380783], [2.794436, 48.380486], [2.794975, 48.380196], [2.795403, 48.379978], [2.796012, 48.3797], [2.797539, 48.379025], [2.798304, 48.378654], [2.79915, 48.378231], [2.79915, 48.378231], [2.806398, 48.374599], [2.807105, 48.374222], [2.807579, 48.373932], [2.808072, 48.373589], [2.808346, 48.373383], [2.808609, 48.373165], [2.808767, 48.373024], [2.809158, 48.372643], [2.809427, 48.372349], [2.809578, 48.372166], [2.809937, 48.371689], [2.81021, 48.371231], [2.810348, 48.370964], [2.810454, 48.370735], [2.810565, 48.370441], [2.810671, 48.370121], [2.810748, 48.36982], [2.810822, 48.369415], [2.810854, 48.369087], [2.810867, 48.368687], [2.810855, 48.368412], [2.810838, 48.368217], [2.810806, 48.367973], [2.810737, 48.367638], [2.810666, 48.367352], [2.81052, 48.366928], [2.810377, 48.366589], [2.810202, 48.366253], [2.809993, 48.365894], [2.809766, 48.365566], [2.809518, 48.36525], [2.809216, 48.364914], [2.808973, 48.364662], [2.808651, 48.364365], [2.808506, 48.364243], [2.808165, 48.363976], [2.807978, 48.363838], [2.807597, 48.363579], [2.80719, 48.363331], [2.806768, 48.363098], [2.805968, 48.36269], [2.784293, 48.35194], [2.771377, 48.345543], [2.770735, 48.345207], [2.770143, 48.344883], [2.769597, 48.344559], [2.769067, 48.344227], [2.768548, 48.343887], [2.768046, 48.343536], [2.767557, 48.343182], [2.765232, 48.341331], [2.764576, 48.340843], [2.76383, 48.340347], [2.763232, 48.339977], [2.762686, 48.339661], [2.762113, 48.339352], [2.761534, 48.339058], [2.760942, 48.338776], [2.760303, 48.338493], [2.759819, 48.338295], [2.759231, 48.338074], [2.758589, 48.337849], [2.757937, 48.337635], [2.757271, 48.337433], [2.756596, 48.33725], [2.75591, 48.337082], [2.75523, 48.336929], [2.75454, 48.336792], [2.75382, 48.336662], [2.753122, 48.336555], [2.752407, 48.33646], [2.751856, 48.336395], [2.750978, 48.336315], [2.750242, 48.336266], [2.749529, 48.336235], [2.748799, 48.336216], [2.748075, 48.336216], [2.738539, 48.336449], [2.738539, 48.336449], [2.724969, 48.336792], [2.719237, 48.336929], [2.717542, 48.336937], [2.715838, 48.336914], [2.714666, 48.336872], [2.713418, 48.336811], [2.712577, 48.336758], [2.710883, 48.336628], [2.709196, 48.336456], [2.707475, 48.336254], [2.706333, 48.336094], [2.705515, 48.335968], [2.703859, 48.335686], [2.703051, 48.335537], [2.702283, 48.335384], [2.700663, 48.33503], [2.699862, 48.334846], [2.699059, 48.334652], [2.697584, 48.334267], [2.696353, 48.33392], [2.695802, 48.333755], [2.694478, 48.333344], [2.693714, 48.333092], [2.692469, 48.332661], [2.692469, 48.332661], [2.691574, 48.332329], [2.690895, 48.332058], [2.690228, 48.331783], [2.689213, 48.331333], [2.688255, 48.330872], [2.687254, 48.330357], [2.686428, 48.329891], [2.685784, 48.329506], [2.684748, 48.328846], [2.684246, 48.328503], [2.683264, 48.327778], [2.682784, 48.327408], [2.682094, 48.326847], [2.681868, 48.326653], [2.681431, 48.32626], [2.680981, 48.325836], [2.680534, 48.325405], [2.680133, 48.324993], [2.679747, 48.324581], [2.679386, 48.324169], [2.679038, 48.323742], [2.678695, 48.323299], [2.678156, 48.322559], [2.677746, 48.321949], [2.677441, 48.321468], [2.677151, 48.320972], [2.676642, 48.319981], [2.676415, 48.319473], [2.676201, 48.31897], [2.676011, 48.318462], [2.675881, 48.318085], [2.675718, 48.317574], [2.675549, 48.316952], [2.675436, 48.316463], [2.675339, 48.315983], [2.675196, 48.315025], [2.675141, 48.314404], [2.67512, 48.314045], [2.675104, 48.313587], [2.675107, 48.313099], [2.675125, 48.312618], [2.675159, 48.31213], [2.675208, 48.311646], [2.675275, 48.311161], [2.675353, 48.31068], [2.675623, 48.309376], [2.676463, 48.305515], [2.67837, 48.296619], [2.683601, 48.272377], [2.68396, 48.270935], [2.684039, 48.270668], [2.684132, 48.270401], [2.684216, 48.270187], [2.684395, 48.269787], [2.684594, 48.269382], [2.684735, 48.269127], [2.68494, 48.26878], [2.685183, 48.268402], [2.685378, 48.268127], [2.685604, 48.26783], [2.685604, 48.26783], [2.685747, 48.267647], [2.68604, 48.2673], [2.686272, 48.267044], [2.686764, 48.266544], [2.687185, 48.266148], [2.688219, 48.265266], [2.689047, 48.264576], [2.689425, 48.26424], [2.689768, 48.263908], [2.690094, 48.263573], [2.690392, 48.263214], [2.690676, 48.262852], [2.691111, 48.26223], [2.691889, 48.261082], [2.692125, 48.260693], [2.692321, 48.260319], [2.692492, 48.259933], [2.692634, 48.259533], [2.692751, 48.259136], [2.692821, 48.258778], [2.692867, 48.258373], [2.692899, 48.257969], [2.692918, 48.256943], [2.692948, 48.256348], [2.692989, 48.255974], [2.693024, 48.255737], [2.693128, 48.255272], [2.693247, 48.254879], [2.693395, 48.254486], [2.693571, 48.254101], [2.693873, 48.25351], [2.701596, 48.239029], [2.701775, 48.238682], [2.701865, 48.238487], [2.702026, 48.238098], [2.702092, 48.2379], [2.70221, 48.237503], [2.702259, 48.237301], [2.702298, 48.237099], [2.702373, 48.236496], [2.702446, 48.235817], [2.70268, 48.233315], [2.702749, 48.232826], [2.702846, 48.232342], [2.702902, 48.232101], [2.703117, 48.231392], [2.703257, 48.230995], [2.703352, 48.230755], [2.703521, 48.230373], [2.703701, 48.230011], [2.703911, 48.229626], [2.704047, 48.229397], [2.704047, 48.229397], [2.704218, 48.229111], [2.7048, 48.228195], [2.706405, 48.2257], [2.706711, 48.225208], [2.70697, 48.224758], [2.707294, 48.22414], [2.70767, 48.223347], [2.708799, 48.220695], [2.708995, 48.220192], [2.709168, 48.219685], [2.709312, 48.219219], [2.709516, 48.218441], [2.70959, 48.218082], [2.709628, 48.217716], [2.709643, 48.217354], [2.709624, 48.216988], [2.709577, 48.21664], [2.709351, 48.215385], [2.709241, 48.214626], [2.70922, 48.21426], [2.70923, 48.213898], [2.709267, 48.213539], [2.709332, 48.213177], [2.709425, 48.212818], [2.709546, 48.21246], [2.709692, 48.212112], [2.709864, 48.211769], [2.71007, 48.211418], [2.710285, 48.211105], [2.710534, 48.210781], [2.71081, 48.210461], [2.7111, 48.210163], [2.711373, 48.209915], [2.711981, 48.209408], [2.713237, 48.208405], [2.713559, 48.208122], [2.713876, 48.207825], [2.714167, 48.20752], [2.714437, 48.207199], [2.714681, 48.206871], [2.7149, 48.206535], [2.715092, 48.206196], [2.71526, 48.205845], [2.715402, 48.20549], [2.715509, 48.205135], [2.715592, 48.204769], [2.715655, 48.204407], [2.715682, 48.204041], [2.715688, 48.203686], [2.715672, 48.203136], [2.715543, 48.199158], [2.715541, 48.198624], [2.715549, 48.198425], [2.71559, 48.197998], [2.715637, 48.197697], [2.715727, 48.19725], [2.715837, 48.196815], [2.715961, 48.196419], [2.716099, 48.196026], [2.716272, 48.195633], [2.716455, 48.195274], [2.71668, 48.194878], [2.717013, 48.194359], [2.717252, 48.194016], [2.717535, 48.193657], [2.717815, 48.193336], [2.718292, 48.192833], [2.718671, 48.192474], [2.71907, 48.192123], [2.719496, 48.191788], [2.719949, 48.191452], [2.720448, 48.191113], [2.7349, 48.18182], [2.7349, 48.18182], [2.740832, 48.178005], [2.741223, 48.177746], [2.741646, 48.177452], [2.742205, 48.177036], [2.742709, 48.176647], [2.743126, 48.176304], [2.743571, 48.175919], [2.743991, 48.175526], [2.745315, 48.174221], [2.749568, 48.169998], [2.757662, 48.16198], [2.758526, 48.161114], [2.758949, 48.16066], [2.759339, 48.160206], [2.759681, 48.159775], [2.760008, 48.15934], [2.760283, 48.158951], [2.760554, 48.158543], [2.760887, 48.157997], [2.761117, 48.157593], [2.761384, 48.157097], [2.761624, 48.156597], [2.761836, 48.156086], [2.762027, 48.155579], [2.762197, 48.155052], [2.762348, 48.154537], [2.762469, 48.154022], [2.762572, 48.153492], [2.76264, 48.152988], [2.762716, 48.152229], [2.762729, 48.151924], [2.762748, 48.147171], [2.762748, 48.147171], [2.762866, 48.124195], [2.762877, 48.123795], [2.762904, 48.123455], [2.762958, 48.123066], [2.763036, 48.122707], [2.763135, 48.122353], [2.763264, 48.122005], [2.763396, 48.121696], [2.763464, 48.121552], [2.763594, 48.121315], [2.763795, 48.120975], [2.764013, 48.12064], [2.76428, 48.120281], [2.76458, 48.11993], [2.764895, 48.119595], [2.76525, 48.119255], [2.765626, 48.118935], [2.766013, 48.118637], [2.766423, 48.118328], [2.767615, 48.117481], [2.769219, 48.116322], [2.769742, 48.115921], [2.770069, 48.115654], [2.770487, 48.115284], [2.770807, 48.114975], [2.771214, 48.114544], [2.771542, 48.114162], [2.771839, 48.113777], [2.772122, 48.113365], [2.772376, 48.112957], [2.772614, 48.112534], [2.772815, 48.112114], [2.773002, 48.111694], [2.774006, 48.109177], [2.774169, 48.108746], [2.774433, 48.107964], [2.774561, 48.107395], [2.774618, 48.106979], [2.774692, 48.106033], [2.774718, 48.105591], [2.774755, 48.105137], [2.774765, 48.104725], [2.774755, 48.10434], [2.774707, 48.103916], [2.774651, 48.103596], [2.774581, 48.103294], [2.77451, 48.103027], [2.774392, 48.10265], [2.772043, 48.09565], [2.772043, 48.09565], [2.768976, 48.086521], [2.768426, 48.084919], [2.768104, 48.083931], [2.766835, 48.080143], [2.766569, 48.079197], [2.766396, 48.078384], [2.76551, 48.073795], [2.765398, 48.073269], [2.765278, 48.072788], [2.765142, 48.072334], [2.764975, 48.071838], [2.764792, 48.071369], [2.763316, 48.06773], [2.763047, 48.066986], [2.762972, 48.06675], [2.762831, 48.06625], [2.762766, 48.06599], [2.761012, 48.058704], [2.760861, 48.058155], [2.760701, 48.057678], [2.76052, 48.057213], [2.760338, 48.056805], [2.760217, 48.056557], [2.759733, 48.055653], [2.754051, 48.045242], [2.753879, 48.044941], [2.753577, 48.044456], [2.753313, 48.044086], [2.753034, 48.043728], [2.752727, 48.043381], [2.749767, 48.04026], [2.749376, 48.039837], [2.74905, 48.039455], [2.748747, 48.039047], [2.748359, 48.038464], [2.748038, 48.03796], [2.747235, 48.036678], [2.740403, 48.025883], [2.740133, 48.025436], [2.73988, 48.024982], [2.73965, 48.024525], [2.739417, 48.023979], [2.739269, 48.02359], [2.739116, 48.023109], [2.73899, 48.022636], [2.738889, 48.022152], [2.73882, 48.021706], [2.738775, 48.021187], [2.738748, 48.020699], [2.738748, 48.020206], [2.738775, 48.019772], [2.738816, 48.019402], [2.738874, 48.019043], [2.738952, 48.018684], [2.73905, 48.01833], [2.739435, 48.01709], [2.739625, 48.016506], [2.739761, 48.016113], [2.740189, 48.014942], [2.740912, 48.012894], [2.743087, 48.006889]]}, "properties": {"id": "transilien-r", "branchId": "transilien-r::0", "termini": "Gare de Lyon - Montargis", "source": "Ile-de-France Mobilites GTFS (data.iledefrance-mobilites.fr), Mobility License"}}, {"type": "Feature", "geometry": {"type": "LineString", "coordinates": [[2.94265, 48.379341], [2.941298, 48.379578], [2.940657, 48.379684], [2.940046, 48.379768], [2.939622, 48.379818], [2.939035, 48.379868], [2.93819, 48.379913], [2.937488, 48.379925], [2.936601, 48.379902], [2.935751, 48.379864], [2.934552, 48.379917], [2.934356, 48.379921], [2.933634, 48.37989], [2.93293, 48.379875], [2.932493, 48.379883], [2.932021, 48.379917], [2.931599, 48.379963], [2.931335, 48.380005], [2.931027, 48.380062], [2.930512, 48.38018], [2.930053, 48.380314], [2.929615, 48.380474], [2.929236, 48.380634], [2.928986, 48.380753], [2.928759, 48.380871], [2.928316, 48.381142], [2.927778, 48.381523], [2.926396, 48.382587], [2.925502, 48.383255], [2.925056, 48.383537], [2.924833, 48.383667], [2.924425, 48.383873], [2.924207, 48.383972], [2.923861, 48.384109], [2.92325, 48.384315], [2.922661, 48.384457], [2.922044, 48.384567], [2.921644, 48.384617], [2.921227, 48.384655], [2.920804, 48.384666], [2.920034, 48.384659], [2.919504, 48.384617], [2.919174, 48.384571], [2.91885, 48.384518], [2.918524, 48.384453], [2.918203, 48.38438], [2.917514, 48.384186], [2.914621, 48.383316], [2.909935, 48.381939], [2.907783, 48.381294], [2.904682, 48.380379], [2.903499, 48.380047], [2.902292, 48.379753], [2.901605, 48.379612], [2.897029, 48.378746], [2.897029, 48.378746], [2.893054, 48.377995], [2.892296, 48.377823], [2.891543, 48.377625], [2.890169, 48.377243], [2.888801, 48.376812], [2.888194, 48.376629], [2.887625, 48.376472], [2.88703, 48.376347], [2.886266, 48.376225], [2.885798, 48.376179], [2.885408, 48.376156], [2.885011, 48.376144], [2.883563, 48.376163], [2.873418, 48.3764], [2.873137, 48.376411], [2.872588, 48.376457], [2.872109, 48.376518], [2.868385, 48.37709], [2.86613, 48.377445], [2.865267, 48.377602], [2.864424, 48.377773], [2.863187, 48.378067], [2.862335, 48.378288], [2.861499, 48.378536], [2.859704, 48.379135], [2.854081, 48.381031], [2.849341, 48.382637], [2.848788, 48.382847], [2.84824, 48.383064], [2.84771, 48.383297], [2.84719, 48.383537], [2.846624, 48.383816], [2.846076, 48.384121], [2.84552, 48.384441], [2.844989, 48.384773], [2.842578, 48.386375], [2.842578, 48.386375], [2.841363, 48.387188], [2.84053, 48.387726], [2.839569, 48.388393], [2.837872, 48.389526], [2.837189, 48.389957], [2.836365, 48.39045], [2.835495, 48.390903], [2.83266, 48.392254], [2.830194, 48.393414], [2.829862, 48.393547], [2.829521, 48.393669], [2.829171, 48.393784], [2.828803, 48.393879], [2.828413, 48.393963], [2.827938, 48.394051], [2.827478, 48.394112], [2.827021, 48.394142], [2.826287, 48.394161], [2.825725, 48.394161], [2.822937, 48.394131], [2.817971, 48.394108], [2.817365, 48.394089], [2.816871, 48.394058], [2.81639, 48.394005], [2.815906, 48.39394], [2.815421, 48.393856], [2.81497, 48.393753], [2.814099, 48.393509], [2.813013, 48.393127], [2.809389, 48.391834], [2.808416, 48.391499], [2.807906, 48.391365], [2.807381, 48.391247], [2.806966, 48.391182], [2.80627, 48.391109], [2.805951, 48.391094], [2.805565, 48.391087], [2.80513, 48.391094], [2.804709, 48.391121], [2.804363, 48.391155], [2.803764, 48.391247], [2.803266, 48.391357], [2.802928, 48.391445], [2.802386, 48.391613], [2.802004, 48.391758], [2.801414, 48.392033], [2.800892, 48.392334], [2.800455, 48.392643], [2.799997, 48.393028], [2.79961, 48.393452], [2.799299, 48.393887], [2.799067, 48.394325], [2.798929, 48.394711], [2.798819, 48.395191], [2.798801, 48.395344], [2.798796, 48.395523], [2.798806, 48.395817], [2.798821, 48.395973], [2.798874, 48.396263], [2.798958, 48.396568], [2.800878, 48.401096], [2.800975, 48.401379], [2.801063, 48.401722], [2.801095, 48.401905], [2.801121, 48.402252], [2.801105, 48.402668], [2.801066, 48.402939], [2.800993, 48.40321], [2.800883, 48.403477], [2.800152, 48.404949], [2.799294, 48.406647], [2.799294, 48.406647], [2.79919, 48.406837], [2.799036, 48.407097], [2.79886, 48.40736], [2.798606, 48.407677], [2.798315, 48.407993], [2.797727, 48.408554], [2.793265, 48.412727], [2.792678, 48.413235], [2.792357, 48.413475], [2.792024, 48.4137], [2.791514, 48.414009], [2.790959, 48.414288], [2.790369, 48.414539], [2.789743, 48.414761], [2.789199, 48.414917], [2.788644, 48.415051], [2.788065, 48.415161], [2.787474, 48.415241], [2.786906, 48.415295], [2.786326, 48.415329], [2.785748, 48.415325], [2.785177, 48.415302], [2.784615, 48.415249], [2.784073, 48.415184], [2.781543, 48.414852], [2.780849, 48.414753], [2.780156, 48.414642], [2.779797, 48.414577], [2.779088, 48.414398], [2.777254, 48.413837], [2.776917, 48.413746], [2.776369, 48.413605], [2.77374, 48.413017], [2.7726, 48.412777], [2.771451, 48.412582], [2.770418, 48.412441], [2.769383, 48.412327], [2.76865, 48.41227], [2.767918, 48.412224], [2.767059, 48.412193], [2.766275, 48.412178], [2.765594, 48.412182], [2.764915, 48.412205], [2.764226, 48.412247], [2.763762, 48.412292], [2.763304, 48.412342], [2.76241, 48.412476], [2.761543, 48.412643], [2.759547, 48.413128], [2.758414, 48.413422], [2.757596, 48.413624], [2.757047, 48.413795], [2.756516, 48.41399], [2.755835, 48.414276], [2.755195, 48.4146], [2.754601, 48.414967], [2.754067, 48.415356], [2.753496, 48.415855], [2.75317, 48.416191], [2.752889, 48.416531], [2.752587, 48.416958], [2.752336, 48.417393], [2.752138, 48.417839], [2.752055, 48.418064], [2.751987, 48.418301], [2.751908, 48.418629], [2.751877, 48.418823], [2.751853, 48.41901], [2.751833, 48.419552], [2.751852, 48.419849], [2.751896, 48.420143], [2.751974, 48.42049], [2.752081, 48.42083], [2.752183, 48.421097], [2.752297, 48.421356], [2.752789, 48.422337], [2.753098, 48.423], [2.753223, 48.42334], [2.753318, 48.423683], [2.753372, 48.424011], [2.753392, 48.424335], [2.753391, 48.424545], [2.753374, 48.424751], [2.753305, 48.425159], [2.752887, 48.426846], [2.752703, 48.427708], [2.752661, 48.428154], [2.752652, 48.428596], [2.752683, 48.429146], [2.752756, 48.42968], [2.752835, 48.430035], [2.752958, 48.430443], [2.753046, 48.430695], [2.753046, 48.430695], [2.753219, 48.431114], [2.753486, 48.431648], [2.757149, 48.438004], [2.757725, 48.439018], [2.757984, 48.439461], [2.758248, 48.43988], [2.758528, 48.440292], [2.758928, 48.440811], [2.759254, 48.4412], [2.759735, 48.441723], [2.760728, 48.442719], [2.760728, 48.442719], [2.765763, 48.447746], [2.766092, 48.448109], [2.766251, 48.448299], [2.766375, 48.448483], [2.766607, 48.448849], [2.766787, 48.449234], [2.767061, 48.450035], [2.767149, 48.450348], [2.767424, 48.451244], [2.767585, 48.451668], [2.767774, 48.452068], [2.768191, 48.452808], [2.771045, 48.4576], [2.77131, 48.458057], [2.771486, 48.458427], [2.77166, 48.458832], [2.771812, 48.459248], [2.771934, 48.459667], [2.772125, 48.460556], [2.772407, 48.461937], [2.7727, 48.463432], [2.773218, 48.465912], [2.773373, 48.466709], [2.773427, 48.467113], [2.773455, 48.467579], [2.773458, 48.467903], [2.773446, 48.468292], [2.77342, 48.46859], [2.773384, 48.468884], [2.773332, 48.469154], [2.773239, 48.469593], [2.772809, 48.471172], [2.7727, 48.471542], [2.772457, 48.47229], [2.772309, 48.472641], [2.772158, 48.472946], [2.77183, 48.473537], [2.77164, 48.473843], [2.771363, 48.474258], [2.769681, 48.476673], [2.769011, 48.47765], [2.768649, 48.478153], [2.768252, 48.478649], [2.767813, 48.479164], [2.767463, 48.479546], [2.767076, 48.479931], [2.766671, 48.480305], [2.766249, 48.480686], [2.7658, 48.48106], [2.765203, 48.481518], [2.764022, 48.482342], [2.763081, 48.482899], [2.762693, 48.48312], [2.761883, 48.483536], [2.761214, 48.483856], [2.760533, 48.484173], [2.758975, 48.484913], [2.758537, 48.485115], [2.758081, 48.485313], [2.757558, 48.485523], [2.75667, 48.485832], [2.756131, 48.486], [2.755416, 48.486202], [2.754486, 48.486427], [2.751388, 48.487122], [2.751388, 48.487122], [2.749436, 48.487556], [2.74842, 48.487766], [2.747654, 48.487888], [2.746878, 48.487988], [2.745874, 48.488087], [2.744879, 48.488155], [2.744128, 48.488178], [2.743379, 48.488186], [2.74263, 48.488167], [2.741886, 48.488132], [2.736678, 48.487862], [2.73181, 48.487595], [2.730267, 48.487549], [2.72681, 48.487499], [2.725581, 48.487438], [2.72435, 48.487358], [2.723111, 48.487251], [2.720356, 48.487038], [2.719827, 48.487011], [2.719291, 48.486996], [2.718902, 48.486992], [2.717614, 48.487061], [2.716387, 48.487148], [2.715927, 48.487171], [2.715034, 48.487175], [2.714545, 48.487137], [2.713983, 48.487061], [2.713453, 48.486946], [2.711518, 48.486492], [2.711021, 48.486393], [2.710526, 48.486305], [2.710098, 48.486244], [2.709322, 48.486156], [2.708426, 48.486095], [2.707886, 48.486084], [2.707351, 48.486088], [2.702675, 48.486156], [2.700984, 48.486191], [2.700556, 48.486214], [2.699727, 48.486271], [2.698913, 48.486347], [2.697639, 48.486515], [2.696954, 48.486633], [2.696099, 48.486801], [2.695024, 48.487049], [2.695024, 48.487049], [2.694138, 48.487289], [2.692894, 48.48769], [2.692217, 48.48793], [2.691671, 48.48814], [2.690438, 48.488674], [2.689742, 48.489025], [2.689093, 48.489403], [2.688731, 48.489639], [2.688393, 48.489887], [2.68808, 48.490147], [2.687789, 48.490417], [2.687426, 48.490799], [2.687115, 48.491184], [2.686935, 48.491432], [2.686774, 48.491695], [2.686663, 48.491901], [2.68645, 48.492367], [2.686346, 48.492649], [2.686249, 48.493004], [2.686162, 48.493607], [2.686148, 48.49387], [2.686149, 48.494297], [2.686217, 48.49913], [2.686199, 48.499718], [2.686116, 48.500294], [2.685976, 48.500858], [2.685744, 48.501434], [2.685424, 48.501995], [2.685145, 48.502396], [2.682707, 48.505371], [2.680385, 48.508183], [2.679886, 48.508804], [2.679411, 48.509438], [2.679108, 48.509949], [2.678987, 48.510181], [2.678914, 48.510345], [2.678914, 48.510345], [2.678859, 48.510456], [2.678547, 48.5112], [2.678287, 48.511795], [2.677448, 48.513866], [2.677031, 48.514874], [2.676825, 48.515339], [2.676576, 48.515793], [2.676337, 48.516132], [2.67604, 48.516453], [2.67565, 48.516819], [2.675209, 48.517143], [2.674791, 48.517403], [2.674348, 48.517643], [2.673881, 48.517845], [2.67332, 48.518047], [2.673043, 48.518131], [2.672612, 48.518242], [2.672157, 48.518333], [2.671514, 48.51844], [2.669193, 48.518776], [2.667774, 48.518959], [2.667495, 48.519005], [2.667153, 48.519073], [2.666741, 48.519169], [2.66638, 48.519268], [2.666025, 48.519379], [2.665689, 48.519501], [2.665194, 48.519718], [2.664791, 48.519913], [2.664227, 48.520229], [2.663899, 48.520435], [2.663539, 48.520679], [2.663273, 48.520882], [2.663008, 48.521118], [2.662772, 48.521355], [2.662669, 48.521469], [2.662122, 48.522144], [2.661047, 48.523525], [2.660618, 48.523998], [2.66032, 48.524292], [2.660031, 48.524555], [2.659543, 48.524975], [2.659326, 48.525143], [2.658968, 48.525394], [2.658516, 48.525688], [2.657651, 48.526188], [2.657264, 48.526379], [2.656731, 48.526596], [2.656116, 48.52681], [2.655683, 48.526943], [2.655364, 48.527035], [2.655023, 48.527115], [2.655023, 48.527115], [2.654121, 48.527325], [2.652954, 48.527569], [2.652118, 48.52779], [2.651789, 48.527866], [2.651352, 48.527958], [2.650453, 48.528122], [2.650141, 48.528168], [2.649687, 48.528214], [2.649352, 48.528225], [2.648999, 48.528217], [2.648658, 48.528187], [2.648174, 48.528118], [2.647724, 48.52803], [2.647068, 48.527866], [2.646839, 48.527798], [2.646394, 48.527645], [2.645913, 48.527443], [2.6456, 48.527302], [2.645406, 48.527199], [2.645045, 48.526989], [2.644882, 48.526882], [2.644537, 48.52663], [2.643571, 48.525871], [2.643248, 48.525631], [2.643075, 48.525517], [2.642685, 48.525284], [2.642284, 48.525078], [2.641665, 48.524803], [2.640786, 48.524452], [2.639947, 48.524128], [2.639318, 48.523914], [2.638634, 48.523712], [2.638017, 48.523556], [2.637721, 48.523491], [2.637187, 48.52338], [2.636431, 48.523254], [2.631158, 48.522503], [2.630076, 48.522335], [2.629429, 48.522217], [2.628659, 48.522049], [2.628285, 48.521957], [2.62766, 48.521786], [2.626979, 48.52158], [2.626696, 48.521484], [2.626021, 48.52124], [2.625432, 48.521004], [2.618478, 48.517986], [2.617917, 48.51775], [2.61736, 48.517536], [2.617054, 48.517426], [2.616389, 48.517208], [2.616047, 48.517105], [2.615376, 48.516922], [2.614689, 48.516758], [2.614347, 48.516685], [2.613631, 48.516548], [2.612854, 48.516422], [2.605364, 48.515289], [2.604654, 48.515186], [2.604188, 48.515129], [2.603501, 48.515072], [2.603218, 48.515057], [2.602589, 48.515049], [2.601945, 48.515064], [2.599144, 48.515148], [2.599144, 48.515148], [2.598436, 48.515171], [2.598153, 48.51519], [2.597494, 48.515259], [2.596878, 48.515347], [2.596543, 48.515408], [2.596142, 48.515488], [2.595806, 48.51556], [2.595334, 48.515678], [2.59417, 48.515984], [2.593703, 48.516117], [2.593361, 48.516228], [2.593027, 48.51635], [2.59268, 48.516491], [2.592234, 48.516693], [2.591954, 48.516838], [2.591083, 48.517342], [2.588286, 48.519016], [2.587917, 48.519241], [2.587557, 48.519474], [2.586864, 48.519978], [2.586626, 48.520168], [2.586408, 48.520355], [2.585961, 48.520767], [2.585493, 48.521259], [2.584618, 48.522224], [2.584173, 48.522682], [2.583869, 48.522972], [2.583562, 48.523254], [2.582939, 48.523773], [2.582228, 48.524307], [2.581883, 48.524548], [2.579487, 48.526081], [2.578536, 48.52668], [2.577548, 48.527252], [2.576582, 48.527756], [2.57561, 48.528214], [2.574521, 48.528687], [2.572946, 48.529358], [2.572946, 48.529358], [2.571688, 48.529884], [2.570627, 48.530293], [2.570257, 48.53043], [2.569212, 48.530788], [2.568298, 48.531075], [2.567149, 48.531406], [2.565866, 48.531738], [2.565357, 48.53186], [2.564653, 48.532017], [2.563814, 48.532188], [2.563017, 48.532337], [2.562378, 48.532448], [2.561362, 48.532604], [2.560532, 48.532719], [2.55527, 48.533382], [2.550849, 48.533936], [2.54906, 48.534172], [2.54828, 48.53429], [2.547858, 48.534363], [2.547433, 48.534435], [2.546672, 48.534584], [2.546136, 48.534695], [2.545, 48.534966], [2.545, 48.534966], [2.544028, 48.535233], [2.543194, 48.53548], [2.542578, 48.535679], [2.541957, 48.535892], [2.541163, 48.536182], [2.540493, 48.536446], [2.539917, 48.536686], [2.538922, 48.537144], [2.534016, 48.539505], [2.533653, 48.539688], [2.533232, 48.539917], [2.532874, 48.540142], [2.532538, 48.540382], [2.532072, 48.54076], [2.530874, 48.541866], [2.530454, 48.542271], [2.530258, 48.542473], [2.529836, 48.542946], [2.529424, 48.543442], [2.529249, 48.543674], [2.529101, 48.543888], [2.528827, 48.544308], [2.528716, 48.544483], [2.528494, 48.544872], [2.528402, 48.545055], [2.528296, 48.545288], [2.528238, 48.545444], [2.528148, 48.54575], [2.528099, 48.545971], [2.528063, 48.54631], [2.528061, 48.54668], [2.528239, 48.549686], [2.528301, 48.550304], [2.528333, 48.55048], [2.528381, 48.550678], [2.528431, 48.550842], [2.528554, 48.551159], [2.528638, 48.551338], [2.528756, 48.551559], [2.528838, 48.551697], [2.52908, 48.552048], [2.529197, 48.552204], [2.529445, 48.552502], [2.529679, 48.552757], [2.529814, 48.552895], [2.530012, 48.553078], [2.530275, 48.55331], [2.531698, 48.554455], [2.53508, 48.557148], [2.535537, 48.557487], [2.535848, 48.557701], [2.540049, 48.560524], [2.540488, 48.560829], [2.540717, 48.561005], [2.540983, 48.561222], [2.541166, 48.561382], [2.541459, 48.561684], [2.541692, 48.561954], [2.541805, 48.562103], [2.541907, 48.562241], [2.542017, 48.562408], [2.542186, 48.562702], [2.542264, 48.562866], [2.542408, 48.563213], [2.54247, 48.5634], [2.542566, 48.563766], [2.542608, 48.564056], [2.54263, 48.564503], [2.54263, 48.564503], [2.542607, 48.564865], [2.542561, 48.565197], [2.542507, 48.565422], [2.542398, 48.565773], [2.542284, 48.566044], [2.542146, 48.566319], [2.542003, 48.566555], [2.541902, 48.566704], [2.541803, 48.566849], [2.541615, 48.567097], [2.541379, 48.567364], [2.541217, 48.567528], [2.540931, 48.567787], [2.540652, 48.568008], [2.540297, 48.56826], [2.539986, 48.568459], [2.539598, 48.568684], [2.539204, 48.568882], [2.538785, 48.569061], [2.538151, 48.569298], [2.537609, 48.569481], [2.537001, 48.569672], [2.536385, 48.569851], [2.53576, 48.570019], [2.535139, 48.570175], [2.533871, 48.57045], [2.53323, 48.570576], [2.532216, 48.57074], [2.531423, 48.570847], [2.530833, 48.570915], [2.530054, 48.570995], [2.52959, 48.571033], [2.528972, 48.571072], [2.528075, 48.57111], [2.52711, 48.571129], [2.52615, 48.571121], [2.525747, 48.57111], [2.525175, 48.571091], [2.524747, 48.571064], [2.524206, 48.57103], [2.523577, 48.57098], [2.522922, 48.570915], [2.521751, 48.570766], [2.521315, 48.570702], [2.52041, 48.570549], [2.519705, 48.570412], [2.518554, 48.570156], [2.517704, 48.569939], [2.51732, 48.569832], [2.516612, 48.569622], [2.50888, 48.567257], [2.508044, 48.567024], [2.507453, 48.566872], [2.507113, 48.566788], [2.506254, 48.566597], [2.505767, 48.566494], [2.505091, 48.566372], [2.504427, 48.566254], [2.501093, 48.565708], [2.500098, 48.565552], [2.499683, 48.565491], [2.499428, 48.56546], [2.49905, 48.565426], [2.498709, 48.565407], [2.498245, 48.565392], [2.497494, 48.565395], [2.496992, 48.565418], [2.496713, 48.565441], [2.495775, 48.565544], [2.495376, 48.565594], [2.494376, 48.56575], [2.493534, 48.565914], [2.492464, 48.566162], [2.492464, 48.566162], [2.489352, 48.566967], [2.488845, 48.567104], [2.488246, 48.567287], [2.487782, 48.567444], [2.487435, 48.567574], [2.486827, 48.567825], [2.486413, 48.568008], [2.485771, 48.568329], [2.485498, 48.568474], [2.484882, 48.568844], [2.484299, 48.569241], [2.483252, 48.570011], [2.482389, 48.57066], [2.482074, 48.570927], [2.481757, 48.57122], [2.480857, 48.572102], [2.48009, 48.572876], [2.479788, 48.573246], [2.479573, 48.573563], [2.479573, 48.573563], [2.479361, 48.573956], [2.479235, 48.574238], [2.479074, 48.574715], [2.479017, 48.574944], [2.478767, 48.576122], [2.478713, 48.576347], [2.47861, 48.576698], [2.478472, 48.577042], [2.47839, 48.577209], [2.478259, 48.577435], [2.478108, 48.57766], [2.477898, 48.5779], [2.477624, 48.57819], [2.477202, 48.578571], [2.476632, 48.578976], [2.476331, 48.579155], [2.475947, 48.579338], [2.475307, 48.579609], [2.474684, 48.579819], [2.473185, 48.580212], [2.47062, 48.580921], [2.470072, 48.581089], [2.469737, 48.581207], [2.469488, 48.58131], [2.469194, 48.581444], [2.468767, 48.581665], [2.4685, 48.581825], [2.468194, 48.582027], [2.468007, 48.582165], [2.467829, 48.58231], [2.46756, 48.582561], [2.467316, 48.582806], [2.467128, 48.583031], [2.467049, 48.583138], [2.466975, 48.583241], [2.466753, 48.583603], [2.466635, 48.583851], [2.466547, 48.58408], [2.466477, 48.584309], [2.466424, 48.584541], [2.46639, 48.584774], [2.466375, 48.585011], [2.466377, 48.585243], [2.466392, 48.585415], [2.466439, 48.585754], [2.466614, 48.586571], [2.466673, 48.58688], [2.466705, 48.587128], [2.466718, 48.587383], [2.466716, 48.587498], [2.4667, 48.58773], [2.466685, 48.587849], [2.466634, 48.588093], [2.466548, 48.58839], [2.466461, 48.588615], [2.466407, 48.588737], [2.466239, 48.58905], [2.466026, 48.589371], [2.465922, 48.589504], [2.465752, 48.589703], [2.465468, 48.589989], [2.465135, 48.590271], [2.464876, 48.590466], [2.461895, 48.592533], [2.461517, 48.592804], [2.461517, 48.592804], [2.461117, 48.593105], [2.460874, 48.593323], [2.460677, 48.593517], [2.460429, 48.593803], [2.460343, 48.593918], [2.46012, 48.594261], [2.46001, 48.594467], [2.459912, 48.594677], [2.459854, 48.594822], [2.459764, 48.595116], [2.459712, 48.595356], [2.459685, 48.595531], [2.459619, 48.596214], [2.459255, 48.601223], [2.459238, 48.601707], [2.459251, 48.602024], [2.459282, 48.602264], [2.459305, 48.602379], [2.459362, 48.602589], [2.459438, 48.602821], [2.459593, 48.603176], [2.459783, 48.6035], [2.459888, 48.603653], [2.460134, 48.603966], [2.460313, 48.604168], [2.460626, 48.604462], [2.460847, 48.604637], [2.461345, 48.604977], [2.461609, 48.605137], [2.461816, 48.605251], [2.46261, 48.605637], [2.46261, 48.605637], [2.4635, 48.606049], [2.463847, 48.606216], [2.464291, 48.606457], [2.464778, 48.606758], [2.465222, 48.607063], [2.465645, 48.607372], [2.466535, 48.608055], [2.466937, 48.608387], [2.468327, 48.609585], [2.468938, 48.610119], [2.469413, 48.610561], [2.470291, 48.611427], [2.470828, 48.611942], [2.47228, 48.613216], [2.47228, 48.613216], [2.472553, 48.613445], [2.47324, 48.614063], [2.473913, 48.614697], [2.473979, 48.614769], [2.474083, 48.614906], [2.47427, 48.615211], [2.474326, 48.615337], [2.474414, 48.615585], [2.47446, 48.615799], [2.474478, 48.615982], [2.474479, 48.616192], [2.474454, 48.616421], [2.474409, 48.61665], [2.474345, 48.616871], [2.474268, 48.617046], [2.474098, 48.617371], [2.473915, 48.617634], [2.473741, 48.617836], [2.473395, 48.618153], [2.473048, 48.618416], [2.472565, 48.618725], [2.470827, 48.619781], [2.470201, 48.620167], [2.469581, 48.620571], [2.468395, 48.621384], [2.467802, 48.621834], [2.467473, 48.622108], [2.467146, 48.622402], [2.466605, 48.622936], [2.46413, 48.625664], [2.463204, 48.626621], [2.462221, 48.627537], [2.46107, 48.628468], [2.459863, 48.629326], [2.456995, 48.631165], [2.454016, 48.633183], [2.45263, 48.634182], [2.452219, 48.634491], [2.452219, 48.634491], [2.45029, 48.635998], [2.448429, 48.637589], [2.441242, 48.643848], [2.439242, 48.645584], [2.438616, 48.646118], [2.437971, 48.646637], [2.437247, 48.647171], [2.434833, 48.6488], [2.434833, 48.6488], [2.430381, 48.651802], [2.42958, 48.652298], [2.428628, 48.652832], [2.426514, 48.6539], [2.420863, 48.656704], [2.4196, 48.657272], [2.41856, 48.657703], [2.414329, 48.659294], [2.414329, 48.659294], [2.413018, 48.659786], [2.405816, 48.662529], [2.403958, 48.663437], [2.403265, 48.663822], [2.402479, 48.664284], [2.40214, 48.66449], [2.401618, 48.664829], [2.401043, 48.665222], [2.400147, 48.665878], [2.397704, 48.667759], [2.396508, 48.668644], [2.394939, 48.669857], [2.394473, 48.670197], [2.393648, 48.670841], [2.38656, 48.676243], [2.38656, 48.676243], [2.385292, 48.677212], [2.384694, 48.677696], [2.384208, 48.678143], [2.383962, 48.678387], [2.383627, 48.678745], [2.383221, 48.679222], [2.382918, 48.67963], [2.382736, 48.679893], [2.382523, 48.680229], [2.382277, 48.680656], [2.382111, 48.680992], [2.381989, 48.681267], [2.381819, 48.681683], [2.381734, 48.681915], [2.381613, 48.682316], [2.381562, 48.682518], [2.381518, 48.682747], [2.381459, 48.683311], [2.38145, 48.683689], [2.381468, 48.684376], [2.381503, 48.684902], [2.38153, 48.685169], [2.381594, 48.685505], [2.381681, 48.685863], [2.38189, 48.686634], [2.382104, 48.687389], [2.382256, 48.687817], [2.382367, 48.688061], [2.382574, 48.688454], [2.382694, 48.688648], [2.382928, 48.688988], [2.383059, 48.689159], [2.38341, 48.689568], [2.38341, 48.689568], [2.384077, 48.690331], [2.384418, 48.690697], [2.385472, 48.69173], [2.385734, 48.691998], [2.386223, 48.692547], [2.386864, 48.693291], [2.388084, 48.694668], [2.388761, 48.6954], [2.38986, 48.696522], [2.390284, 48.696983], [2.390589, 48.697388], [2.390749, 48.697636], [2.390949, 48.698025], [2.391109, 48.698433], [2.391575, 48.699707], [2.391798, 48.700203], [2.391924, 48.700436], [2.392121, 48.70076], [2.392609, 48.701462], [2.393042, 48.701981], [2.393439, 48.702385], [2.393764, 48.702679], [2.394203, 48.702984], [2.394666, 48.703266], [2.394825, 48.703354], [2.395416, 48.703625], [2.395804, 48.703773], [2.396523, 48.703991], [2.396973, 48.704094], [2.397403, 48.704174], [2.39801, 48.704258], [2.398951, 48.704353], [2.40154, 48.704563], [2.404667, 48.704834], [2.404992, 48.704868], [2.405574, 48.704945], [2.405931, 48.705006], [2.406652, 48.705151], [2.407259, 48.705296], [2.407546, 48.705376], [2.408176, 48.705563], [2.4085, 48.705673], [2.408825, 48.705788], [2.409112, 48.705898], [2.409616, 48.706116], [2.410067, 48.706329], [2.411582, 48.707134], [2.41389, 48.708317], [2.41389, 48.708317], [2.414995, 48.708881], [2.417266, 48.710072], [2.42005, 48.711601], [2.42241, 48.712822], [2.423706, 48.713474], [2.424548, 48.713871], [2.425101, 48.714096], [2.426128, 48.71447], [2.426659, 48.714684], [2.426863, 48.714775], [2.42742, 48.715031], [2.430604, 48.716599], [2.432664, 48.717556], [2.433003, 48.717701], [2.434282, 48.718185], [2.434577, 48.718304], [2.434897, 48.718449], [2.436155, 48.719055], [2.43734, 48.719597], [2.437884, 48.719864], [2.438195, 48.720032], [2.438647, 48.72031], [2.438888, 48.720478], [2.439448, 48.720913], [2.440455, 48.721733], [2.440923, 48.722088], [2.441834, 48.722752], [2.442151, 48.723007], [2.442343, 48.723175], [2.442605, 48.723434], [2.44288, 48.723755], [2.443003, 48.723923], [2.443319, 48.724403], [2.443559, 48.724823], [2.444299, 48.726204], [2.444463, 48.726486], [2.444817, 48.727039], [2.445252, 48.727654], [2.445471, 48.727951], [2.445709, 48.728291], [2.445901, 48.728588], [2.446023, 48.728794], [2.446197, 48.729145], [2.446315, 48.729439], [2.446436, 48.729809], [2.446511, 48.730122], [2.446511, 48.730122], [2.446561, 48.730438], [2.446578, 48.730587], [2.446594, 48.730831], [2.446602, 48.731117], [2.4466, 48.731644], [2.446552, 48.734379], [2.446515, 48.734898], [2.446408, 48.73568], [2.446366, 48.736042], [2.446348, 48.736282], [2.446343, 48.736485], [2.446346, 48.736656], [2.446434, 48.738174], [2.44642, 48.739433], [2.44635, 48.743496], [2.446331, 48.744141], [2.4463, 48.744568], [2.446211, 48.745445], [2.446124, 48.746159], [2.446021, 48.746723], [2.445925, 48.747154], [2.445415, 48.74902], [2.443913, 48.754921], [2.443819, 48.75531], [2.443676, 48.755848], [2.442307, 48.76123], [2.442138, 48.761822], [2.441987, 48.76231], [2.440123, 48.768242], [2.439961, 48.76873], [2.43984, 48.769062], [2.439747, 48.769291], [2.439549, 48.769733], [2.439269, 48.770279], [2.438855, 48.770966], [2.438022, 48.772224], [2.437741, 48.772686], [2.437392, 48.773338], [2.437138, 48.773914], [2.436983, 48.7743], [2.436827, 48.774731], [2.436705, 48.77512], [2.436591, 48.77557], [2.436359, 48.776676], [2.43626, 48.777069], [2.436138, 48.777435], [2.436036, 48.777702], [2.435196, 48.779613], [2.435035, 48.78014], [2.434616, 48.781708], [2.434458, 48.782265], [2.434289, 48.782822], [2.434047, 48.783554], [2.433777, 48.784317], [2.433575, 48.784847], [2.43338, 48.785385], [2.433283, 48.785679], [2.433167, 48.785988], [2.432595, 48.787426], [2.431947, 48.789021], [2.431947, 48.789021], [2.43165, 48.789757], [2.431151, 48.790867], [2.43054, 48.792381], [2.43033, 48.79295], [2.430236, 48.793259], [2.430162, 48.793568], [2.430096, 48.793934], [2.430072, 48.794113], [2.430041, 48.794449], [2.429972, 48.795471], [2.429944, 48.795788], [2.429888, 48.796185], [2.429859, 48.796345], [2.429789, 48.796638], [2.429722, 48.796856], [2.429553, 48.797291], [2.429328, 48.797741], [2.429125, 48.798073], [2.42894, 48.798336], [2.428649, 48.798729], [2.427464, 48.800243], [2.427176, 48.800636], [2.427053, 48.800816], [2.426797, 48.801228], [2.426676, 48.801456], [2.426403, 48.802059], [2.426314, 48.802273], [2.426314, 48.802273], [2.426137, 48.802719], [2.426058, 48.80294], [2.425745, 48.803913], [2.425624, 48.804264], [2.425506, 48.804569], [2.424252, 48.807568], [2.424131, 48.807827], [2.423903, 48.808266], [2.423665, 48.808651], [2.423435, 48.808968], [2.423137, 48.809334], [2.423009, 48.809475], [2.422818, 48.809677], [2.422565, 48.809925], [2.422345, 48.810127], [2.421973, 48.810429], [2.421569, 48.810734], [2.420245, 48.811695], [2.41993, 48.811928], [2.419594, 48.812199], [2.419096, 48.812626], [2.418592, 48.813091], [2.418335, 48.813343], [2.417897, 48.813793], [2.417668, 48.814041], [2.417299, 48.814468], [2.416938, 48.814926], [2.416244, 48.815907], [2.415404, 48.817112], [2.415166, 48.817432], [2.414681, 48.818123], [2.414539, 48.818314], [2.41422, 48.818703], [2.414055, 48.81889], [2.413627, 48.819336], [2.41318, 48.819763], [2.412724, 48.820168], [2.41238, 48.820461], [2.411835, 48.820896], [2.411553, 48.82111], [2.411086, 48.821445], [2.410665, 48.821732], [2.410312, 48.82196], [2.409388, 48.822517], [2.409101, 48.822681], [2.40858, 48.822956], [2.408245, 48.82312], [2.407695, 48.823372], [2.406955, 48.823669], [2.405477, 48.824211], [2.404902, 48.824436], [2.404549, 48.824581], [2.403891, 48.824879], [2.403529, 48.825058], [2.402972, 48.825352], [2.402325, 48.825733], [2.401816, 48.826069], [2.401321, 48.826435], [2.400885, 48.826778], [2.400417, 48.827126], [2.399853, 48.827522], [2.39959, 48.827724], [2.399287, 48.827999], [2.399018, 48.828281], [2.398744, 48.828617], [2.398585, 48.828854], [2.398422, 48.82914], [2.398344, 48.8293], [2.398164, 48.829727], [2.39798, 48.830196], [2.397873, 48.830437], [2.397761, 48.830643], [2.397703, 48.830734], [2.397516, 48.830994], [2.397374, 48.831161], [2.39713, 48.831409], [2.396743, 48.831787], [2.396585, 48.831928], [2.396449, 48.832035], [2.396217, 48.832203], [2.395386, 48.832756], [2.395047, 48.832973], [2.394755, 48.833149], [2.392688, 48.83429], [2.392318, 48.834515], [2.392143, 48.834629], [2.391795, 48.834888], [2.391491, 48.835144], [2.390329, 48.83622], [2.390157, 48.836426], [2.390077, 48.836555], [2.389929, 48.83683], [2.389861, 48.836933], [2.389777, 48.837044], [2.389652, 48.837185], [2.389417, 48.837418], [2.389156, 48.837643], [2.389005, 48.837761], [2.388812, 48.837902], [2.38858, 48.838055], [2.388309, 48.838215], [2.385212, 48.839977], [2.384858, 48.840149], [2.384634, 48.840248], [2.384169, 48.840427], [2.382895, 48.840874], [2.382538, 48.840961], [2.381131, 48.841454], [2.380827, 48.841549], [2.380471, 48.841682], [2.37993, 48.841934], [2.379537, 48.842087], [2.37923, 48.842228], [2.378352, 48.84272], [2.376104, 48.843956]]}, "properties": {"id": "transilien-r", "branchId": "transilien-r::1", "termini": "Montereau - Gare de Lyon", "source": "Ile-de-France Mobilites GTFS (data.iledefrance-mobilites.fr), Mobility License"}}, {"type": "Feature", "geometry": {"type": "Point", "coordinates": [2.376365660931201, 48.84340211646564]}, "properties": {"name": "Gare de Lyon"}}, {"type": "Feature", "geometry": {"type": "Point", "coordinates": [2.65469836071817, 48.527491277248295]}, "properties": {"name": "Melun"}}, {"type": "Feature", "geometry": {"type": "Point", "coordinates": [2.691542568002651, 48.47579827327959]}, "properties": {"name": "Bois-le-Roi"}}, {"type": "Feature", "geometry": {"type": "Point", "coordinates": [2.7267714287220346, 48.416666098921]}, "properties": {"name": "Fontainebleau - Avon"}}, {"type": "Feature", "geometry": {"type": "Point", "coordinates": [2.764187149192088, 48.39428183783365]}, "properties": {"name": "Thomery"}}, {"type": "Feature", "geometry": {"type": "Point", "coordinates": [2.800462899908886, 48.37789836789835]}, "properties": {"name": "Moret - Veneux-les-Sablons"}}, {"type": "Feature", "geometry": {"type": "Point", "coordinates": [2.738336123575285, 48.33649861774928]}, "properties": {"name": "Montigny-sur-Loing"}}, {"type": "Feature", "geometry": {"type": "Point", "coordinates": [2.6918764214147592, 48.332451033464054]}, "properties": {"name": "Bourron-Marlotte - Grez"}}, {"type": "Feature", "geometry": {"type": "Point", "coordinates": [2.6850524330729284, 48.26863657605134]}, "properties": {"name": "Nemours - Saint-Pierre"}}, {"type": "Feature", "geometry": {"type": "Point", "coordinates": [2.7040329448732985, 48.22938980618883]}, "properties": {"name": "Bagneaux-sur-Loing"}}, {"type": "Feature", "geometry": {"type": "Point", "coordinates": [2.7358697259911766, 48.18117871674994]}, "properties": {"name": "Souppes - Château-Landon"}}, {"type": "Feature", "geometry": {"type": "Point", "coordinates": [2.762658376432018, 48.14790552423752]}, "properties": {"name": "Dordives"}}, {"type": "Feature", "geometry": {"type": "Point", "coordinates": [2.7720920761530037, 48.09588996416835]}, "properties": {"name": "Ferrières - Fontenay"}}, {"type": "Feature", "geometry": {"type": "Point", "coordinates": [2.743201130533139, 48.00669739961254]}, "properties": {"name": "Montargis"}}, {"type": "Feature", "geometry": {"type": "Point", "coordinates": [2.942541935520315, 48.37960363189276]}, "properties": {"name": "Montereau"}}, {"type": "Feature", "geometry": {"type": "Point", "coordinates": [2.798915755216375, 48.40726498958356]}, "properties": {"name": "Champagne-sur-Seine"}}]}