{"type": "FeatureCollection", "features": [{"type": "Feature", "geometry": {"type": "LineString", "coordinates": [[2.468483, 49.263954], [2.468076, 49.263588], [2.467891, 49.263409], [2.467229, 49.26273], [2.466977, 49.262486], [2.466689, 49.262142], [2.466412, 49.261829], [2.464455, 49.260078], [2.463259, 49.259022], [2.461239, 49.257248], [2.45984, 49.256046], [2.456261, 49.252911], [2.455285, 49.252007], [2.454511, 49.251259], [2.453461, 49.250191], [2.453101, 49.249809], [2.446713, 49.242916], [2.445717, 49.241856], [2.444608, 49.24065], [2.435018, 49.230331], [2.434386, 49.229626], [2.43393, 49.229095], [2.433366, 49.228394], [2.433031, 49.227955], [2.432688, 49.227489], [2.431864, 49.226288], [2.427761, 49.220219], [2.427335, 49.219646], [2.426995, 49.219246], [2.426486, 49.218704], [2.42623, 49.21846], [2.425855, 49.218124], [2.425499, 49.217831], [2.424941, 49.217403], [2.424277, 49.216949], [2.423936, 49.21674], [2.423527, 49.216503], [2.422986, 49.216209], [2.422689, 49.216061], [2.422048, 49.215759], [2.421649, 49.215591], [2.420396, 49.215092], [2.417728, 49.214046], [2.417728, 49.214046], [2.410786, 49.211327], [2.408884, 49.210571], [2.406779, 49.209755], [2.400966, 49.207478], [2.400036, 49.207127], [2.399363, 49.206898], [2.398798, 49.206726], [2.398304, 49.206589], [2.397872, 49.206478], [2.397014, 49.206276], [2.396053, 49.206093], [2.394874, 49.205917], [2.376323, 49.203327], [2.376323, 49.203327], [2.375525, 49.203197], [2.374748, 49.203037], [2.373932, 49.202835], [2.373444, 49.202694], [2.37281, 49.202488], [2.372144, 49.202248], [2.371383, 49.201927], [2.370818, 49.201653], [2.370238, 49.20134], [2.369494, 49.200901], [2.368674, 49.200306], [2.367938, 49.199692], [2.367477, 49.199245], [2.367072, 49.19878], [2.366796, 49.19841], [2.366458, 49.197906], [2.366317, 49.197681], [2.366179, 49.197426], [2.366035, 49.197132], [2.365903, 49.196831], [2.365827, 49.196632], [2.36575, 49.196419], [2.36564, 49.196056], [2.365588, 49.195854], [2.365506, 49.195446], [2.365452, 49.195015], [2.365442, 49.194759], [2.365442, 49.194317], [2.365511, 49.193153], [2.365946, 49.18832], [2.366384, 49.183292], [2.366833, 49.178337], [2.366877, 49.177593], [2.366882, 49.177181], [2.366859, 49.176563], [2.366801, 49.17601], [2.366667, 49.175087], [2.366463, 49.174217], [2.366205, 49.173351], [2.365911, 49.172569], [2.365533, 49.171783], [2.365079, 49.170898], [2.364567, 49.170078], [2.362575, 49.167137], [2.362575, 49.167137], [2.360165, 49.163548], [2.359486, 49.162636], [2.359109, 49.162189], [2.358689, 49.161766], [2.358191, 49.161301], [2.357608, 49.160801], [2.356995, 49.160332], [2.35625, 49.159821], [2.355731, 49.159508], [2.355058, 49.159126], [2.354379, 49.158779], [2.353682, 49.158459], [2.352936, 49.15815], [2.352446, 49.157967], [2.351818, 49.157749], [2.351413, 49.157619], [2.350975, 49.157486], [2.350182, 49.157272], [2.349836, 49.157185], [2.349003, 49.157005], [2.348553, 49.156918], [2.347594, 49.156761], [2.347072, 49.156693], [2.346586, 49.156635], [2.345807, 49.156567], [2.3364, 49.155914], [2.331652, 49.155598], [2.327333, 49.155281], [2.325967, 49.15519], [2.325967, 49.15519], [2.309957, 49.154072], [2.304704, 49.153709], [2.296286, 49.153118], [2.295656, 49.153069], [2.295065, 49.153008], [2.294377, 49.152916], [2.293735, 49.152809], [2.292886, 49.152637], [2.292218, 49.15247], [2.291371, 49.152206], [2.290778, 49.152016], [2.285024, 49.150101], [2.284445, 49.149899], [2.282928, 49.149345], [2.28218, 49.149086], [2.281148, 49.148769], [2.280631, 49.148621], [2.280396, 49.148544], [2.280087, 49.14843], [2.278831, 49.148041], [2.277766, 49.147686], [2.277766, 49.147686], [2.272978, 49.146091], [2.272557, 49.145988], [2.271782, 49.145725], [2.269338, 49.144833], [2.268623, 49.144592], [2.267963, 49.144379], [2.266708, 49.143993], [2.256942, 49.140736], [2.25433, 49.139854], [2.251973, 49.139076], [2.244236, 49.136494], [2.244236, 49.136494], [2.239089, 49.134769], [2.237092, 49.134109], [2.231051, 49.132076], [2.223443, 49.129551], [2.222835, 49.129326], [2.222261, 49.129093], [2.221701, 49.128838], [2.216952, 49.126583], [2.216371, 49.126301], [2.215829, 49.126022], [2.215354, 49.125767], [2.214904, 49.125488], [2.214531, 49.125244], [2.214288, 49.125065], [2.214027, 49.124863], [2.213603, 49.124519], [2.213206, 49.124157], [2.212833, 49.123791], [2.21249, 49.123405], [2.212171, 49.123009], [2.211886, 49.122608], [2.211626, 49.122192], [2.211404, 49.121769], [2.211235, 49.121384], [2.211101, 49.121025], [2.210996, 49.120674], [2.21091, 49.120316], [2.210832, 49.119827], [2.210486, 49.1171], [2.210298, 49.115746], [2.210263, 49.115555], [2.210207, 49.115311], [2.210159, 49.115128], [2.210017, 49.114651], [2.210017, 49.114651], [2.209858, 49.114262], [2.209712, 49.113934], [2.209596, 49.113708], [2.208957, 49.112553], [2.208764, 49.112129], [2.208599, 49.111698], [2.208472, 49.111259], [2.208383, 49.110817], [2.208319, 49.110371], [2.208011, 49.105], [2.207984, 49.10463], [2.207933, 49.104183], [2.207852, 49.103752], [2.207726, 49.103252], [2.207567, 49.102791], [2.207412, 49.102436], [2.205434, 49.098392], [2.204556, 49.096577], [2.203394, 49.094219], [2.20223, 49.091831], [2.20223, 49.091831], [2.196697, 49.080498], [2.196361, 49.079823], [2.196268, 49.079651], [2.196056, 49.079288], [2.195769, 49.078857], [2.195451, 49.078442], [2.195154, 49.078102], [2.194739, 49.077675], [2.194302, 49.077274], [2.193946, 49.076984], [2.193541, 49.076679], [2.193026, 49.076328], [2.192526, 49.076019], [2.19228, 49.075878], [2.192008, 49.075733], [2.191466, 49.075462], [2.190908, 49.075207], [2.190295, 49.074947], [2.189878, 49.074783], [2.189144, 49.074501], [2.188179, 49.074158], [2.187426, 49.073921], [2.18698, 49.073788], [2.175311, 49.070438], [2.175311, 49.070438], [2.174303, 49.070156], [2.173775, 49.070015], [2.172586, 49.06971], [2.170977, 49.069332], [2.169707, 49.069057], [2.16903, 49.06892], [2.168149, 49.068756], [2.167789, 49.068691], [2.166511, 49.068497], [2.165454, 49.068375], [2.164652, 49.068298], [2.163793, 49.068233], [2.162757, 49.06818], [2.162194, 49.068157], [2.161398, 49.068146], [2.16053, 49.068146], [2.159961, 49.068157], [2.158788, 49.068203], [2.15825, 49.068237], [2.15728, 49.068314], [2.156303, 49.068417], [2.155152, 49.068565], [2.149308, 49.069462], [2.147962, 49.06966], [2.147705, 49.069687], [2.147083, 49.069744], [2.146181, 49.069794], [2.145538, 49.069798], [2.144737, 49.069767], [2.144421, 49.069744], [2.144002, 49.069706], [2.143434, 49.069633], [2.142979, 49.069565], [2.142547, 49.069489], [2.14236, 49.069447], [2.141884, 49.069336], [2.141544, 49.069248], [2.140962, 49.069073], [2.140962, 49.069073], [2.140361, 49.068871], [2.140055, 49.068752], [2.139513, 49.068527], [2.139188, 49.068386], [2.139035, 49.068306], [2.138489, 49.068012], [2.138167, 49.067818], [2.137707, 49.067513], [2.137377, 49.067265], [2.136258, 49.066383], [2.135981, 49.066154], [2.135575, 49.065792], [2.135359, 49.065582], [2.135009, 49.065212], [2.134588, 49.064709], [2.132966, 49.062641], [2.132604, 49.062191], [2.13227, 49.06181], [2.131954, 49.061481], [2.131529, 49.061081], [2.130968, 49.060604], [2.130649, 49.060356], [2.130649, 49.060356], [2.130286, 49.060081], [2.129182, 49.059315], [2.127876, 49.05846], [2.124186, 49.056202], [2.123786, 49.055943], [2.123426, 49.055683], [2.12313, 49.055439], [2.122952, 49.055275], [2.122752, 49.055077], [2.122377, 49.054672], [2.122377, 49.054672], [2.121998, 49.054253], [2.121703, 49.05389], [2.121521, 49.05365], [2.121018, 49.052891], [2.120714, 49.052464], [2.120511, 49.052193], [2.120385, 49.052036], [2.120059, 49.051666], [2.119737, 49.051338], [2.119278, 49.050911], [2.118928, 49.050617], [2.118701, 49.050438], [2.118352, 49.050179], [2.117862, 49.04985], [2.117293, 49.049503], [2.116779, 49.049225], [2.11124, 49.04644], [2.110735, 49.046211], [2.110189, 49.045998], [2.109611, 49.045818], [2.109402, 49.045761], [2.108745, 49.045609], [2.108246, 49.045521], [2.107956, 49.045479], [2.107522, 49.045425], [2.106535, 49.045357], [2.105876, 49.045326], [2.10553, 49.045319], [2.105009, 49.045315], [2.105009, 49.045315], [2.104511, 49.04533], [2.104071, 49.045349], [2.103242, 49.045406], [2.102813, 49.045452], [2.102276, 49.045528], [2.098476, 49.046257], [2.09655, 49.046703], [2.095268, 49.046955]]}, "properties": {"id": "transilien-h", "branchId": "transilien-h::0", "termini": "Creil - Pontoise", "source": "Ile-de-France Mobilites GTFS (data.iledefrance-mobilites.fr), Mobility License"}}, {"type": "Feature", "geometry": {"type": "LineString", "coordinates": [[2.356685, 48.882309], [2.357131, 48.883255], [2.35723, 48.883507], [2.357365, 48.883919], [2.357446, 48.884212], [2.357489, 48.884499], [2.357508, 48.88475], [2.357524, 48.885246], [2.357559, 48.885597], [2.357606, 48.88586], [2.357631, 48.886086], [2.357644, 48.88662], [2.357611, 48.887085], [2.357572, 48.887409], [2.357414, 48.888496], [2.357341, 48.888954], [2.357315, 48.889194], [2.357305, 48.889545], [2.357279, 48.889774], [2.3572, 48.890213], [2.357149, 48.890411], [2.357067, 48.890675], [2.356882, 48.89114], [2.355769, 48.89344], [2.355532, 48.893963], [2.35514, 48.894875], [2.354985, 48.895267], [2.354759, 48.895912], [2.354619, 48.89642], [2.35451, 48.89698], [2.354445, 48.897453], [2.354392, 48.898102], [2.354347, 48.898796], [2.354335, 48.899212], [2.354284, 48.899708], [2.35423, 48.900024], [2.354039, 48.900928], [2.353851, 48.901665], [2.353652, 48.902184], [2.353528, 48.902466], [2.353241, 48.903198], [2.353096, 48.903595], [2.352909, 48.904148], [2.352842, 48.904366], [2.35267, 48.905075], [2.35251, 48.905872], [2.352238, 48.907459], [2.352102, 48.908524], [2.351985, 48.909348], [2.351836, 48.910301], [2.351701, 48.911015], [2.35149, 48.911942], [2.35127, 48.912815], [2.35059, 48.915352], [2.350301, 48.916466], [2.349685, 48.919041], [2.349539, 48.919643], [2.349464, 48.919922], [2.349409, 48.920094], [2.349252, 48.920509], [2.348943, 48.921204], [2.34882, 48.921528], [2.34872, 48.921841], [2.348526, 48.922501], [2.348185, 48.923828], [2.348025, 48.924553], [2.347828, 48.925339], [2.347695, 48.925808], [2.347419, 48.926701], [2.347295, 48.927128], [2.34609, 48.931774], [2.345733, 48.933029], [2.345372, 48.934162], [2.345297, 48.934437], [2.345222, 48.934753], [2.345144, 48.93515], [2.345144, 48.93515], [2.345105, 48.935421], [2.345063, 48.935936], [2.345026, 48.936264], [2.344962, 48.936626], [2.344722, 48.937664], [2.344544, 48.938255], [2.344236, 48.939426], [2.344107, 48.939877], [2.343977, 48.940231], [2.343852, 48.940536], [2.34357, 48.941181], [2.343397, 48.941547], [2.343204, 48.941898], [2.342942, 48.942303], [2.342672, 48.942657], [2.342449, 48.942917], [2.342249, 48.943127], [2.341664, 48.943691], [2.341198, 48.944096], [2.340858, 48.944366], [2.340581, 48.944576], [2.339945, 48.945019], [2.338239, 48.946178], [2.337727, 48.946541], [2.33729, 48.946888], [2.336873, 48.947262], [2.336478, 48.947659], [2.336256, 48.947906], [2.335955, 48.948269], [2.335662, 48.948647], [2.335397, 48.949043], [2.335124, 48.949505], [2.334121, 48.951313], [2.333868, 48.951736], [2.33356, 48.952198], [2.333038, 48.952892], [2.33258, 48.953522], [2.331904, 48.954468], [2.331569, 48.95491], [2.331232, 48.955315], [2.330809, 48.955769], [2.330483, 48.9561], [2.329871, 48.956699], [2.329186, 48.957352], [2.329186, 48.957352], [2.328647, 48.957829], [2.327412, 48.958797], [2.326882, 48.959202], [2.32644, 48.959484], [2.325736, 48.959827], [2.325413, 48.959995], [2.325226, 48.960098], [2.324893, 48.960308], [2.324728, 48.960426], [2.324525, 48.960594], [2.324412, 48.960697], [2.32416, 48.960953], [2.324043, 48.96109], [2.323944, 48.961224], [2.323741, 48.961529], [2.323579, 48.961899], [2.323483, 48.962215], [2.32342, 48.962524], [2.323366, 48.962883], [2.323346, 48.963112], [2.323343, 48.963245], [2.323351, 48.963436], [2.323372, 48.963612], [2.323417, 48.963837], [2.323455, 48.963974], [2.323568, 48.964275], [2.323673, 48.964485], [2.323783, 48.964668], [2.323911, 48.964855], [2.324063, 48.965042], [2.324209, 48.965202], [2.324343, 48.965332], [2.324592, 48.965546], [2.324811, 48.96571], [2.325048, 48.965866], [2.325236, 48.965973], [2.325557, 48.966145], [2.325981, 48.966328], [2.326419, 48.966492], [2.327605, 48.966904], [2.327916, 48.967026], [2.328267, 48.967175], [2.328703, 48.967388], [2.329037, 48.967579], [2.32936, 48.967785], [2.329599, 48.96796], [2.32991, 48.96822], [2.330226, 48.968525], [2.33065, 48.96899], [2.330742, 48.969082], [2.331253, 48.969631], [2.335088, 48.973797], [2.335273, 48.973991], [2.335474, 48.974182], [2.335654, 48.974339], [2.336014, 48.974621], [2.336228, 48.97477], [2.336776, 48.975109], [2.338158, 48.975876], [2.338158, 48.975876], [2.343699, 48.978958], [2.353508, 48.984386], [2.353508, 48.984386], [2.363148, 48.989731], [2.363715, 48.990059], [2.364247, 48.990398], [2.364597, 48.990643], [2.364935, 48.990891], [2.365322, 48.991196], [2.365665, 48.991493], [2.366031, 48.991833], [2.366296, 48.992092], [2.366683, 48.992508], [2.367132, 48.993046], [2.367327, 48.993313], [2.367606, 48.99374], [2.36784, 48.994167], [2.36802, 48.994583], [2.368097, 48.994801], [2.368213, 48.995167], [2.368577, 48.996403], [2.368696, 48.996902], [2.368741, 48.997135], [2.368741, 48.997135], [2.368798, 48.997494], [2.368846, 48.997963], [2.368865, 48.998428], [2.368844, 48.998802], [2.368825, 48.998981], [2.368763, 48.999378], [2.368686, 48.999718], [2.368621, 48.999962], [2.36851, 49.000313], [2.368368, 49.000694], [2.363992, 49.010906], [2.363284, 49.012581], [2.363158, 49.012936], [2.363035, 49.013416], [2.362972, 49.013882], [2.362963, 49.014236], [2.36298, 49.01458], [2.363001, 49.014763], [2.36307, 49.015125], [2.363167, 49.015476], [2.363235, 49.015675], [2.36347, 49.016312], [2.36417, 49.018162], [2.36443, 49.018875], [2.364485, 49.019062], [2.364556, 49.019386], [2.364569, 49.019489], [2.364577, 49.019688], [2.364558, 49.020164], [2.364527, 49.020348], [2.364488, 49.020527], [2.364367, 49.020905], [2.364275, 49.021114], [2.364177, 49.021309], [2.363985, 49.021626], [2.363839, 49.021828], [2.363725, 49.021965], [2.363458, 49.022259], [2.363294, 49.022415], [2.362939, 49.022717], [2.362624, 49.022942], [2.362228, 49.023186], [2.362228, 49.023186], [2.360938, 49.023899], [2.355147, 49.027046], [2.350768, 49.029446], [2.350242, 49.029709], [2.349774, 49.029919], [2.348903, 49.03027], [2.348153, 49.030518], [2.347617, 49.030678], [2.347186, 49.030792], [2.346236, 49.03101], [2.343874, 49.031494], [2.342816, 49.031719], [2.337137, 49.03289], [2.337137, 49.03289], [2.332819, 49.033775], [2.330255, 49.034313], [2.329717, 49.034454], [2.329177, 49.034626], [2.328931, 49.034714], [2.328498, 49.034893], [2.32799, 49.035156], [2.327652, 49.035355], [2.327394, 49.035526], [2.326903, 49.035915], [2.326675, 49.03614], [2.326463, 49.036369], [2.326329, 49.036533], [2.32607, 49.036922], [2.325888, 49.037258], [2.325816, 49.03743], [2.324811, 49.040062], [2.324657, 49.040493], [2.322918, 49.045113], [2.322918, 49.045113], [2.320812, 49.05069], [2.320687, 49.051083], [2.320584, 49.051479], [2.320544, 49.051769], [2.32052, 49.05249], [2.320435, 49.060562], [2.320415, 49.061726], [2.320393, 49.062576], [2.320401, 49.062855], [2.320431, 49.063232], [2.320463, 49.063442], [2.3205, 49.063602], [2.320555, 49.063789], [2.320715, 49.064152], [2.320858, 49.064426], [2.320966, 49.064606], [2.321172, 49.064884], [2.321393, 49.065144], [2.321536, 49.065296], [2.321819, 49.065567], [2.322123, 49.065807], [2.322393, 49.065998], [2.322727, 49.0662], [2.323108, 49.06641], [2.323108, 49.06641], [2.324361, 49.067005], [2.325145, 49.067326], [2.327738, 49.068539], [2.328183, 49.068722], [2.328418, 49.068825], [2.330044, 49.069618], [2.331233, 49.070187], [2.345704, 49.076923], [2.347455, 49.077751], [2.348162, 49.078064], [2.348753, 49.078342], [2.349752, 49.078831], [2.350216, 49.079082], [2.350216, 49.079082], [2.350618, 49.079323], [2.351141, 49.079662], [2.351568, 49.079971], [2.351912, 49.080238], [2.352341, 49.080612], [2.35264, 49.080898], [2.352835, 49.081093], [2.353254, 49.081566], [2.353436, 49.081799], [2.35367, 49.082111], [2.3546, 49.083435], [2.355554, 49.08482], [2.355817, 49.085224], [2.356113, 49.085697], [2.356343, 49.086094], [2.356489, 49.086376], [2.356602, 49.086628], [2.35679, 49.087147], [2.356881, 49.087486], [2.356983, 49.087925], [2.35786, 49.092583], [2.357923, 49.092884], [2.357978, 49.09309], [2.358041, 49.093307], [2.358108, 49.093498], [2.358264, 49.093872], [2.35844, 49.094219], [2.358541, 49.094395], [2.35874, 49.094707], [2.361464, 49.098682], [2.361464, 49.098682], [2.363203, 49.101223], [2.363863, 49.102154], [2.364096, 49.102531], [2.364278, 49.102859], [2.36443, 49.103184], [2.364505, 49.103371], [2.364556, 49.103527], [2.36465, 49.103893], [2.364697, 49.104198], [2.36472, 49.104527], [2.364715, 49.104832], [2.3647, 49.105], [2.364669, 49.105213], [2.364612, 49.10548], [2.364536, 49.105747], [2.364479, 49.1059], [2.364202, 49.106571], [2.362992, 49.109356], [2.362801, 49.109833], [2.362733, 49.110046], [2.362674, 49.110298], [2.362636, 49.110542], [2.362622, 49.110847], [2.362636, 49.111145], [2.362651, 49.111271], [2.362697, 49.11153], [2.362739, 49.111694], [2.362809, 49.111912], [2.362926, 49.112194], [2.36305, 49.112434], [2.363229, 49.112713], [2.363406, 49.112949], [2.363595, 49.113171], [2.36382, 49.1134], [2.363991, 49.113552], [2.36434, 49.113834], [2.365074, 49.114361], [2.365352, 49.114548], [2.3663, 49.115223], [2.36691, 49.115673], [2.367889, 49.116375], [2.367889, 49.116375], [2.369023, 49.117176], [2.369361, 49.117409], [2.36958, 49.117546], [2.369755, 49.117645], [2.370049, 49.117798], [2.370234, 49.117886], [2.370612, 49.118046], [2.370883, 49.118141], [2.371186, 49.11824], [2.371831, 49.118401], [2.372149, 49.118465], [2.372634, 49.118534], [2.373115, 49.118572], [2.373629, 49.118595], [2.374408, 49.118607], [2.376225, 49.118656], [2.379256, 49.118717], [2.380437, 49.118736], [2.38074, 49.118732], [2.381307, 49.118706], [2.381641, 49.118675], [2.382248, 49.118595], [2.382861, 49.118477], [2.383149, 49.118408], [2.384133, 49.11813], [2.384931, 49.117886], [2.385419, 49.117752], [2.385985, 49.117611], [2.386441, 49.117523], [2.386953, 49.117451], [2.387457, 49.117413], [2.388075, 49.11739], [2.389866, 49.117405], [2.390385, 49.117416], [2.390785, 49.117451], [2.39124, 49.117512], [2.391556, 49.117569], [2.39536, 49.118359], [2.396725, 49.118649], [2.397557, 49.118809], [2.39801, 49.118877], [2.398542, 49.118946], [2.398853, 49.118977], [2.39937, 49.119007], [2.400139, 49.119019], [2.400139, 49.119019], [2.400457, 49.119011], [2.401104, 49.118969], [2.401819, 49.118889], [2.4021, 49.118847], [2.402373, 49.118793], [2.403042, 49.118641], [2.403423, 49.118546], [2.40414, 49.118343], [2.412661, 49.115913], [2.413195, 49.115784], [2.413698, 49.115704], [2.413931, 49.115677], [2.414395, 49.115646], [2.414632, 49.115643], [2.415136, 49.11565], [2.415355, 49.115658], [2.416073, 49.115738], [2.416523, 49.115818], [2.41683, 49.115891], [2.417288, 49.116028], [2.417647, 49.116154], [2.420652, 49.11731]]}, "properties": {"id": "transilien-h", "branchId": "transilien-h::1", "termini": "Gare du Nord - Luzarches", "source": "Ile-de-France Mobilites GTFS (data.iledefrance-mobilites.fr), Mobility License"}}, {"type": "Feature", "geometry": {"type": "LineString", "coordinates": [[2.356685, 48.882309], [2.357131, 48.883255], [2.35723, 48.883507], [2.357365, 48.883919], [2.357446, 48.884212], [2.357489, 48.884499], [2.357508, 48.88475], [2.357524, 48.885246], [2.357559, 48.885597], [2.357606, 48.88586], [2.357631, 48.886086], [2.357644, 48.88662], [2.357611, 48.887085], [2.357572, 48.887409], [2.357414, 48.888496], [2.357341, 48.888954], [2.357315, 48.889194], [2.357305, 48.889545], [2.357279, 48.889774], [2.3572, 48.890213], [2.357149, 48.890411], [2.357067, 48.890675], [2.356882, 48.89114], [2.355769, 48.89344], [2.355532, 48.893963], [2.35514, 48.894875], [2.354985, 48.895267], [2.354759, 48.895912], [2.354619, 48.89642], [2.35451, 48.89698], [2.354445, 48.897453], [2.354392, 48.898102], [2.354347, 48.898796], [2.354335, 48.899212], [2.354284, 48.899708], [2.35423, 48.900024], [2.354039, 48.900928], [2.353851, 48.901665], [2.353652, 48.902184], [2.353528, 48.902466], [2.353241, 48.903198], [2.353096, 48.903595], [2.352909, 48.904148], [2.352842, 48.904366], [2.35267, 48.905075], [2.35251, 48.905872], [2.352238, 48.907459], [2.352102, 48.908524], [2.351985, 48.909348], [2.351836, 48.910301], [2.351701, 48.911015], [2.35149, 48.911942], [2.35127, 48.912815], [2.35059, 48.915352], [2.350301, 48.916466], [2.349685, 48.919041], [2.349539, 48.919643], [2.349464, 48.919922], [2.349409, 48.920094], [2.349252, 48.920509], [2.348943, 48.921204], [2.34882, 48.921528], [2.34872, 48.921841], [2.348526, 48.922501], [2.348185, 48.923828], [2.348025, 48.924553], [2.347828, 48.925339], [2.347695, 48.925808], [2.347419, 48.926701], [2.347295, 48.927128], [2.34609, 48.931774], [2.345733, 48.933029], [2.345372, 48.934162], [2.345297, 48.934437], [2.345222, 48.934753], [2.345144, 48.93515], [2.345144, 48.93515], [2.345105, 48.935421], [2.345063, 48.935936], [2.344982, 48.936626], [2.344962, 48.936874], [2.344911, 48.937172], [2.344563, 48.938526], [2.344363, 48.93927], [2.344168, 48.939877], [2.344029, 48.940243], [2.343621, 48.941189], [2.343408, 48.941635], [2.343252, 48.941921], [2.34311, 48.942142], [2.342857, 48.942501], [2.342501, 48.94294], [2.342185, 48.943279], [2.341707, 48.943733], [2.34156, 48.943863], [2.34106, 48.944275], [2.340668, 48.944565], [2.338274, 48.946201], [2.337771, 48.94656], [2.337487, 48.946781], [2.33717, 48.947044], [2.336919, 48.947277], [2.336524, 48.947674], [2.336301, 48.947922], [2.335926, 48.948372], [2.335726, 48.948639], [2.33553, 48.948921], [2.335362, 48.949188], [2.335171, 48.949512], [2.334299, 48.951088], [2.333919, 48.951744], [2.333607, 48.952213], [2.332971, 48.953056], [2.332069, 48.954311], [2.331731, 48.954773], [2.331508, 48.955059], [2.331279, 48.955334], [2.331009, 48.955631], [2.330667, 48.955986], [2.329926, 48.956722], [2.329243, 48.957371], [2.328796, 48.957764], [2.32813, 48.958294], [2.32813, 48.958294], [2.327138, 48.959061], [2.326801, 48.959309], [2.325429, 48.960274], [2.318739, 48.964844], [2.318557, 48.964962], [2.316673, 48.96624], [2.316673, 48.96624], [2.310384, 48.970531], [2.308812, 48.971588], [2.308297, 48.971958], [2.307986, 48.972149], [2.306882, 48.972893], [2.306882, 48.972893], [2.304953, 48.974182], [2.30434, 48.974575], [2.303305, 48.975208], [2.302812, 48.975494], [2.302285, 48.975788], [2.301551, 48.976177], [2.30091, 48.976498], [2.300078, 48.976883], [2.299468, 48.977146], [2.298894, 48.977383], [2.297518, 48.977921], [2.296543, 48.978275], [2.295915, 48.978497], [2.29523, 48.978725], [2.294773, 48.978863], [2.294041, 48.979073], [2.29301, 48.979321], [2.291928, 48.979542], [2.291234, 48.979675], [2.291234, 48.979675], [2.289719, 48.97995], [2.289017, 48.980061], [2.287931, 48.980209], [2.286476, 48.980366], [2.285011, 48.980484], [2.28355, 48.980564], [2.282809, 48.980583], [2.282006, 48.980595], [2.281318, 48.980587], [2.280153, 48.98056], [2.277474, 48.980469], [2.276661, 48.980461], [2.276178, 48.980469], [2.272216, 48.980621], [2.272216, 48.980621], [2.271927, 48.980637], [2.271405, 48.980679], [2.270998, 48.980717], [2.270189, 48.980835], [2.26952, 48.980946], [2.269059, 48.98103], [2.268503, 48.981163], [2.268152, 48.981262], [2.267384, 48.981514], [2.266365, 48.981899], [2.265975, 48.982033], [2.264033, 48.982609], [2.262694, 48.983036], [2.262071, 48.98325], [2.261204, 48.983582], [2.257003, 48.985153], [2.257003, 48.985153], [2.254949, 48.98592], [2.248525, 48.988342], [2.235111, 48.993382], [2.235111, 48.993382], [2.216409, 49.000393], [2.211228, 49.002346], [2.200115, 49.006485], [2.199385, 49.006737], [2.198673, 49.006969], [2.19756, 49.00732], [2.19756, 49.00732], [2.196177, 49.007744], [2.19545, 49.007961], [2.194554, 49.008209], [2.192209, 49.00885], [2.190797, 49.009228], [2.188209, 49.009884], [2.185022, 49.010757], [2.184056, 49.011032], [2.181232, 49.011898], [2.179134, 49.012482], [2.171616, 49.014511], [2.16625, 49.015972], [2.164576, 49.016441], [2.153624, 49.019402], [2.153624, 49.019402], [2.15024, 49.020332], [2.148971, 49.02076], [2.148469, 49.020943], [2.14802, 49.021118], [2.146802, 49.021618], [2.146256, 49.021862], [2.145007, 49.022457], [2.140727, 49.02459], [2.138218, 49.025826], [2.137506, 49.026184], [2.137032, 49.026443], [2.136669, 49.026653], [2.136232, 49.026932], [2.135612, 49.027355], [2.135363, 49.027542], [2.135044, 49.027794], [2.133965, 49.028759], [2.130728, 49.031719], [2.128227, 49.034019], [2.128227, 49.034019], [2.125515, 49.036514], [2.125207, 49.036835], [2.124832, 49.037273], [2.124544, 49.037674], [2.123244, 49.0396], [2.123058, 49.03986], [2.122888, 49.040085], [2.122082, 49.041027], [2.121751, 49.041386], [2.121322, 49.041801], [2.12096, 49.042114], [2.120736, 49.042297], [2.120318, 49.04261], [2.119968, 49.042847], [2.119545, 49.043118], [2.119207, 49.04332], [2.118824, 49.043533], [2.118362, 49.04377], [2.117835, 49.044018], [2.117356, 49.044224], [2.116821, 49.044434], [2.116215, 49.044643], [2.115615, 49.044827], [2.114965, 49.045006], [2.114445, 49.045128], [2.113995, 49.045223], [2.113388, 49.045334], [2.112923, 49.045403], [2.11212, 49.045494], [2.111484, 49.045547], [2.111073, 49.045563], [2.110515, 49.04557], [2.110157, 49.045559], [2.109473, 49.045521], [2.106937, 49.045307], [2.106357, 49.045265], [2.10555, 49.045235], [2.105006, 49.045231], [2.105006, 49.045231], [2.104708, 49.045235], [2.104085, 49.045261], [2.103017, 49.045334], [2.102738, 49.045361], [2.10232, 49.045414], [2.102024, 49.04546], [2.099206, 49.046001], [2.09521, 49.046787]]}, "properties": {"id": "transilien-h", "branchId": "transilien-h::2", "termini": "Gare du Nord - Pontoise", "source": "Ile-de-France Mobilites GTFS (data.iledefrance-mobilites.fr), Mobility License"}}, {"type": "Feature", "geometry": {"type": "LineString", "coordinates": [[2.242564, 49.015545], [2.243098, 49.015152], [2.244923, 49.013783], [2.245476, 49.013355], [2.246088, 49.012836], [2.246229, 49.012703], [2.246492, 49.012428], [2.246747, 49.012115], [2.247031, 49.011791], [2.247564, 49.011158], [2.249091, 49.009251], [2.250346, 49.007717], [2.252473, 49.005077], [2.252675, 49.004837], [2.253923, 49.003265], [2.25949, 48.996361], [2.25949, 48.996361], [2.261714, 48.99361], [2.262054, 48.993156], [2.262177, 48.992985], [2.26234, 48.992729], [2.262478, 48.992493], [2.262713, 48.992054], [2.262811, 48.991848], [2.262948, 48.99152], [2.263017, 48.991337], [2.263182, 48.990807], [2.263427, 48.98996], [2.263427, 48.98996], [2.26415, 48.987484], [2.264444, 48.986504], [2.264457, 48.986443], [2.264707, 48.98563], [2.26522, 48.983902], [2.265281, 48.983753], [2.265389, 48.983543], [2.265515, 48.983341], [2.265673, 48.983131], [2.265832, 48.982937], [2.265933, 48.982826], [2.266057, 48.982704], [2.266232, 48.982552], [2.266452, 48.98238], [2.266749, 48.98217], [2.266994, 48.982025], [2.267302, 48.981865], [2.267606, 48.981731], [2.267921, 48.981609], [2.268244, 48.981499], [2.268921, 48.981289], [2.269449, 48.981152], [2.269691, 48.981094], [2.270392, 48.980957], [2.271079, 48.980858], [2.271929, 48.980789], [2.272425, 48.98077], [2.272425, 48.98077], [2.274134, 48.980694], [2.276074, 48.980576], [2.276833, 48.980549], [2.277183, 48.980541], [2.277819, 48.980549], [2.280149, 48.980637], [2.281314, 48.980659], [2.282007, 48.980667], [2.282809, 48.980659], [2.283554, 48.980637], [2.284287, 48.980606], [2.285024, 48.980564], [2.286495, 48.980446], [2.287218, 48.98037], [2.287942, 48.980289], [2.289057, 48.980141], [2.291636, 48.979721], [2.291636, 48.979721], [2.292326, 48.979591], [2.29307, 48.979427], [2.293417, 48.979343], [2.294096, 48.97916], [2.294825, 48.978947], [2.295287, 48.978802], [2.295976, 48.978573], [2.296618, 48.978348], [2.298029, 48.977825], [2.299528, 48.977219], [2.30045, 48.97681], [2.301222, 48.976448], [2.302363, 48.975853], [2.302894, 48.975563], [2.303379, 48.975281], [2.303849, 48.974987], [2.304413, 48.974621], [2.305127, 48.97414], [2.306917, 48.972908], [2.306917, 48.972908], [2.308027, 48.972172], [2.31042, 48.970554], [2.313474, 48.968468], [2.317669, 48.965611], [2.317669, 48.965611], [2.3237, 48.961506], [2.325468, 48.960293], [2.326043, 48.959888], [2.326446, 48.959637], [2.326872, 48.959358], [2.327877, 48.958652], [2.328235, 48.958385], [2.32886, 48.957905], [2.329429, 48.957439], [2.329429, 48.957439], [2.329836, 48.957077], [2.331062, 48.955875], [2.331424, 48.955498], [2.331565, 48.955334], [2.331806, 48.955036], [2.332169, 48.954548], [2.333097, 48.953232], [2.33328, 48.952965], [2.333903, 48.952003], [2.334164, 48.951576], [2.334293, 48.951347], [2.335116, 48.949825], [2.335288, 48.949524], [2.33548, 48.949215], [2.335659, 48.948944], [2.335894, 48.948616], [2.336211, 48.948196], [2.336407, 48.94796], [2.336634, 48.947704], [2.337022, 48.947311], [2.33727, 48.947086], [2.337582, 48.946827], [2.337861, 48.946609], [2.338356, 48.946259], [2.340786, 48.944603], [2.341157, 48.944336], [2.341625, 48.94397], [2.341849, 48.943768], [2.342235, 48.943394], [2.342595, 48.942993], [2.342959, 48.942535], [2.343226, 48.942154], [2.343364, 48.941936], [2.343609, 48.941494], [2.343747, 48.941208], [2.344085, 48.940407], [2.344246, 48.939995], [2.344325, 48.939774], [2.344478, 48.939281], [2.344615, 48.938778], [2.345078, 48.936935], [2.345143, 48.936611], [2.345272, 48.935757], [2.345377, 48.935173], [2.345377, 48.935173], [2.345542, 48.934464], [2.346169, 48.932178], [2.346409, 48.931271], [2.347136, 48.928406], [2.347467, 48.927128], [2.348235, 48.9245], [2.348476, 48.923538], [2.348565, 48.923126], [2.348715, 48.922497], [2.348869, 48.921921], [2.348961, 48.921623], [2.349032, 48.921421], [2.349146, 48.921143], [2.349466, 48.920422], [2.34961, 48.920025], [2.349646, 48.919903], [2.350202, 48.917599], [2.35063, 48.915771], [2.351794, 48.911373], [2.351911, 48.910862], [2.352018, 48.910336], [2.352174, 48.90947], [2.352235, 48.909004], [2.352335, 48.908043], [2.352395, 48.907585], [2.352504, 48.906952], [2.352737, 48.905827], [2.352983, 48.904827], [2.353126, 48.904305], [2.35325, 48.903744], [2.353329, 48.903259], [2.353373, 48.903046], [2.353435, 48.902851], [2.353545, 48.902561], [2.35374, 48.9021], [2.353898, 48.901672], [2.354096, 48.900921], [2.354284, 48.900036], [2.354344, 48.899723], [2.354418, 48.899185], [2.354431, 48.898972], [2.354448, 48.898102], [2.354464, 48.897758], [2.35453, 48.897209], [2.354582, 48.8969], [2.354663, 48.896469], [2.354756, 48.896095], [2.355017, 48.895351], [2.355356, 48.894485], [2.355577, 48.893974], [2.355818, 48.893444], [2.356929, 48.891148], [2.357046, 48.890873], [2.357153, 48.890564], [2.357269, 48.890125], [2.357312, 48.889889], [2.35771, 48.887314], [2.357731, 48.887089], [2.357744, 48.886524], [2.357735, 48.886177], [2.357679, 48.884869], [2.357596, 48.884258], [2.357552, 48.883865], [2.357485, 48.883533], [2.357429, 48.883335], [2.357354, 48.883106], [2.357026, 48.882187]]}, "properties": {"id": "transilien-h", "branchId": "transilien-h::3", "termini": "Saint-Leu-la-Forêt - Gare du Nord", "source": "Ile-de-France Mobilites GTFS (data.iledefrance-mobilites.fr), Mobility License"}}, {"type": "Feature", "geometry": {"type": "Point", "coordinates": [2.46892902764167, 49.264185555044406]}, "properties": {"name": "Creil"}}, {"type": "Feature", "geometry": {"type": "Point", "coordinates": [2.417071454431694, 49.21379460642065]}, "properties": {"name": "Saint-Leu-d'Esserent"}}, {"type": "Feature", "geometry": {"type": "Point", "coordinates": [2.377341204610025, 49.20347714232073]}, "properties": {"name": "Précy-sur-Oise"}}, {"type": "Feature", "geometry": {"type": "Point", "coordinates": [2.362237794019318, 49.16664871633883]}, "properties": {"name": "Boran-sur-Oise"}}, {"type": "Feature", "geometry": {"type": "Point", "coordinates": [2.32483287423228, 49.15511620671838]}, "properties": {"name": "Bruyères-sur-Oise"}}, {"type": "Feature", "geometry": {"type": "Point", "coordinates": [2.2777997330536137, 49.147582944600785]}, "properties": {"name": "Persan - Beaumont"}}, {"type": "Feature", "geometry": {"type": "Point", "coordinates": [2.242987667830016, 49.136089580289706]}, "properties": {"name": "Champagne-sur-Oise"}}, {"type": "Feature", "geometry": {"type": "Point", "coordinates": [2.209941858169547, 49.11454854558362]}, "properties": {"name": "L'Isle-Adam - Parmain"}}, {"type": "Feature", "geometry": {"type": "Point", "coordinates": [2.2019152338634327, 49.09093718795672]}, "properties": {"name": "Valmondois"}}, {"type": "Feature", "geometry": {"type": "Point", "coordinates": [2.174916445478343, 49.07034498316611]}, "properties": {"name": "Auvers-sur-Oise"}}, {"type": "Feature", "geometry": {"type": "Point", "coordinates": [2.1410848292610347, 49.069127824401804]}, "properties": {"name": "Chaponval"}}, {"type": "Feature", "geometry": {"type": "Point", "coordinates": [2.131241645234573, 49.06087605161007]}, "properties": {"name": "Pont Petit"}}, {"type": "Feature", "geometry": {"type": "Point", "coordinates": [2.1226568963520114, 49.055049202893706]}, "properties": {"name": "Épluches"}}, {"type": "Feature", "geometry": {"type": "Point", "coordinates": [2.105230857870794, 49.04530690087292]}, "properties": {"name": "Saint-Ouen-l'Aumône"}}, {"type": "Feature", "geometry": {"type": "Point", "coordinates": [2.0957859968423524, 49.04673337596684]}, "properties": {"name": "Pontoise"}}, {"type": "Feature", "geometry": {"type": "Point", "coordinates": [2.356693437528564, 48.88230685842714]}, "properties": {"name": "Gare du Nord"}}, {"type": "Feature", "geometry": {"type": "Point", "coordinates": [2.3686856352535353, 48.99620491669132]}, "properties": {"name": "Sarcelles - Saint-Brice"}}, {"type": "Feature", "geometry": {"type": "Point", "coordinates": [2.3622367893055722, 49.02319914892831]}, "properties": {"name": "Écouen - Ézanville"}}, {"type": "Feature", "geometry": {"type": "Point", "coordinates": [2.3371269712571614, 49.03284003832482]}, "properties": {"name": "Domont"}}, {"type": "Feature", "geometry": {"type": "Point", "coordinates": [2.3229000286671555, 49.045103567466136]}, "properties": {"name": "Bouffémont - Moisselles"}}, {"type": "Feature", "geometry": {"type": "Point", "coordinates": [2.3228219079408823, 49.06616021905701]}, "properties": {"name": "Montsoult - Maffliers"}}, {"type": "Feature", "geometry": {"type": "Point", "coordinates": [2.3505357370070645, 49.079264370566555]}, "properties": {"name": "Villaines"}}, {"type": "Feature", "geometry": {"type": "Point", "coordinates": [2.3613265147338978, 49.09838940491585]}, "properties": {"name": "Belloy - Saint-Martin"}}, {"type": "Feature", "geometry": {"type": "Point", "coordinates": [2.3682376422969282, 49.11663481669089]}, "properties": {"name": "Viarmes"}}, {"type": "Feature", "geometry": {"type": "Point", "coordinates": [2.3996583056293246, 49.11912737513361]}, "properties": {"name": "Seugy"}}, {"type": "Feature", "geometry": {"type": "Point", "coordinates": [2.4200435326085863, 49.117099228494695]}, "properties": {"name": "Luzarches"}}, {"type": "Feature", "geometry": {"type": "Point", "coordinates": [2.345479004987329, 48.93482889939617]}, "properties": {"name": "Saint-Denis"}}, {"type": "Feature", "geometry": {"type": "Point", "coordinates": [2.3287601965958715, 48.95792884911306]}, "properties": {"name": "Épinay - Villetaneuse"}}, {"type": "Feature", "geometry": {"type": "Point", "coordinates": [2.3067933741682713, 48.97288052394267]}, "properties": {"name": "Enghien-les-Bains"}}, {"type": "Feature", "geometry": {"type": "Point", "coordinates": [2.2707541014797794, 48.98049890628609]}, "properties": {"name": "Ermont - Eaubonne"}}, {"type": "Feature", "geometry": {"type": "Point", "coordinates": [2.257017857907824, 48.985149200200375]}, "properties": {"name": "Cernay"}}, {"type": "Feature", "geometry": {"type": "Point", "coordinates": [2.2341907839306554, 48.99374640051787]}, "properties": {"name": "Franconville - Le Plessis-Bouchard"}}, {"type": "Feature", "geometry": {"type": "Point", "coordinates": [2.1965151756043033, 49.007744118117]}, "properties": {"name": "Montigny - Beauchamp"}}, {"type": "Feature", "geometry": {"type": "Point", "coordinates": [2.1545313948758564, 49.01917957374756]}, "properties": {"name": "Pierrelaye"}}, {"type": "Feature", "geometry": {"type": "Point", "coordinates": [2.128124092657316, 49.0341234164973]}, "properties": {"name": "Saint-Ouen-l'Aumône Liesse"}}, {"type": "Feature", "geometry": {"type": "Point", "coordinates": [2.2428869689226687, 49.01523840177278]}, "properties": {"name": "Saint-Leu-la-Forêt"}}, {"type": "Feature", "geometry": {"type": "Point", "coordinates": [2.2596836105712628, 48.996079034066284]}, "properties": {"name": "Gros Noyer Saint-Prix"}}, {"type": "Feature", "geometry": {"type": "Point", "coordinates": [2.26320025038274, 48.990533377371726]}, "properties": {"name": "Ermont Halte"}}, {"type": "Feature", "geometry": {"type": "Point", "coordinates": [2.291148632256432, 48.9796949197308]}, "properties": {"name": "Champ de Courses d'Enghien"}}, {"type": "Feature", "geometry": {"type": "Point", "coordinates": [2.3167036448125224, 48.96628415206348]}, "properties": {"name": "La Barre Ormesson"}}]}