{"type": "FeatureCollection", "features": [{"type": "Feature", "geometry": {"type": "LineString", "coordinates": [[2.357001, 48.88097], [2.357382, 48.881783], [2.357553, 48.882202], [2.357647, 48.882488], [2.357768, 48.883045], [2.357803, 48.883343], [2.357849, 48.884174], [2.35786, 48.884731], [2.357889, 48.885231], [2.357867, 48.886303], [2.357804, 48.887169], [2.357788, 48.887478], [2.357718, 48.888321], [2.357681, 48.88858], [2.357579, 48.889145], [2.357484, 48.889771], [2.357402, 48.890209], [2.35731, 48.890579], [2.357003, 48.891682], [2.356916, 48.89196], [2.356735, 48.892498], [2.356069, 48.894283], [2.355925, 48.894711], [2.355805, 48.895126], [2.355597, 48.895958], [2.355191, 48.897655], [2.355053, 48.898357], [2.354997, 48.898705], [2.35481, 48.900188], [2.354639, 48.901455], [2.354448, 48.902245], [2.354223, 48.903278], [2.354056, 48.903954], [2.353873, 48.904633], [2.353786, 48.904915], [2.353712, 48.905106], [2.353468, 48.90564], [2.35297, 48.906513], [2.352839, 48.906776], [2.352715, 48.907108], [2.352561, 48.907642], [2.352433, 48.908234], [2.352406, 48.908489], [2.352351, 48.909443], [2.352321, 48.91011], [2.352321, 48.91029], [2.352343, 48.910641], [2.35238, 48.910877], [2.35243, 48.91111], [2.352537, 48.911449], [2.352648, 48.911709], [2.352818, 48.912022], [2.353016, 48.912315], [2.353109, 48.912434], [2.353301, 48.912659], [2.353592, 48.912956], [2.353899, 48.913223], [2.354257, 48.913494], [2.354609, 48.913734], [2.354853, 48.913883], [2.355829, 48.914425], [2.360482, 48.916939], [2.361079, 48.917267], [2.362559, 48.91811], [2.362559, 48.91811], [2.363095, 48.9184], [2.363446, 48.918579], [2.364057, 48.918861], [2.364355, 48.918987], [2.364774, 48.919147], [2.365309, 48.919334], [2.365909, 48.919514], [2.366878, 48.919765], [2.37678, 48.922211], [2.380616, 48.92318], [2.381631, 48.923428], [2.382718, 48.92366], [2.383488, 48.923813], [2.384958, 48.924061], [2.384958, 48.924061], [2.395715, 48.925842], [2.397924, 48.926186], [2.400779, 48.926609], [2.402401, 48.926872], [2.420778, 48.929916], [2.423943, 48.930393], [2.425353, 48.930618], [2.425353, 48.930618], [2.426549, 48.930817], [2.431588, 48.931763], [2.434381, 48.932247], [2.434967, 48.932335], [2.435981, 48.932465], [2.437064, 48.932579], [2.437609, 48.932621], [2.438394, 48.932674], [2.439245, 48.932716], [2.439764, 48.932732], [2.44084, 48.932747], [2.447437, 48.932674], [2.44832, 48.932674], [2.45123, 48.932709], [2.451989, 48.932709], [2.45244, 48.932705], [2.45366, 48.932674], [2.45366, 48.932674], [2.454728, 48.932652], [2.462749, 48.932571], [2.46394, 48.932552], [2.464825, 48.932529], [2.469423, 48.932373], [2.470615, 48.932343], [2.476477, 48.93227], [2.476477, 48.93227], [2.491748, 48.932095], [2.492527, 48.932068], [2.493915, 48.932049], [2.49493, 48.932056], [2.496773, 48.932087], [2.496773, 48.932087], [2.498153, 48.932098], [2.50689, 48.932003], [2.509234, 48.931999], [2.510414, 48.931973], [2.515168, 48.931847], [2.51641, 48.931839], [2.517184, 48.931858], [2.517776, 48.931892], [2.518467, 48.93195], [2.519506, 48.932076], [2.520354, 48.932213], [2.520957, 48.932331], [2.521899, 48.932549], [2.522418, 48.932686], [2.533537, 48.935902], [2.534034, 48.936039], [2.53487, 48.936249], [2.53487, 48.936249], [2.549152, 48.93961], [2.551075, 48.940067], [2.551684, 48.940224], [2.567665, 48.944454], [2.567665, 48.944454], [2.573601, 48.946026], [2.58477, 48.948841], [2.604385, 48.953392], [2.604385, 48.953392], [2.608619, 48.954369], [2.609725, 48.954639], [2.610454, 48.954842], [2.61128, 48.955116], [2.611992, 48.955395], [2.612273, 48.955513], [2.612708, 48.955715], [2.613331, 48.956036], [2.614006, 48.956421], [2.614943, 48.957035], [2.61583, 48.957676], [2.616925, 48.958488], [2.618075, 48.959286], [2.620918, 48.961239], [2.621785, 48.961819], [2.623452, 48.962894], [2.624922, 48.96389], [2.638002, 48.972866], [2.638279, 48.973068], [2.638716, 48.973415], [2.638942, 48.973583], [2.639826, 48.97419], [2.640343, 48.974552], [2.640961, 48.975021], [2.642283, 48.975925], [2.642283, 48.975925], [2.645908, 48.978413], [2.646441, 48.978722], [2.647367, 48.979355], [2.647754, 48.979565], [2.647963, 48.979691], [2.657583, 48.986294], [2.665778, 48.991901], [2.665778, 48.991901], [2.668005, 48.993423], [2.668562, 48.993824], [2.669021, 48.994183], [2.669471, 48.994579], [2.669662, 48.994759], [2.670071, 48.995193], [2.670422, 48.995609], [2.678745, 49.006233], [2.680467, 49.008423], [2.680467, 49.008423], [2.697661, 49.030327], [2.698323, 49.031158], [2.698446, 49.031326], [2.69907, 49.032127], [2.69907, 49.032127], [2.702438, 49.036404], [2.709076, 49.044853], [2.709698, 49.04567], [2.710123, 49.046253], [2.710512, 49.04681], [2.724939, 49.068531], [2.736485, 49.085869], [2.740017, 49.091187], [2.740395, 49.09174], [2.740659, 49.092094], [2.740937, 49.092426], [2.741213, 49.092724], [2.741425, 49.092937], [2.745026, 49.096336], [2.745026, 49.096336], [2.763513, 49.113773], [2.794348, 49.142818], [2.794348, 49.142818], [2.801528, 49.14957], [2.802011, 49.150032], [2.802376, 49.150406], [2.802646, 49.150707], [2.802852, 49.150959], [2.803041, 49.151207], [2.803258, 49.15152], [2.80341, 49.151756], [2.803664, 49.15218], [2.811834, 49.166088], [2.824302, 49.187275], [2.824583, 49.187733], [2.824938, 49.188282], [2.82526, 49.188763], [2.825644, 49.189308], [2.826178, 49.190029], [2.826427, 49.190353], [2.826904, 49.190948], [2.827432, 49.191578], [2.828202, 49.192448], [2.828586, 49.19286], [2.829467, 49.193764], [2.830021, 49.194305], [2.83048, 49.194736], [2.831335, 49.195507], [2.831694, 49.19582], [2.832515, 49.19651], [2.832964, 49.196873], [2.833801, 49.197521], [2.838472, 49.200977], [2.838472, 49.200977], [2.873762, 49.227097], [2.874913, 49.22794], [2.875285, 49.228188], [2.875592, 49.228382], [2.876163, 49.228718], [2.876526, 49.228912], [2.876837, 49.229069], [2.877416, 49.22934], [2.877857, 49.22953], [2.878174, 49.22966], [2.878815, 49.2299], [2.879148, 49.230019], [2.879859, 49.23024], [2.880566, 49.230434], [2.881162, 49.230576], [2.881877, 49.230717], [2.88239, 49.230804], [2.88316, 49.230904], [2.883637, 49.230953], [2.884203, 49.230995], [2.88649, 49.231106]]}, "properties": {"id": "transilien-k", "branchId": "transilien-k::0", "termini": "Gare du Nord - Crépy-en-Valois", "source": "Ile-de-France Mobilites GTFS (data.iledefrance-mobilites.fr), Mobility License"}}, {"type": "Feature", "geometry": {"type": "Point", "coordinates": [2.356693437528564, 48.88230685842714]}, "properties": {"name": "Gare du Nord"}}, {"type": "Feature", "geometry": {"type": "Point", "coordinates": [2.495597257086315, 48.932150935734064]}, "properties": {"name": "Aulnay-sous-Bois"}}, {"type": "Feature", "geometry": {"type": "Point", "coordinates": [2.6422341369736606, 48.9757479508066]}, "properties": {"name": "Mitry - Claye"}}, {"type": "Feature", "geometry": {"type": "Point", "coordinates": [2.6649599355374893, 48.99132968756663]}, "properties": {"name": "Compans"}}, {"type": "Feature", "geometry": {"type": "Point", "coordinates": [2.6802537675802913, 49.00813565335945]}, "properties": {"name": "Thieux - Nantouillet"}}, {"type": "Feature", "geometry": {"type": "Point", "coordinates": [2.699046819624294, 49.03215183565455]}, "properties": {"name": "Dammartin - Juilly - Saint-Mard"}}, {"type": "Feature", "geometry": {"type": "Point", "coordinates": [2.745036686332378, 49.09632467804431]}, "properties": {"name": "Le Plessis-Belleville"}}, {"type": "Feature", "geometry": {"type": "Point", "coordinates": [2.7941647655566535, 49.14251123380041]}, "properties": {"name": "Nanteuil-le-Haudouin"}}, {"type": "Feature", "geometry": {"type": "Point", "coordinates": [2.8379866073485736, 49.20071099536894]}, "properties": {"name": "Ormoy-Villers"}}, {"type": "Feature", "geometry": {"type": "Point", "coordinates": [2.8880999806451184, 49.23108254935135]}, "properties": {"name": "Crépy-en-Valois"}}]}