{"type": "FeatureCollection", "features": [{"type": "Feature", "geometry": {"type": "LineString", "coordinates": [[2.237309, 48.892639], [2.237093, 48.892376], [2.236862, 48.892052], [2.23651, 48.891491], [2.236337, 48.891174], [2.236125, 48.890667], [2.235782, 48.889809], [2.235678, 48.889465], [2.235537, 48.88876], [2.235474, 48.888279], [2.235449, 48.887337], [2.235428, 48.887077], [2.235382, 48.886715], [2.235337, 48.886494], [2.235281, 48.886276], [2.23519, 48.885979], [2.235093, 48.8857], [2.234967, 48.88538], [2.234805, 48.885014], [2.234631, 48.884655], [2.234457, 48.884354], [2.234353, 48.88419], [2.234238, 48.884029], [2.234133, 48.883888], [2.233966, 48.883678], [2.233611, 48.883266], [2.233371, 48.883018], [2.233092, 48.882748], [2.232935, 48.882607], [2.232935, 48.882607], [2.232495, 48.882206], [2.23132, 48.881191], [2.22787, 48.878174], [2.227079, 48.87746], [2.226583, 48.877029], [2.226341, 48.876827], [2.225729, 48.876301], [2.223027, 48.873947], [2.222443, 48.873417], [2.222077, 48.873047], [2.22183, 48.872772], [2.221564, 48.872448], [2.221343, 48.872147], [2.221095, 48.87178], [2.221095, 48.87178], [2.220913, 48.871479], [2.220767, 48.871208], [2.220667, 48.871006], [2.220512, 48.870663], [2.220336, 48.870209], [2.220215, 48.869747], [2.220136, 48.869495], [2.219909, 48.868919], [2.219628, 48.868267], [2.219407, 48.867695], [2.21724, 48.861897], [2.216997, 48.86121], [2.21687, 48.86079], [2.216717, 48.860199], [2.216617, 48.859718], [2.216532, 48.859234], [2.216487, 48.858894], [2.216468, 48.858635], [2.21646, 48.858379], [2.216464, 48.858135], [2.216484, 48.857796], [2.216596, 48.856392], [2.216596, 48.856392], [2.216745, 48.854595], [2.216796, 48.854168], [2.216853, 48.853745], [2.217316, 48.850739], [2.217385, 48.85041], [2.21745, 48.850159], [2.217705, 48.849377], [2.217816, 48.848965], [2.217839, 48.848854], [2.217865, 48.848652], [2.217869, 48.848396], [2.217837, 48.847813], [2.217818, 48.847084], [2.217801, 48.846848], [2.217771, 48.846638], [2.217706, 48.846344], [2.217648, 48.84613], [2.217648, 48.84613], [2.217506, 48.845734], [2.217412, 48.845501], [2.217257, 48.845188], [2.216937, 48.844646], [2.216712, 48.844318], [2.216602, 48.84417], [2.216336, 48.843845], [2.216021, 48.843536], [2.215254, 48.842815], [2.214931, 48.842594], [2.214375, 48.842232], [2.213936, 48.841976], [2.213429, 48.841709], [2.212866, 48.841446], [2.212474, 48.841282], [2.21197, 48.841099], [2.208268, 48.839966], [2.207387, 48.839668], [2.206884, 48.839462], [2.206538, 48.839306], [2.206068, 48.839073], [2.205578, 48.838799], [2.204896, 48.838375], [2.204554, 48.838116], [2.204069, 48.837711], [2.203804, 48.837467], [2.203385, 48.837036], [2.203022, 48.836544], [2.202668, 48.836006], [2.202369, 48.835396], [2.202098, 48.834595], [2.201849, 48.833397], [2.20105, 48.828892], [2.200779, 48.827408], [2.200779, 48.827408], [2.200611, 48.826447], [2.200351, 48.825115], [2.200078, 48.823605], [2.19985, 48.822937], [2.199555, 48.822269], [2.199397, 48.821987], [2.199207, 48.821705], [2.198783, 48.821159], [2.198501, 48.820847], [2.198173, 48.820549], [2.19744, 48.819946], [2.196572, 48.819366], [2.193741, 48.817837], [2.193175, 48.817516], [2.192745, 48.817257], [2.192205, 48.816891], [2.191603, 48.816425], [2.191084, 48.815952], [2.190374, 48.815231], [2.189754, 48.814453], [2.189379, 48.813961], [2.188217, 48.812489], [2.188089, 48.812336], [2.188089, 48.812336], [2.187191, 48.811214], [2.186606, 48.810455], [2.186212, 48.809978], [2.186015, 48.809757], [2.185811, 48.809563], [2.185463, 48.809254], [2.185037, 48.808895], [2.18461, 48.808571], [2.183921, 48.808113], [2.183081, 48.807613], [2.181758, 48.806999], [2.181211, 48.806805], [2.180513, 48.806568], [2.180028, 48.806412], [2.179527, 48.806263], [2.178998, 48.806122], [2.178753, 48.806068], [2.178221, 48.805954], [2.177915, 48.805897], [2.177238, 48.80579], [2.176601, 48.805702], [2.17573, 48.805611], [2.174979, 48.805519], [2.174562, 48.805458], [2.174143, 48.805386], [2.173615, 48.805275], [2.172848, 48.805096], [2.172428, 48.804981], [2.171725, 48.80476], [2.170983, 48.804493], [2.170462, 48.804279], [2.169756, 48.803955], [2.169357, 48.803745], [2.168529, 48.803261], [2.168001, 48.802887], [2.167248, 48.802231], [2.166424, 48.801388], [2.166089, 48.801064], [2.165823, 48.800831], [2.165549, 48.800606], [2.165348, 48.800457], [2.165056, 48.800255], [2.164617, 48.79998], [2.164213, 48.799751], [2.163798, 48.799545], [2.163588, 48.799454], [2.163175, 48.799297], [2.162463, 48.799057], [2.161362, 48.798702], [2.160812, 48.798538], [2.16048, 48.798447], [2.159009, 48.798096], [2.158509, 48.797958], [2.158245, 48.797871], [2.158022, 48.797787], [2.15717, 48.79744], [2.156702, 48.797279], [2.155865, 48.797035], [2.155224, 48.796867], [2.15475, 48.796761], [2.154287, 48.796665], [2.153827, 48.796581], [2.152263, 48.796329], [2.15139, 48.796211], [2.150755, 48.796154], [2.15023, 48.796124], [2.146516, 48.795967], [2.142087, 48.795792], [2.138513, 48.795624], [2.136983, 48.795517], [2.136436, 48.795452], [2.135531, 48.795319], [2.135531, 48.795319], [2.135267, 48.795277], [2.134861, 48.795197], [2.134549, 48.795132], [2.134272, 48.795063], [2.133964, 48.794971], [2.133699, 48.794884], [2.133212, 48.794701], [2.132632, 48.794453], [2.132188, 48.794247], [2.130356, 48.793343], [2.129868, 48.793121], [2.129496, 48.792969], [2.128831, 48.792725], [2.128273, 48.792549], [2.127845, 48.792431], [2.127619, 48.792377], [2.126974, 48.792255], [2.12643, 48.792175], [2.125921, 48.792114], [2.125379, 48.792065], [2.124746, 48.792027], [2.12434, 48.792023], [2.123857, 48.792027], [2.123604, 48.792038], [2.122815, 48.792107], [2.116048, 48.792904], [2.115249, 48.793034], [2.114889, 48.793102], [2.114224, 48.793255], [2.113387, 48.793461], [2.112483, 48.793724], [2.111936, 48.7939], [2.111507, 48.794056], [2.110951, 48.794277], [2.109706, 48.794796], [2.109179, 48.795002], [2.108749, 48.795155], [2.108296, 48.795292], [2.107824, 48.79541], [2.107365, 48.795509], [2.10689, 48.795589], [2.106405, 48.795654], [2.105923, 48.795704], [2.105434, 48.795742], [2.104947, 48.795761], [2.104451, 48.795769], [2.103961, 48.795753], [2.102994, 48.795677], [2.093898, 48.794739], [2.093082, 48.794659], [2.092352, 48.794598], [2.091745, 48.794571], [2.091135, 48.794563], [2.090528, 48.794579], [2.089918, 48.794613], [2.089312, 48.794666], [2.088709, 48.794739], [2.08811, 48.794827], [2.087503, 48.79493], [2.086919, 48.795052], [2.086343, 48.795193], [2.085777, 48.795357], [2.085225, 48.795532], [2.084635, 48.795742], [2.082097, 48.796787], [2.080763, 48.797348], [2.080234, 48.797558], [2.079679, 48.797756], [2.079125, 48.797932], [2.078559, 48.798096], [2.077985, 48.798237], [2.077411, 48.798363], [2.076814, 48.798477], [2.075941, 48.798603], [2.075297, 48.798676], [2.074626, 48.798725], [2.074002, 48.798756], [2.073449, 48.798759], [2.07292, 48.798759], [2.07292, 48.798759], [2.072756, 48.798756], [2.072188, 48.798721], [2.071492, 48.798653], [2.071098, 48.798595], [2.070419, 48.798485], [2.069645, 48.798325], [2.065395, 48.797333], [2.064557, 48.797115], [2.064077, 48.796974], [2.063786, 48.796879], [2.063521, 48.796783], [2.063005, 48.796589], [2.062674, 48.796448], [2.062224, 48.796249], [2.061691, 48.79599], [2.052953, 48.791645], [2.047746, 48.788975], [2.044456, 48.787342], [2.044456, 48.787342], [2.037753, 48.784016], [2.03715, 48.783722], [2.036515, 48.783424], [2.035852, 48.783131], [2.035249, 48.782883], [2.034417, 48.782558], [2.033894, 48.782364], [2.033096, 48.782093], [2.032008, 48.781754], [2.031143, 48.781506], [2.018544, 48.778122], [2.014815, 48.777111], [2.012801, 48.776539], [2.005379, 48.774532], [2.005379, 48.774532], [2.004943, 48.774418], [2.00151, 48.773453], [1.999154, 48.772827], [1.99817, 48.772533], [1.997555, 48.77232], [1.996961, 48.772106], [1.996651, 48.771984], [1.995658, 48.771572], [1.992113, 48.769962], [1.991395, 48.769642], [1.990775, 48.769375], [1.99037, 48.769211], [1.989606, 48.768925], [1.989128, 48.768757], [1.98482, 48.767296], [1.984219, 48.767082], [1.983344, 48.766743], [1.982915, 48.766567], [1.979661, 48.765141], [1.978527, 48.764633], [1.977156, 48.764053], [1.976167, 48.763668], [1.975472, 48.763428], [1.974588, 48.763138], [1.973804, 48.762901], [1.972474, 48.762547], [1.967029, 48.761196], [1.961691, 48.759953], [1.959297, 48.75943], [1.958463, 48.759266], [1.957839, 48.759125], [1.957622, 48.759068], [1.957274, 48.758961], [1.956848, 48.758801], [1.956418, 48.758614], [1.955631, 48.758247], [1.955252, 48.758087], [1.954673, 48.757893], [1.954055, 48.757717], [1.944295, 48.755486], [1.943273, 48.755226]]}, "properties": {"id": "transilien-u", "branchId": "transilien-u::0", "termini": "La Défense - La Verrière", "source": "Ile-de-France Mobilites GTFS (data.iledefrance-mobilites.fr), Mobility License"}}, {"type": "Feature", "geometry": {"type": "Point", "coordinates": [2.238418596250407, 48.892229801568206]}, "properties": {"name": "La Défense"}}, {"type": "Feature", "geometry": {"type": "Point", "coordinates": [2.2336164976472146, 48.8833721630466]}, "properties": {"name": "Puteaux"}}, {"type": "Feature", "geometry": {"type": "Point", "coordinates": [2.2210567895582143, 48.871689522026664]}, "properties": {"name": "Suresnes Mont Valérien"}}, {"type": "Feature", "geometry": {"type": "Point", "coordinates": [2.2176312182469986, 48.846058536430505]}, "properties": {"name": "Saint-Cloud"}}, {"type": "Feature", "geometry": {"type": "Point", "coordinates": [2.2007294495659546, 48.827253206930806]}, "properties": {"name": "Sèvres - Ville-d'Avray"}}, {"type": "Feature", "geometry": {"type": "Point", "coordinates": [2.1885894806735937, 48.81299614830529]}, "properties": {"name": "Chaville Rive Droite"}}, {"type": "Feature", "geometry": {"type": "Point", "coordinates": [2.1349078603373464, 48.79526039893613]}, "properties": {"name": "Versailles Chantiers"}}, {"type": "Feature", "geometry": {"type": "Point", "coordinates": [2.072712440765476, 48.79877460471833]}, "properties": {"name": "Saint-Cyr"}}, {"type": "Feature", "geometry": {"type": "Point", "coordinates": [2.044615988930814, 48.78748491597792]}, "properties": {"name": "Saint-Quentin en Yvelines - Montigny-le-Bretonneux"}}, {"type": "Feature", "geometry": {"type": "Point", "coordinates": [2.0065902166898377, 48.7747853970692]}, "properties": {"name": "Trappes"}}, {"type": "Feature", "geometry": {"type": "Point", "coordinates": [1.943057018064192, 48.7551716132828]}, "properties": {"name": "La Verrière"}}]}