{"type": "FeatureCollection", "features": [{"type": "Feature", "geometry": {"type": "LineString", "coordinates": [[1.370335, 48.731213], [1.372698, 48.732121], [1.373152, 48.732273], [1.373571, 48.732403], [1.37385, 48.732498], [1.378107, 48.734135], [1.379147, 48.734547], [1.379938, 48.734886], [1.380522, 48.735161], [1.381395, 48.735596], [1.381839, 48.735832], [1.382592, 48.736259], [1.383165, 48.736603], [1.383891, 48.737068], [1.384616, 48.737576], [1.388278, 48.740341], [1.390019, 48.741673], [1.391154, 48.742527], [1.392666, 48.743687], [1.394852, 48.745327], [1.395539, 48.7458], [1.396173, 48.746201], [1.396763, 48.746544], [1.397614, 48.74699], [1.398382, 48.747353], [1.398881, 48.747578], [1.399379, 48.747784], [1.399875, 48.747974], [1.400416, 48.748169], [1.401292, 48.748459], [1.402245, 48.748737], [1.403232, 48.748985], [1.404135, 48.74918], [1.418566, 48.751835], [1.419196, 48.751965], [1.420215, 48.752216], [1.420905, 48.75243], [1.421509, 48.752636], [1.422139, 48.752876], [1.423935, 48.753685], [1.424877, 48.754074], [1.425507, 48.754349], [1.426028, 48.754555], [1.42664, 48.75478], [1.427086, 48.754925], [1.427454, 48.755039], [1.428213, 48.755249], [1.429038, 48.755424], [1.429995, 48.755585], [1.430833, 48.755703], [1.43167, 48.755775], [1.432828, 48.755795], [1.433383, 48.755791], [1.433932, 48.755768], [1.434721, 48.755718], [1.435574, 48.755627], [1.436253, 48.755524], [1.436956, 48.755398], [1.43756, 48.755264], [1.438449, 48.755032], [1.443541, 48.753586], [1.444209, 48.75341], [1.445206, 48.753193], [1.446254, 48.753017], [1.447491, 48.75288], [1.448451, 48.752831], [1.449337, 48.752823], [1.450246, 48.752857], [1.450943, 48.752907], [1.451744, 48.752983], [1.452592, 48.753117], [1.452963, 48.753189], [1.45406, 48.753429], [1.461691, 48.755199], [1.469364, 48.756969], [1.4844, 48.760452], [1.499441, 48.763927], [1.501222, 48.764362], [1.502789, 48.764797], [1.503963, 48.76516], [1.505184, 48.765553], [1.506991, 48.766167], [1.508794, 48.766758], [1.511787, 48.767769], [1.512548, 48.768013], [1.513583, 48.768356], [1.513583, 48.768356], [1.531187, 48.774216], [1.535009, 48.775497], [1.53898, 48.776802], [1.542011, 48.777813], [1.54517, 48.778881], [1.548582, 48.780018], [1.550977, 48.78083], [1.551669, 48.781044], [1.554799, 48.782112], [1.559851, 48.783806], [1.562727, 48.784756], [1.567146, 48.786232], [1.569629, 48.787022], [1.571903, 48.787785], [1.572356, 48.787945], [1.573118, 48.788231], [1.573736, 48.788479], [1.574751, 48.788918], [1.580749, 48.791676], [1.582943, 48.792675], [1.585128, 48.793655], [1.586873, 48.794468], [1.588141, 48.795021], [1.588753, 48.795254], [1.58941, 48.795471], [1.590019, 48.795647], [1.59067, 48.795815], [1.591382, 48.795967], [1.591869, 48.796055], [1.592495, 48.79615], [1.593093, 48.796223], [1.593757, 48.796284], [1.594434, 48.796322], [1.595077, 48.796337], [1.595416, 48.796337], [1.596079, 48.796322], [1.602136, 48.79607], [1.602136, 48.79607], [1.608002, 48.795826], [1.609192, 48.795765], [1.610773, 48.795708], [1.611379, 48.795704], [1.612074, 48.795719], [1.61297, 48.795769], [1.61411, 48.795895], [1.614861, 48.796005], [1.615556, 48.796139], [1.616331, 48.796318], [1.61704, 48.796516], [1.617428, 48.796642], [1.618031, 48.796852], [1.618994, 48.797237], [1.61957, 48.797504], [1.620045, 48.797752], [1.621027, 48.798328], [1.621197, 48.798439], [1.621637, 48.798752], [1.621982, 48.799019], [1.622262, 48.799244], [1.622555, 48.799526], [1.624396, 48.801373], [1.625102, 48.802063], [1.628697, 48.805687], [1.629393, 48.806362], [1.629934, 48.806873], [1.630422, 48.80732], [1.631009, 48.807835], [1.631448, 48.808208], [1.632053, 48.808704], [1.632753, 48.809261], [1.633585, 48.809891], [1.635095, 48.810978], [1.638959, 48.813702], [1.646151, 48.818829], [1.65077, 48.822105], [1.651552, 48.822651], [1.652217, 48.823071], [1.65249, 48.823231], [1.653026, 48.823498], [1.653453, 48.823696], [1.654182, 48.823997], [1.655016, 48.824318], [1.66229, 48.826996], [1.664157, 48.82769], [1.666954, 48.828712], [1.668659, 48.829327], [1.669257, 48.829525], [1.669844, 48.829697], [1.669844, 48.829697], [1.6703, 48.829819], [1.671557, 48.830116], [1.672201, 48.830246], [1.673164, 48.83041], [1.673529, 48.830467], [1.674435, 48.830582], [1.675838, 48.830711], [1.677227, 48.830765], [1.678137, 48.830769], [1.679215, 48.83073], [1.679818, 48.830696], [1.680638, 48.830631], [1.681818, 48.830502], [1.68239, 48.830421], [1.683141, 48.830299], [1.694057, 48.828289], [1.702811, 48.826668], [1.702811, 48.826668], [1.707602, 48.825787], [1.70951, 48.82542], [1.710516, 48.825211], [1.711109, 48.825062], [1.712207, 48.824768], [1.713044, 48.824524], [1.745662, 48.813633], [1.746276, 48.813454], [1.746732, 48.813332], [1.747883, 48.813072], [1.748596, 48.812927], [1.749656, 48.812756], [1.754359, 48.812035], [1.758469, 48.811417], [1.762287, 48.810833], [1.763339, 48.81068], [1.765792, 48.81031], [1.765792, 48.81031], [1.815842, 48.802708], [1.815842, 48.802708], [1.81615, 48.802662], [1.817026, 48.802559], [1.817742, 48.802486], [1.818795, 48.802406], [1.819464, 48.802364], [1.820127, 48.802338], [1.82096, 48.802315], [1.822137, 48.802315], [1.823198, 48.802345], [1.823732, 48.802372], [1.826074, 48.802528], [1.842519, 48.803772], [1.851124, 48.804409], [1.857599, 48.804905], [1.861697, 48.805206], [1.862746, 48.805298], [1.863545, 48.805397], [1.864282, 48.805519], [1.865216, 48.805729], [1.866037, 48.805946], [1.866994, 48.806259], [1.86763, 48.806499], [1.868136, 48.806713], [1.868957, 48.807114], [1.869523, 48.807426], [1.870112, 48.807789], [1.870958, 48.808411], [1.871573, 48.808949], [1.872295, 48.809696], [1.873695, 48.811203], [1.874892, 48.812527], [1.876557, 48.814327], [1.877481, 48.815338], [1.877481, 48.815338], [1.877903, 48.8158], [1.878333, 48.816288], [1.878684, 48.816734], [1.879003, 48.817188], [1.87933, 48.817772], [1.879568, 48.818356], [1.879666, 48.818604], [1.879827, 48.819115], [1.879911, 48.819408], [1.879956, 48.819736], [1.880023, 48.820393], [1.880049, 48.82122], [1.880024, 48.822346], [1.880013, 48.823624], [1.879961, 48.826195], [1.879974, 48.827843], [1.879955, 48.829227], [1.879983, 48.830578], [1.88001, 48.831127], [1.880088, 48.831676], [1.880238, 48.832336], [1.88033, 48.832588], [1.880583, 48.833122], [1.880974, 48.833836], [1.8812, 48.834156], [1.881533, 48.834579], [1.881961, 48.835026], [1.882442, 48.835457], [1.883014, 48.835934], [1.883434, 48.836235], [1.883911, 48.836529], [1.884401, 48.836819], [1.885102, 48.837154], [1.885805, 48.837475], [1.886596, 48.837757], [1.887383, 48.838001], [1.887888, 48.838142], [1.88842, 48.838268], [1.889014, 48.838383], [1.889608, 48.838474], [1.890151, 48.838543], [1.890656, 48.8386], [1.891289, 48.838654], [1.893027, 48.838772], [1.893966, 48.838795], [1.894801, 48.838776], [1.895601, 48.838722], [1.896067, 48.83868], [1.896451, 48.838638], [1.89689, 48.83857], [1.897301, 48.838505], [1.897727, 48.838421], [1.898146, 48.838322], [1.898956, 48.8381], [1.899525, 48.837925], [1.90029, 48.837654], [1.900732, 48.837471], [1.902154, 48.836849], [1.903216, 48.836426], [1.9043, 48.836033], [1.904595, 48.835938], [1.905946, 48.835541], [1.906628, 48.835361], [1.907334, 48.835201], [1.908084, 48.835045], [1.908842, 48.834911], [1.909617, 48.834797], [1.910387, 48.834705], [1.911181, 48.834629], [1.92568, 48.833439], [1.9273, 48.833317], [1.933972, 48.832764], [1.934995, 48.832672], [1.939378, 48.832317], [1.941274, 48.832207], [1.942971, 48.832031], [1.943587, 48.831982], [1.943587, 48.831982], [1.946687, 48.83173], [1.947891, 48.831715], [1.948167, 48.831696], [1.95247, 48.831264], [1.953461, 48.831181], [1.954262, 48.831131], [1.954836, 48.8311], [1.956116, 48.831066], [1.961516, 48.83094], [1.961516, 48.83094], [1.971867, 48.830696], [1.972852, 48.830669], [1.977685, 48.830563], [1.979113, 48.830521], [1.979494, 48.830498], [1.980167, 48.830444], [1.980827, 48.830372], [1.981137, 48.83033], [1.981819, 48.830215], [1.982285, 48.830124], [1.982702, 48.830032], [1.983439, 48.829849], [1.983857, 48.829727], [1.984544, 48.829506], [1.985132, 48.829288], [1.985653, 48.829075], [1.986142, 48.828854], [1.986908, 48.828461], [1.987464, 48.828136], [1.988007, 48.827789], [1.988352, 48.827541], [1.988765, 48.827229], [1.989004, 48.827026], [1.989791, 48.826321], [1.99157, 48.824692], [1.992004, 48.824322], [1.992243, 48.824135], [1.992509, 48.823936], [1.992908, 48.823666], [1.993459, 48.823326], [1.993837, 48.823109], [1.993837, 48.823109], [1.994224, 48.822906], [1.994801, 48.822632], [1.995512, 48.822334], [1.996167, 48.822086], [2.006871, 48.818134], [2.013891, 48.815575], [2.025827, 48.811172], [2.030817, 48.809338], [2.031421, 48.80912], [2.032381, 48.808811], [2.032975, 48.808636], [2.033911, 48.808392], [2.034616, 48.808228], [2.035111, 48.808128], [2.035681, 48.808018], [2.036194, 48.807934], [2.040669, 48.807255], [2.040669, 48.807255], [2.043338, 48.80685], [2.044199, 48.806694], [2.044483, 48.806629], [2.045194, 48.806454], [2.045822, 48.806271], [2.046127, 48.806175], [2.046505, 48.806042], [2.047127, 48.805794], [2.047743, 48.805515], [2.048266, 48.805248], [2.0488, 48.804947], [2.049199, 48.804695], [2.049438, 48.804531], [2.049851, 48.804222], [2.050162, 48.803967], [2.050487, 48.803673], [2.051888, 48.802353], [2.052299, 48.80201], [2.052697, 48.801697], [2.054015, 48.800732], [2.054603, 48.800308], [2.054989, 48.800014], [2.055522, 48.799641], [2.055973, 48.799343], [2.056402, 48.799088], [2.057032, 48.798759], [2.057484, 48.798542], [2.057853, 48.798386], [2.058326, 48.79821], [2.058712, 48.798073], [2.059152, 48.797939], [2.059544, 48.797832], [2.060122, 48.797699], [2.060508, 48.797626], [2.061044, 48.797539], [2.061572, 48.797466], [2.062132, 48.797409], [2.062794, 48.797367], [2.06316, 48.797352], [2.063751, 48.797356], [2.064116, 48.797367], [2.064805, 48.797417], [2.065163, 48.797459], [2.065739, 48.797554], [2.066336, 48.797676], [2.067054, 48.79784], [2.068299, 48.798145], [2.069825, 48.798496], [2.070525, 48.798645], [2.071035, 48.798733], [2.07137, 48.798782], [2.071908, 48.798843], [2.072472, 48.798889], [2.07292, 48.798912], [2.07292, 48.798912], [2.073731, 48.798916], [2.074384, 48.798897], [2.075033, 48.798859], [2.075849, 48.798782], [2.076796, 48.798649], [2.077418, 48.798538], [2.0779, 48.798439], [2.07846, 48.798306], [2.078946, 48.79818], [2.079601, 48.797985], [2.080022, 48.797844], [2.081032, 48.797485], [2.081316, 48.79739], [2.081558, 48.797318], [2.081904, 48.79723], [2.082296, 48.797146], [2.082716, 48.797081], [2.083097, 48.797035], [2.083491, 48.797009], [2.083911, 48.796997], [2.085155, 48.796993], [2.085654, 48.796963], [2.085899, 48.79694], [2.08639, 48.796871], [2.08683, 48.796787], [2.087087, 48.796726], [2.087648, 48.796562], [2.087904, 48.796471], [2.088194, 48.79636], [2.089271, 48.795891], [2.089784, 48.795696], [2.090304, 48.795525], [2.090643, 48.795429], [2.09112, 48.795311], [2.091608, 48.795212], [2.092079, 48.795151], [2.09247, 48.795113], [2.092848, 48.795097], [2.093354, 48.795094], [2.094146, 48.795116], [2.094848, 48.795162], [2.100394, 48.795643], [2.102403, 48.795853], [2.103299, 48.795937], [2.104128, 48.795982], [2.104726, 48.795986], [2.105178, 48.795975], [2.105712, 48.79594], [2.105997, 48.79591], [2.106849, 48.795807], [2.107594, 48.795704], [2.107991, 48.795628], [2.108338, 48.795551], [2.109018, 48.795368], [2.109574, 48.795193], [2.109873, 48.795086], [2.110359, 48.794895], [2.110818, 48.794682], [2.11189, 48.794136], [2.112275, 48.793964], [2.112707, 48.793789], [2.113698, 48.793438], [2.11431, 48.793274], [2.114711, 48.793175], [2.115269, 48.793064], [2.116055, 48.792938], [2.116668, 48.792862], [2.122804, 48.792141], [2.123354, 48.792088], [2.123851, 48.792061], [2.124233, 48.792053], [2.124958, 48.792068], [2.125353, 48.792095], [2.125902, 48.792145], [2.126437, 48.79221], [2.126966, 48.792286], [2.127675, 48.792427], [2.127876, 48.792477], [2.128431, 48.792637], [2.12874, 48.792736], [2.129487, 48.793007], [2.129911, 48.793182], [2.130226, 48.793324], [2.130878, 48.793671], [2.131502, 48.794025], [2.132165, 48.794361], [2.132743, 48.794632], [2.133061, 48.794769], [2.133542, 48.794956], [2.134131, 48.795143], [2.134786, 48.795315], [2.135211, 48.795403], [2.135493, 48.795448], [2.135493, 48.795448], [2.136177, 48.795551], [2.136526, 48.795593], [2.136925, 48.795624], [2.137677, 48.79565], [2.13816, 48.795647], [2.139336, 48.7957], [2.139679, 48.7957], [2.140702, 48.795673], [2.140919, 48.795677], [2.143983, 48.795818], [2.145443, 48.795872], [2.150112, 48.796017], [2.150639, 48.796043], [2.151254, 48.796101], [2.151802, 48.796173], [2.152568, 48.796303], [2.153258, 48.796452], [2.153609, 48.796543], [2.15494, 48.796936], [2.15558, 48.797115], [2.155943, 48.797207], [2.156826, 48.797386], [2.1577, 48.797539], [2.158113, 48.797626], [2.158888, 48.797806], [2.160229, 48.798149], [2.160688, 48.798286], [2.161207, 48.798454], [2.163614, 48.799271], [2.164285, 48.799484], [2.164853, 48.799652], [2.165991, 48.799965], [2.167239, 48.800228], [2.167916, 48.800346], [2.169237, 48.800514], [2.169962, 48.800575], [2.170831, 48.800617], [2.171536, 48.800629], [2.172985, 48.800613], [2.172985, 48.800613], [2.174956, 48.800583], [2.175895, 48.800579], [2.176628, 48.800591], [2.177366, 48.800621], [2.177784, 48.800648], [2.178245, 48.800694], [2.178773, 48.800762], [2.179265, 48.800846], [2.180384, 48.801064], [2.181679, 48.801376], [2.18237, 48.801563], [2.182929, 48.801727], [2.183464, 48.801903], [2.183961, 48.802078], [2.184487, 48.802284], [2.185237, 48.802597], [2.185716, 48.802807], [2.186016, 48.802956], [2.18662, 48.803268], [2.187114, 48.803562], [2.187373, 48.80373], [2.187616, 48.803898], [2.188129, 48.804272], [2.189939, 48.805698], [2.189939, 48.805698], [2.190779, 48.80637], [2.191062, 48.806633], [2.191429, 48.807007], [2.191919, 48.807529], [2.192415, 48.808098], [2.192797, 48.80851], [2.193132, 48.808899], [2.193574, 48.80946], [2.194015, 48.810093], [2.194626, 48.811089], [2.195545, 48.812721], [2.196025, 48.813511], [2.196435, 48.814114], [2.19676, 48.814522], [2.197095, 48.814911], [2.197474, 48.815311], [2.19789, 48.815712], [2.198126, 48.815922], [2.198494, 48.816216], [2.198897, 48.816525], [2.199357, 48.816849], [2.19988, 48.817184], [2.200417, 48.81752], [2.20098, 48.817825], [2.201569, 48.818119], [2.202154, 48.81839], [2.202786, 48.818645], [2.203435, 48.81889], [2.204088, 48.819103], [2.204756, 48.819302], [2.205445, 48.819489], [2.209563, 48.820419], [2.210763, 48.820683], [2.211558, 48.820843], [2.212347, 48.820976], [2.212964, 48.821072], [2.213769, 48.821167], [2.214553, 48.821247], [2.215075, 48.821285], [2.215075, 48.821285], [2.216013, 48.821342], [2.216582, 48.821362], [2.21731, 48.821373], [2.218372, 48.821373], [2.219173, 48.82135], [2.219779, 48.821312], [2.220942, 48.821201], [2.22161, 48.821125], [2.222446, 48.821011], [2.223101, 48.820904], [2.223686, 48.820793], [2.224505, 48.820625], [2.225586, 48.820374], [2.226275, 48.820194], [2.227042, 48.819973], [2.227459, 48.819843], [2.228069, 48.819649], [2.228697, 48.819427], [2.229812, 48.819004], [2.229812, 48.819004], [2.230498, 48.818729], [2.232702, 48.81786], [2.237877, 48.815937], [2.239233, 48.815464], [2.240161, 48.815159], [2.24055, 48.815037], [2.241361, 48.814808], [2.241989, 48.81464], [2.242858, 48.814423], [2.242858, 48.814423], [2.244259, 48.814106], [2.249322, 48.813152], [2.250099, 48.813011], [2.250818, 48.812904], [2.251539, 48.812809], [2.252271, 48.812737], [2.252988, 48.812683], [2.253715, 48.812645], [2.254417, 48.812626], [2.255151, 48.812634], [2.25588, 48.812672], [2.259155, 48.812939], [2.260849, 48.81308], [2.263136, 48.813293], [2.266812, 48.813614], [2.27424, 48.814278], [2.27424, 48.814278], [2.275825, 48.814407], [2.278251, 48.814571], [2.279423, 48.814671], [2.28009, 48.814735], [2.280827, 48.814827], [2.281342, 48.814903], [2.282051, 48.815029], [2.283272, 48.815266], [2.284328, 48.81551], [2.285578, 48.815849], [2.286583, 48.816147], [2.287231, 48.81636], [2.288145, 48.816681], [2.289056, 48.817028], [2.289685, 48.817287], [2.290288, 48.817551], [2.290785, 48.817791], [2.291924, 48.818382], [2.291924, 48.818382], [2.292655, 48.818783], [2.293207, 48.819096], [2.294454, 48.819862], [2.294932, 48.82019], [2.295315, 48.820484], [2.295809, 48.82095], [2.296844, 48.82196], [2.297275, 48.822369], [2.297696, 48.822727], [2.298193, 48.823112], [2.299403, 48.823971], [2.300013, 48.824432], [2.303523, 48.827305], [2.304087, 48.827789], [2.30448, 48.828087], [2.304725, 48.828285], [2.305988, 48.829365], [2.30723, 48.830353], [2.30881, 48.831573], [2.309724, 48.832298], [2.310601, 48.833042], [2.310737, 48.833172], [2.311728, 48.834221], [2.312188, 48.834652], [2.312532, 48.835026], [2.313199, 48.835819], [2.313432, 48.83606], [2.313653, 48.836254], [2.314523, 48.836964], [2.315373, 48.837708], [2.315655, 48.837978], [2.315849, 48.838196]]}, "properties": {"id": "transilien-n", "branchId": "transilien-n::0", "termini": "Dreux - Gare Montparnasse", "source": "Ile-de-France Mobilites GTFS (data.iledefrance-mobilites.fr), Mobility License"}}, {"type": "Feature", "geometry": {"type": "LineString", "coordinates": [[1.703493, 48.989273], [1.704406, 48.988895], [1.704915, 48.988708], [1.705538, 48.988506], [1.70622, 48.988209], [1.7069, 48.987873], [1.707447, 48.987576], [1.711433, 48.985275], [1.711861, 48.985046], [1.71347, 48.984219], [1.714124, 48.983906], [1.714704, 48.983646], [1.715163, 48.983459], [1.715163, 48.983459], [1.716075, 48.983124], [1.719336, 48.982021], [1.719931, 48.981808], [1.721081, 48.981365], [1.722309, 48.980862], [1.723086, 48.980564], [1.72632, 48.979412], [1.726789, 48.979229], [1.727255, 48.979034], [1.727954, 48.978725], [1.728733, 48.978344], [1.72959, 48.977901], [1.730312, 48.977505], [1.732196, 48.976429], [1.733069, 48.975906], [1.733554, 48.975594], [1.734207, 48.975151], [1.734928, 48.974613], [1.736118, 48.973663], [1.736701, 48.973213], [1.737038, 48.972965], [1.737694, 48.972507], [1.738099, 48.97224], [1.738903, 48.971745], [1.739604, 48.97134], [1.740175, 48.971035], [1.740665, 48.970787], [1.741147, 48.970554], [1.741678, 48.970314], [1.742497, 48.969959], [1.747045, 48.968044], [1.748376, 48.967503], [1.749556, 48.967068], [1.750092, 48.966888], [1.750906, 48.966629], [1.751585, 48.966427], [1.752588, 48.966152], [1.753836, 48.965843], [1.755241, 48.965527], [1.757344, 48.965103], [1.759567, 48.964741], [1.760405, 48.964615], [1.761235, 48.9645], [1.7621, 48.964394], [1.762955, 48.964298], [1.765148, 48.964092], [1.766276, 48.964001], [1.768357, 48.963844], [1.770262, 48.96373], [1.771402, 48.963669], [1.772335, 48.963627], [1.773577, 48.963577], [1.775928, 48.963512], [1.799693, 48.963066], [1.801126, 48.963058], [1.803227, 48.963078], [1.804806, 48.963116], [1.806087, 48.963158], [1.808349, 48.963268], [1.808349, 48.963268], [1.810836, 48.963444], [1.812404, 48.963566], [1.813131, 48.963631], [1.814207, 48.963734], [1.815536, 48.963844], [1.817769, 48.963989], [1.818851, 48.96402], [1.819572, 48.964008], [1.820063, 48.963985], [1.820777, 48.963936], [1.821583, 48.963848], [1.82207, 48.963779], [1.822616, 48.963688], [1.823181, 48.963573], [1.823728, 48.963448], [1.824079, 48.963356], [1.824678, 48.963184], [1.825258, 48.962994], [1.826026, 48.962708], [1.826604, 48.962463], [1.826867, 48.962345], [1.827471, 48.962048], [1.827911, 48.961807], [1.828199, 48.961636], [1.828622, 48.961369], [1.828819, 48.961239], [1.82931, 48.96088], [1.829603, 48.96069], [1.82974, 48.960579], [1.829985, 48.960365], [1.830338, 48.960033], [1.830742, 48.959614], [1.831024, 48.95929], [1.831324, 48.958912], [1.831596, 48.95853], [1.831824, 48.958149], [1.831915, 48.957973], [1.832107, 48.95755], [1.832242, 48.957191], [1.833991, 48.952057], [1.834242, 48.951275], [1.835115, 48.948364], [1.835262, 48.94791], [1.835426, 48.94746], [1.835567, 48.947124], [1.83572, 48.946793], [1.835889, 48.946461], [1.836082, 48.94611], [1.83623, 48.945858], [1.836403, 48.945583], [1.836767, 48.945053], [1.837815, 48.943653], [1.838136, 48.94318], [1.838394, 48.942745], [1.840558, 48.938717], [1.840558, 48.938717], [1.840865, 48.938141], [1.841001, 48.937904], [1.841143, 48.937668], [1.841316, 48.937405], [1.841503, 48.937138], [1.841732, 48.93684], [1.843614, 48.934452], [1.843903, 48.934059], [1.844174, 48.933632], [1.846583, 48.92934], [1.846968, 48.928532], [1.848455, 48.925297], [1.84929, 48.923561], [1.849773, 48.922451], [1.849879, 48.922115], [1.850454, 48.920414], [1.851154, 48.918449], [1.851447, 48.917667], [1.851966, 48.916492], [1.853271, 48.913639], [1.853484, 48.9132], [1.853718, 48.912762], [1.853892, 48.912464], [1.854088, 48.91217], [1.854455, 48.911682], [1.854642, 48.911457], [1.854846, 48.91124], [1.855108, 48.91098], [1.855378, 48.910732], [1.855879, 48.910305], [1.856242, 48.910019], [1.856595, 48.90976], [1.857037, 48.909462], [1.857901, 48.908924], [1.857901, 48.908924], [1.8609, 48.907089], [1.861855, 48.906498], [1.862494, 48.906063], [1.863517, 48.905277], [1.864238, 48.904705], [1.864685, 48.904305], [1.86502, 48.90398], [1.86535, 48.903595], [1.865706, 48.903114], [1.86612, 48.902454], [1.867062, 48.900944], [1.86915, 48.897572], [1.869468, 48.897041], [1.870958, 48.894657], [1.871395, 48.893944], [1.871536, 48.893692], [1.87167, 48.893433], [1.871823, 48.893112], [1.871857, 48.893024], [1.871857, 48.893024], [1.871994, 48.892662], [1.872107, 48.892307], [1.872187, 48.892006], [1.87313, 48.888199], [1.873795, 48.885433], [1.874383, 48.883072], [1.874721, 48.881622], [1.876042, 48.876217], [1.876553, 48.874046], [1.876609, 48.873672], [1.876647, 48.87328], [1.876654, 48.87286], [1.876612, 48.872265], [1.876514, 48.871742], [1.876391, 48.871223], [1.876248, 48.870842], [1.875921, 48.870102], [1.874576, 48.867764], [1.874449, 48.86747], [1.874338, 48.867188], [1.874266, 48.866947], [1.874198, 48.866631], [1.87416, 48.866367], [1.874138, 48.866093], [1.874135, 48.865704], [1.874163, 48.865368], [1.874208, 48.865047], [1.874334, 48.86446], [1.87566, 48.859898], [1.87566, 48.859898], [1.875943, 48.858948], [1.876095, 48.858513], [1.876234, 48.858189], [1.876388, 48.857861], [1.876624, 48.857437], [1.876893, 48.857029], [1.87719, 48.856625], [1.877521, 48.856197], [1.878362, 48.855152], [1.87895, 48.854443], [1.87936, 48.854038], [1.879872, 48.853603], [1.880255, 48.853325], [1.880699, 48.853031], [1.881229, 48.852726], [1.882043, 48.852318], [1.883632, 48.851551], [1.885458, 48.850693], [1.886894, 48.850025], [1.887799, 48.849586], [1.888794, 48.849094], [1.889056, 48.848949], [1.889478, 48.848694], [1.889629, 48.848595], [1.890342, 48.848011], [1.890789, 48.847576], [1.89143, 48.846855], [1.891926, 48.8461], [1.894264, 48.842449], [1.894811, 48.841782], [1.895416, 48.841125], [1.896225, 48.840466], [1.89646, 48.840298], [1.896695, 48.840149], [1.896969, 48.839993], [1.897136, 48.839912], [1.897332, 48.839802], [1.897642, 48.839642], [1.897956, 48.839489], [1.89854, 48.839237], [1.899039, 48.839046], [1.899738, 48.838818], [1.9003, 48.838654], [1.912704, 48.83527], [1.913345, 48.835106], [1.914293, 48.834888], [1.91534, 48.834671], [1.916088, 48.834534], [1.916906, 48.834404], [1.917753, 48.834286], [1.918398, 48.834213], [1.923086, 48.833744], [1.924799, 48.833534], [1.92568, 48.833439], [1.9273, 48.833317], [1.933972, 48.832764], [1.934995, 48.832672], [1.939378, 48.832317], [1.941274, 48.832207], [1.942971, 48.832031], [1.943587, 48.831982], [1.943587, 48.831982], [1.946687, 48.83173], [1.947891, 48.831715], [1.948167, 48.831696], [1.95247, 48.831264], [1.953461, 48.831181], [1.954262, 48.831131], [1.954836, 48.8311], [1.956116, 48.831066], [1.961516, 48.83094], [1.961516, 48.83094], [1.971867, 48.830696], [1.972852, 48.830669], [1.977685, 48.830563], [1.979113, 48.830521], [1.979494, 48.830498], [1.980167, 48.830444], [1.980827, 48.830372], [1.981137, 48.83033], [1.981819, 48.830215], [1.982285, 48.830124], [1.982702, 48.830032], [1.983439, 48.829849], [1.983857, 48.829727], [1.984544, 48.829506], [1.985132, 48.829288], [1.985653, 48.829075], [1.986142, 48.828854], [1.986908, 48.828461], [1.987464, 48.828136], [1.988007, 48.827789], [1.988352, 48.827541], [1.988765, 48.827229], [1.989004, 48.827026], [1.989791, 48.826321], [1.99157, 48.824692], [1.992004, 48.824322], [1.992243, 48.824135], [1.992509, 48.823936], [1.992908, 48.823666], [1.993459, 48.823326], [1.993837, 48.823109], [1.993837, 48.823109], [1.994224, 48.822906], [1.994801, 48.822632], [1.995512, 48.822334], [1.996167, 48.822086], [2.006871, 48.818134], [2.013891, 48.815575], [2.025827, 48.811172], [2.030817, 48.809338], [2.031421, 48.80912], [2.032381, 48.808811], [2.032975, 48.808636], [2.033911, 48.808392], [2.034616, 48.808228], [2.035111, 48.808128], [2.035681, 48.808018], [2.036194, 48.807934], [2.040669, 48.807255], [2.040669, 48.807255], [2.043338, 48.80685], [2.044199, 48.806694], [2.044483, 48.806629], [2.045194, 48.806454], [2.045822, 48.806271], [2.046127, 48.806175], [2.046505, 48.806042], [2.047127, 48.805794], [2.047743, 48.805515], [2.048266, 48.805248], [2.0488, 48.804947], [2.049199, 48.804695], [2.049438, 48.804531], [2.049851, 48.804222], [2.050162, 48.803967], [2.050487, 48.803673], [2.051888, 48.802353], [2.052299, 48.80201], [2.052697, 48.801697], [2.054015, 48.800732], [2.054603, 48.800308], [2.054989, 48.800014], [2.055522, 48.799641], [2.055973, 48.799343], [2.056402, 48.799088], [2.057032, 48.798759], [2.057484, 48.798542], [2.057853, 48.798386], [2.058326, 48.79821], [2.058712, 48.798073], [2.059152, 48.797939], [2.059544, 48.797832], [2.060122, 48.797699], [2.060508, 48.797626], [2.061044, 48.797539], [2.061572, 48.797466], [2.062132, 48.797409], [2.062794, 48.797367], [2.06316, 48.797352], [2.063751, 48.797356], [2.064116, 48.797367], [2.064805, 48.797417], [2.065163, 48.797459], [2.065739, 48.797554], [2.066336, 48.797676], [2.067054, 48.79784], [2.068299, 48.798145], [2.069825, 48.798496], [2.070525, 48.798645], [2.071035, 48.798733], [2.07137, 48.798782], [2.071908, 48.798843], [2.072472, 48.798889], [2.07292, 48.798912], [2.07292, 48.798912], [2.073731, 48.798916], [2.074384, 48.798897], [2.075033, 48.798859], [2.075849, 48.798782], [2.076796, 48.798649], [2.077418, 48.798538], [2.0779, 48.798439], [2.07846, 48.798306], [2.078946, 48.79818], [2.079601, 48.797985], [2.080022, 48.797844], [2.081032, 48.797485], [2.081316, 48.79739], [2.081558, 48.797318], [2.081904, 48.79723], [2.082296, 48.797146], [2.082716, 48.797081], [2.083097, 48.797035], [2.083491, 48.797009], [2.083911, 48.796997], [2.085155, 48.796993], [2.085654, 48.796963], [2.085899, 48.79694], [2.08639, 48.796871], [2.08683, 48.796787], [2.087087, 48.796726], [2.087648, 48.796562], [2.087904, 48.796471], [2.088194, 48.79636], [2.089271, 48.795891], [2.089784, 48.795696], [2.090304, 48.795525], [2.090643, 48.795429], [2.09112, 48.795311], [2.091608, 48.795212], [2.092079, 48.795151], [2.09247, 48.795113], [2.092848, 48.795097], [2.093354, 48.795094], [2.094146, 48.795116], [2.094848, 48.795162], [2.100394, 48.795643], [2.102403, 48.795853], [2.103299, 48.795937], [2.104128, 48.795982], [2.104726, 48.795986], [2.105178, 48.795975], [2.105712, 48.79594], [2.105997, 48.79591], [2.106849, 48.795807], [2.107594, 48.795704], [2.107991, 48.795628], [2.108338, 48.795551], [2.109018, 48.795368], [2.109574, 48.795193], [2.109873, 48.795086], [2.110359, 48.794895], [2.110818, 48.794682], [2.11189, 48.794136], [2.112275, 48.793964], [2.112707, 48.793789], [2.113698, 48.793438], [2.11431, 48.793274], [2.114711, 48.793175], [2.115269, 48.793064], [2.116055, 48.792938], [2.116668, 48.792862], [2.122804, 48.792141], [2.123354, 48.792088], [2.123851, 48.792061], [2.124233, 48.792053], [2.124958, 48.792068], [2.125353, 48.792095], [2.125902, 48.792145], [2.126437, 48.79221], [2.126966, 48.792286], [2.127675, 48.792427], [2.127876, 48.792477], [2.128431, 48.792637], [2.12874, 48.792736], [2.129487, 48.793007], [2.129911, 48.793182], [2.130226, 48.793324], [2.130878, 48.793671], [2.131502, 48.794025], [2.132165, 48.794361], [2.132743, 48.794632], [2.133061, 48.794769], [2.133542, 48.794956], [2.134131, 48.795143], [2.134786, 48.795315], [2.135211, 48.795403], [2.135493, 48.795448], [2.135493, 48.795448], [2.136177, 48.795551], [2.136526, 48.795593], [2.136925, 48.795624], [2.137677, 48.79565], [2.13816, 48.795647], [2.139336, 48.7957], [2.139679, 48.7957], [2.140702, 48.795673], [2.140919, 48.795677], [2.143983, 48.795818], [2.145443, 48.795872], [2.150112, 48.796017], [2.150639, 48.796043], [2.151254, 48.796101], [2.151802, 48.796173], [2.152568, 48.796303], [2.153258, 48.796452], [2.153609, 48.796543], [2.15494, 48.796936], [2.15558, 48.797115], [2.155943, 48.797207], [2.156826, 48.797386], [2.1577, 48.797539], [2.158113, 48.797626], [2.158888, 48.797806], [2.160229, 48.798149], [2.160688, 48.798286], [2.161207, 48.798454], [2.163614, 48.799271], [2.164285, 48.799484], [2.164853, 48.799652], [2.165991, 48.799965], [2.167239, 48.800228], [2.167916, 48.800346], [2.169237, 48.800514], [2.169962, 48.800575], [2.170831, 48.800617], [2.171536, 48.800629], [2.172985, 48.800613], [2.172985, 48.800613], [2.174956, 48.800583], [2.175895, 48.800579], [2.176628, 48.800591], [2.177366, 48.800621], [2.177784, 48.800648], [2.178245, 48.800694], [2.178773, 48.800762], [2.179265, 48.800846], [2.180384, 48.801064], [2.181679, 48.801376], [2.18237, 48.801563], [2.182929, 48.801727], [2.183464, 48.801903], [2.183961, 48.802078], [2.184487, 48.802284], [2.185237, 48.802597], [2.185716, 48.802807], [2.186016, 48.802956], [2.18662, 48.803268], [2.187114, 48.803562], [2.187373, 48.80373], [2.187616, 48.803898], [2.188129, 48.804272], [2.189939, 48.805698], [2.189939, 48.805698], [2.190779, 48.80637], [2.191062, 48.806633], [2.191429, 48.807007], [2.191919, 48.807529], [2.192415, 48.808098], [2.192797, 48.80851], [2.193132, 48.808899], [2.193574, 48.80946], [2.194015, 48.810093], [2.194626, 48.811089], [2.195545, 48.812721], [2.196025, 48.813511], [2.196435, 48.814114], [2.19676, 48.814522], [2.197095, 48.814911], [2.197474, 48.815311], [2.19789, 48.815712], [2.198126, 48.815922], [2.198494, 48.816216], [2.198897, 48.816525], [2.199357, 48.816849], [2.19988, 48.817184], [2.200417, 48.81752], [2.20098, 48.817825], [2.201569, 48.818119], [2.202154, 48.81839], [2.202786, 48.818645], [2.203435, 48.81889], [2.204088, 48.819103], [2.204756, 48.819302], [2.205445, 48.819489], [2.209563, 48.820419], [2.210763, 48.820683], [2.211558, 48.820843], [2.212347, 48.820976], [2.212964, 48.821072], [2.213769, 48.821167], [2.214553, 48.821247], [2.215075, 48.821285], [2.215075, 48.821285], [2.216013, 48.821342], [2.216582, 48.821362], [2.21731, 48.821373], [2.218372, 48.821373], [2.219173, 48.82135], [2.219779, 48.821312], [2.220942, 48.821201], [2.22161, 48.821125], [2.222446, 48.821011], [2.223101, 48.820904], [2.223686, 48.820793], [2.224505, 48.820625], [2.225586, 48.820374], [2.226275, 48.820194], [2.227042, 48.819973], [2.227459, 48.819843], [2.228069, 48.819649], [2.228697, 48.819427], [2.229812, 48.819004], [2.229812, 48.819004], [2.230498, 48.818729], [2.232702, 48.81786], [2.237877, 48.815937], [2.239233, 48.815464], [2.240161, 48.815159], [2.24055, 48.815037], [2.241361, 48.814808], [2.241989, 48.81464], [2.242858, 48.814423], [2.242858, 48.814423], [2.244259, 48.814106], [2.249322, 48.813152], [2.250099, 48.813011], [2.250818, 48.812904], [2.251539, 48.812809], [2.252271, 48.812737], [2.252988, 48.812683], [2.253715, 48.812645], [2.254417, 48.812626], [2.255151, 48.812634], [2.25588, 48.812672], [2.259155, 48.812939], [2.260849, 48.81308], [2.263136, 48.813293], [2.266812, 48.813614], [2.27424, 48.814278], [2.27424, 48.814278], [2.275825, 48.814407], [2.278251, 48.814571], [2.279423, 48.814671], [2.28009, 48.814735], [2.280827, 48.814827], [2.281342, 48.814903], [2.282051, 48.815029], [2.283272, 48.815266], [2.284328, 48.81551], [2.285578, 48.815849], [2.286583, 48.816147], [2.287231, 48.81636], [2.288145, 48.816681], [2.289056, 48.817028], [2.289685, 48.817287], [2.290288, 48.817551], [2.290785, 48.817791], [2.291924, 48.818382], [2.291924, 48.818382], [2.292655, 48.818783], [2.293207, 48.819096], [2.294454, 48.819862], [2.294932, 48.82019], [2.295315, 48.820484], [2.295809, 48.82095], [2.296844, 48.82196], [2.297275, 48.822369], [2.297696, 48.822727], [2.298193, 48.823112], [2.299403, 48.823971], [2.300013, 48.824432], [2.303523, 48.827305], [2.304087, 48.827789], [2.30448, 48.828087], [2.304725, 48.828285], [2.305988, 48.829365], [2.30723, 48.830353], [2.30881, 48.831573], [2.309724, 48.832298], [2.310601, 48.833042], [2.310737, 48.833172], [2.311728, 48.834221], [2.312188, 48.834652], [2.312532, 48.835026], [2.313199, 48.835819], [2.313432, 48.83606], [2.313653, 48.836254], [2.314523, 48.836964], [2.315373, 48.837708], [2.315655, 48.837978], [2.315849, 48.838196]]}, "properties": {"id": "transilien-n", "branchId": "transilien-n::1", "termini": "Mantes-la-Jolie - Gare Montparnasse", "source": "Ile-de-France Mobilites GTFS (data.iledefrance-mobilites.fr), Mobility License"}}, {"type": "Feature", "geometry": {"type": "LineString", "coordinates": [[2.315849, 48.838196], [2.315655, 48.837978], [2.315373, 48.837708], [2.314523, 48.836964], [2.313653, 48.836254], [2.313432, 48.83606], [2.313199, 48.835819], [2.312532, 48.835026], [2.312188, 48.834652], [2.311728, 48.834221], [2.310504, 48.832916], [2.310363, 48.832783], [2.309109, 48.83173], [2.307854, 48.830727], [2.306685, 48.829811], [2.302965, 48.826771], [2.3016, 48.825661], [2.300408, 48.824677], [2.297531, 48.822323], [2.29722, 48.822063], [2.296908, 48.821793], [2.296024, 48.82098], [2.295729, 48.820728], [2.295075, 48.820232], [2.294871, 48.820091], [2.293827, 48.819405], [2.293397, 48.819107], [2.292795, 48.818726], [2.292437, 48.818512], [2.292068, 48.818317], [2.291645, 48.818108], [2.291645, 48.818108], [2.291518, 48.818047], [2.28971, 48.817261], [2.28908, 48.817001], [2.288168, 48.81665], [2.286962, 48.816231], [2.286605, 48.81612], [2.285597, 48.815823], [2.284884, 48.815624], [2.284341, 48.815483], [2.28365, 48.815315], [2.282945, 48.815166], [2.281873, 48.81496], [2.280832, 48.814793], [2.280096, 48.814705], [2.279487, 48.814644], [2.277781, 48.814495], [2.276456, 48.814346], [2.275847, 48.814285], [2.274956, 48.814205], [2.273777, 48.81411], [2.273777, 48.81411], [2.272276, 48.814014], [2.271284, 48.813942], [2.266833, 48.81353], [2.260856, 48.813026], [2.256616, 48.812656], [2.255888, 48.812607], [2.255151, 48.81258], [2.254417, 48.812576], [2.253709, 48.812592], [2.25298, 48.812626], [2.252259, 48.812683], [2.251523, 48.812759], [2.250861, 48.812847], [2.250079, 48.812977], [2.247494, 48.813465], [2.243627, 48.814186], [2.242873, 48.814339], [2.242873, 48.814339], [2.242363, 48.814445], [2.24192, 48.814548], [2.241315, 48.814705], [2.240751, 48.814873], [2.240008, 48.815121], [2.237854, 48.81591], [2.232389, 48.817944], [2.229944, 48.81884], [2.229944, 48.81884], [2.227993, 48.819584], [2.22693, 48.819939], [2.226252, 48.820141], [2.22556, 48.820324], [2.224471, 48.820576], [2.22366, 48.82074], [2.223078, 48.82085], [2.222429, 48.820953], [2.221593, 48.821072], [2.220268, 48.821213], [2.219758, 48.821259], [2.219172, 48.821293], [2.218236, 48.821312], [2.217532, 48.821301], [2.216573, 48.82127], [2.215392, 48.821198], [2.21449, 48.821133], [2.21449, 48.821133], [2.213959, 48.821083], [2.212631, 48.820927], [2.211775, 48.820789], [2.2108, 48.820606], [2.206654, 48.819702], [2.20548, 48.819439], [2.204788, 48.819256], [2.204124, 48.819061], [2.20347, 48.818844], [2.202828, 48.8186], [2.202202, 48.818333], [2.201627, 48.818069], [2.201039, 48.817776], [2.200487, 48.817467], [2.199955, 48.817135], [2.199448, 48.816795], [2.198987, 48.816471], [2.198584, 48.81617], [2.198226, 48.815884], [2.197972, 48.815666], [2.197544, 48.815277], [2.197159, 48.814888], [2.19682, 48.81451], [2.196486, 48.814102], [2.196072, 48.813499], [2.195595, 48.812717], [2.194674, 48.811077], [2.194061, 48.810081], [2.193623, 48.809452], [2.193179, 48.808887], [2.192851, 48.808491], [2.191893, 48.807434], [2.190845, 48.806332], [2.190502, 48.806011], [2.190129, 48.805679], [2.189792, 48.805401], [2.188939, 48.804714], [2.188641, 48.804497], [2.188641, 48.804497], [2.188176, 48.804165], [2.187927, 48.803997], [2.187667, 48.803829], [2.187057, 48.803459], [2.186749, 48.80328], [2.186195, 48.802986], [2.185343, 48.802559], [2.18507, 48.802437], [2.184549, 48.802204], [2.184039, 48.801998], [2.183532, 48.801815], [2.182817, 48.801582], [2.182072, 48.801365], [2.181139, 48.801132], [2.180548, 48.801003], [2.179889, 48.800877], [2.179354, 48.800789], [2.178699, 48.800701], [2.178263, 48.800655], [2.177792, 48.800613], [2.177369, 48.800587], [2.176633, 48.800552], [2.175897, 48.800541], [2.174957, 48.800549], [2.171987, 48.800591], [2.170882, 48.800587], [2.170882, 48.800587], [2.170366, 48.800564], [2.169791, 48.800529], [2.169244, 48.80048], [2.168606, 48.800407], [2.167925, 48.800312], [2.167249, 48.800198], [2.166723, 48.800095], [2.166007, 48.799934], [2.164973, 48.799648], [2.163993, 48.799335], [2.16286, 48.798954], [2.161081, 48.79834], [2.160339, 48.798096], [2.159841, 48.797958], [2.157578, 48.797398], [2.156195, 48.797077], [2.154701, 48.796749], [2.154287, 48.796665], [2.153827, 48.796581], [2.152263, 48.796329], [2.15139, 48.796211], [2.150755, 48.796154], [2.15023, 48.796124], [2.146516, 48.795967], [2.142087, 48.795792], [2.138513, 48.795624], [2.136983, 48.795517], [2.136436, 48.795452], [2.135531, 48.795319], [2.135531, 48.795319], [2.135267, 48.795277], [2.134861, 48.795197], [2.134549, 48.795132], [2.134272, 48.795063], [2.133964, 48.794971], [2.133699, 48.794884], [2.133212, 48.794701], [2.132632, 48.794453], [2.132188, 48.794247], [2.130356, 48.793343], [2.129868, 48.793121], [2.129496, 48.792969], [2.128831, 48.792725], [2.128273, 48.792549], [2.127845, 48.792431], [2.127619, 48.792377], [2.126974, 48.792255], [2.12643, 48.792175], [2.125921, 48.792114], [2.125379, 48.792065], [2.124746, 48.792027], [2.12434, 48.792023], [2.123857, 48.792027], [2.123604, 48.792038], [2.122815, 48.792107], [2.116048, 48.792904], [2.115249, 48.793034], [2.114889, 48.793102], [2.114224, 48.793255], [2.113387, 48.793461], [2.112483, 48.793724], [2.111936, 48.7939], [2.111507, 48.794056], [2.110951, 48.794277], [2.109706, 48.794796], [2.109179, 48.795002], [2.108749, 48.795155], [2.108296, 48.795292], [2.107824, 48.79541], [2.107365, 48.795509], [2.10689, 48.795589], [2.106405, 48.795654], [2.105923, 48.795704], [2.105434, 48.795742], [2.104947, 48.795761], [2.104451, 48.795769], [2.103961, 48.795753], [2.102994, 48.795677], [2.093898, 48.794739], [2.093082, 48.794659], [2.092352, 48.794598], [2.091745, 48.794571], [2.091135, 48.794563], [2.090528, 48.794579], [2.089918, 48.794613], [2.089312, 48.794666], [2.088709, 48.794739], [2.08811, 48.794827], [2.087503, 48.79493], [2.086919, 48.795052], [2.086343, 48.795193], [2.085777, 48.795357], [2.085225, 48.795532], [2.084635, 48.795742], [2.082097, 48.796787], [2.080763, 48.797348], [2.080234, 48.797558], [2.079679, 48.797756], [2.079125, 48.797932], [2.078559, 48.798096], [2.077985, 48.798237], [2.077411, 48.798363], [2.076814, 48.798477], [2.075941, 48.798603], [2.075297, 48.798676], [2.074626, 48.798725], [2.074002, 48.798756], [2.073449, 48.798759], [2.07292, 48.798759], [2.07292, 48.798759], [2.072756, 48.798756], [2.072188, 48.798721], [2.071492, 48.798653], [2.071098, 48.798595], [2.070419, 48.798485], [2.069645, 48.798325], [2.065395, 48.797333], [2.064557, 48.797115], [2.064077, 48.796974], [2.063786, 48.796879], [2.063521, 48.796783], [2.063005, 48.796589], [2.062674, 48.796448], [2.062224, 48.796249], [2.061691, 48.79599], [2.052953, 48.791645], [2.047746, 48.788975], [2.044456, 48.787342], [2.044456, 48.787342], [2.037753, 48.784016], [2.03715, 48.783722], [2.036515, 48.783424], [2.035852, 48.783131], [2.035249, 48.782883], [2.034417, 48.782558], [2.033894, 48.782364], [2.033096, 48.782093], [2.032008, 48.781754], [2.031143, 48.781506], [2.018544, 48.778122], [2.014815, 48.777111], [2.012801, 48.776539], [2.005379, 48.774532], [2.005379, 48.774532], [2.004943, 48.774418], [2.00151, 48.773453], [1.999154, 48.772827], [1.99817, 48.772533], [1.997555, 48.77232], [1.996961, 48.772106], [1.996651, 48.771984], [1.995658, 48.771572], [1.992113, 48.769962], [1.991395, 48.769642], [1.990775, 48.769375], [1.99037, 48.769211], [1.989606, 48.768925], [1.989128, 48.768757], [1.98482, 48.767296], [1.984219, 48.767082], [1.983344, 48.766743], [1.982915, 48.766567], [1.979661, 48.765141], [1.978527, 48.764633], [1.977156, 48.764053], [1.976167, 48.763668], [1.975472, 48.763428], [1.974588, 48.763138], [1.973804, 48.762901], [1.972474, 48.762547], [1.967029, 48.761196], [1.961691, 48.759953], [1.959297, 48.75943], [1.958463, 48.759266], [1.957839, 48.759125], [1.957622, 48.759068], [1.957274, 48.758961], [1.956848, 48.758801], [1.956418, 48.758614], [1.955631, 48.758247], [1.955252, 48.758087], [1.954673, 48.757893], [1.954055, 48.757717], [1.944295, 48.755486], [1.943273, 48.755226], [1.943273, 48.755226], [1.942202, 48.754936], [1.940844, 48.754532], [1.940344, 48.754375], [1.939871, 48.754208], [1.939473, 48.754044], [1.937991, 48.75349], [1.937297, 48.753216], [1.936485, 48.752876], [1.934213, 48.751865], [1.933323, 48.75145], [1.93206, 48.75082], [1.931312, 48.750416], [1.930463, 48.74992], [1.929641, 48.749413], [1.929176, 48.749107], [1.927135, 48.747704], [1.922696, 48.74461], [1.921314, 48.74366], [1.921314, 48.74366], [1.920824, 48.743309], [1.919901, 48.742676], [1.915947, 48.739937], [1.910973, 48.736477], [1.904284, 48.731842], [1.903095, 48.731007], [1.902151, 48.730362], [1.900635, 48.72929], [1.899636, 48.728611], [1.896351, 48.726311], [1.892728, 48.723789], [1.892462, 48.723598], [1.890911, 48.722527], [1.889078, 48.721249], [1.889078, 48.721249], [1.882167, 48.716442], [1.878939, 48.714169], [1.876678, 48.712605], [1.875899, 48.71204], [1.875048, 48.711388], [1.873639, 48.710262], [1.873092, 48.709846], [1.871816, 48.708843], [1.870648, 48.707916], [1.869659, 48.707119], [1.868651, 48.706341], [1.866631, 48.704762], [1.865116, 48.70359], [1.862716, 48.701691], [1.86177, 48.700909], [1.860788, 48.699993], [1.860281, 48.699478], [1.859712, 48.69883], [1.859368, 48.698402], [1.85895, 48.697853], [1.858673, 48.69746], [1.858266, 48.696861], [1.857894, 48.696285], [1.857638, 48.695847], [1.857456, 48.69548], [1.857302, 48.695145], [1.857225, 48.694954], [1.856632, 48.693237], [1.856632, 48.693237], [1.856318, 48.692341], [1.856204, 48.692059], [1.855845, 48.690998], [1.855107, 48.688744], [1.854395, 48.686676], [1.854088, 48.68576], [1.85326, 48.683407], [1.850289, 48.674789], [1.849049, 48.671146], [1.848244, 48.668808], [1.847824, 48.667561], [1.847359, 48.666225], [1.845785, 48.661613], [1.843512, 48.654911], [1.843125, 48.653805], [1.842928, 48.653305], [1.84265, 48.652706], [1.842511, 48.652447], [1.842265, 48.652023], [1.841973, 48.651581], [1.841497, 48.650917], [1.841017, 48.650318], [1.840723, 48.649979], [1.840333, 48.64957], [1.839797, 48.649052], [1.839436, 48.648735], [1.83888, 48.648281], [1.838601, 48.648067], [1.837908, 48.647568], [1.83757, 48.647335], [1.834908, 48.645588], [1.834232, 48.645115], [1.833327, 48.64452], [1.832607, 48.644066], [1.832096, 48.643764]]}, "properties": {"id": "transilien-n", "branchId": "transilien-n::2", "termini": "Gare Montparnasse - Rambouillet", "source": "Ile-de-France Mobilites GTFS (data.iledefrance-mobilites.fr), Mobility License"}}, {"type": "Feature", "geometry": {"type": "Point", "coordinates": [1.3704314171005363, 48.731106368847485]}, "properties": {"name": "Dreux"}}, {"type": "Feature", "geometry": {"type": "Point", "coordinates": [1.5135715190299066, 48.76839076858962]}, "properties": {"name": "Marchezais - Broué"}}, {"type": "Feature", "geometry": {"type": "Point", "coordinates": [1.6021344463889766, 48.79602555328117]}, "properties": {"name": "Houdan"}}, {"type": "Feature", "geometry": {"type": "Point", "coordinates": [1.6686619019959739, 48.829319654250604]}, "properties": {"name": "Tacoignières - Richebourg"}}, {"type": "Feature", "geometry": {"type": "Point", "coordinates": [1.7030300359022215, 48.82662740630846]}, "properties": {"name": "Orgerus - Béhoust"}}, {"type": "Feature", "geometry": {"type": "Point", "coordinates": [1.7645793224017485, 48.810463686279576]}, "properties": {"name": "Garancières - La Queue"}}, {"type": "Feature", "geometry": {"type": "Point", "coordinates": [1.8158352700699214, 48.802662371849536]}, "properties": {"name": "Montfort-l'Amaury - Méré"}}, {"type": "Feature", "geometry": {"type": "Point", "coordinates": [1.8775357849413559, 48.81532337552301]}, "properties": {"name": "Gare de Villiers Neauphle Pontchartrain"}}, {"type": "Feature", "geometry": {"type": "Point", "coordinates": [1.943537514733802, 48.831926089228816]}, "properties": {"name": "Plaisir - Grignon"}}, {"type": "Feature", "geometry": {"type": "Point", "coordinates": [2.1349078603373464, 48.79526039893613]}, "properties": {"name": "Versailles Chantiers"}}, {"type": "Feature", "geometry": {"type": "Point", "coordinates": [2.316388731382968, 48.83841119933774]}, "properties": {"name": "Gare Montparnasse"}}, {"type": "Feature", "geometry": {"type": "Point", "coordinates": [1.703836824856348, 48.989295021419494]}, "properties": {"name": "Mantes-la-Jolie"}}, {"type": "Feature", "geometry": {"type": "Point", "coordinates": [1.809133387838305, 48.96340497197892]}, "properties": {"name": "Épône - Mézières"}}, {"type": "Feature", "geometry": {"type": "Point", "coordinates": [1.8404153320794885, 48.93882932493657]}, "properties": {"name": "Nézel - Aulnay"}}, {"type": "Feature", "geometry": {"type": "Point", "coordinates": [1.8568974216555532, 48.90932809474093]}, "properties": {"name": "Maule"}}, {"type": "Feature", "geometry": {"type": "Point", "coordinates": [1.8718488171877579, 48.89302020567544]}, "properties": {"name": "Mareil-sur-Mauldre"}}, {"type": "Feature", "geometry": {"type": "Point", "coordinates": [1.8755955719389825, 48.860056612665424]}, "properties": {"name": "Beynes"}}, {"type": "Feature", "geometry": {"type": "Point", "coordinates": [1.960091444651348, 48.830838967119995]}, "properties": {"name": "Plaisir - Les Clayes"}}, {"type": "Feature", "geometry": {"type": "Point", "coordinates": [1.992798523459497, 48.82366793006802]}, "properties": {"name": "Villepreux - Les Clayes"}}, {"type": "Feature", "geometry": {"type": "Point", "coordinates": [2.0407045118857456, 48.807273444277804]}, "properties": {"name": "Fontenay-le-Fleury"}}, {"type": "Feature", "geometry": {"type": "Point", "coordinates": [2.072712440765476, 48.79877460471833]}, "properties": {"name": "Saint-Cyr"}}, {"type": "Feature", "geometry": {"type": "Point", "coordinates": [2.17158260741522, 48.800665521455045]}, "properties": {"name": "Viroflay Rive Gauche"}}, {"type": "Feature", "geometry": {"type": "Point", "coordinates": [2.189425762809199, 48.8051904761828]}, "properties": {"name": "Chaville Rive Gauche"}}, {"type": "Feature", "geometry": {"type": "Point", "coordinates": [2.215079572125279, 48.82121360785643]}, "properties": {"name": "Sèvres Rive Gauche"}}, {"type": "Feature", "geometry": {"type": "Point", "coordinates": [2.2299563222165655, 48.818872981385084]}, "properties": {"name": "Gare de Bellevue"}}, {"type": "Feature", "geometry": {"type": "Point", "coordinates": [2.2428787225795106, 48.81436409632574]}, "properties": {"name": "Meudon"}}, {"type": "Feature", "geometry": {"type": "Point", "coordinates": [2.274243860950152, 48.814225639142954]}, "properties": {"name": "Clamart"}}, {"type": "Feature", "geometry": {"type": "Point", "coordinates": [2.2919742374890983, 48.81828945559893]}, "properties": {"name": "Vanves - Malakoff"}}, {"type": "Feature", "geometry": {"type": "Point", "coordinates": [2.044615988930814, 48.78748491597792]}, "properties": {"name": "Saint-Quentin en Yvelines - Montigny-le-Bretonneux"}}, {"type": "Feature", "geometry": {"type": "Point", "coordinates": [2.0065902166898377, 48.7747853970692]}, "properties": {"name": "Trappes"}}, {"type": "Feature", "geometry": {"type": "Point", "coordinates": [1.943057018064192, 48.7551716132828]}, "properties": {"name": "La Verrière"}}, {"type": "Feature", "geometry": {"type": "Point", "coordinates": [1.9214184023981655, 48.74374799338111]}, "properties": {"name": "Coignières"}}, {"type": "Feature", "geometry": {"type": "Point", "coordinates": [1.8896613918946876, 48.721693353095276]}, "properties": {"name": "Les Essarts-le-Roi"}}, {"type": "Feature", "geometry": {"type": "Point", "coordinates": [1.8566531860615936, 48.69336112490438]}, "properties": {"name": "Le Perray"}}, {"type": "Feature", "geometry": {"type": "Point", "coordinates": [1.832207614506548, 48.6438460126836]}, "properties": {"name": "Rambouillet"}}]}