{"type": "FeatureCollection", "features": [{"type": "Feature", "geometry": {"type": "LineString", "coordinates": [[2.324486, 48.877514], [2.324244, 48.877811], [2.323821, 48.8783], [2.323674, 48.878494], [2.323172, 48.879463], [2.322956, 48.879765], [2.322795, 48.880005], [2.322533, 48.880341], [2.322112, 48.88084], [2.321897, 48.881081], [2.319009, 48.884052], [2.318126, 48.884953], [2.317823, 48.885239], [2.317024, 48.88596], [2.315897, 48.886925], [2.315576, 48.887177], [2.315015, 48.887589], [2.314648, 48.887829], [2.312949, 48.888836], [2.312479, 48.889095], [2.312272, 48.889191], [2.311122, 48.889793], [2.310696, 48.890026], [2.310284, 48.89027], [2.307212, 48.892033], [2.305224, 48.893211], [2.303087, 48.894497], [2.300576, 48.895958], [2.298556, 48.897182], [2.297255, 48.897907], [2.295092, 48.89909], [2.294558, 48.899387], [2.294082, 48.899673], [2.292792, 48.900471], [2.291883, 48.901024], [2.291296, 48.901356], [2.290176, 48.90202], [2.289607, 48.90234], [2.28885, 48.902752], [2.285622, 48.904633], [2.285163, 48.904907], [2.284053, 48.905609], [2.283318, 48.906055], [2.283318, 48.906055], [2.282228, 48.906708], [2.280746, 48.907551], [2.280266, 48.907848], [2.279768, 48.908169], [2.278711, 48.908867], [2.278428, 48.909039], [2.277987, 48.909286], [2.277611, 48.909485], [2.27612, 48.910183], [2.273077, 48.911575], [2.272558, 48.911793], [2.272061, 48.91198], [2.27179, 48.912075], [2.271206, 48.912258], [2.27023, 48.912552], [2.269665, 48.912708], [2.268581, 48.912983], [2.26739, 48.913235], [2.266944, 48.913319], [2.26622, 48.913437], [2.265156, 48.913597], [2.263919, 48.913746], [2.26288, 48.913845], [2.261923, 48.913914], [2.2609, 48.913956], [2.259122, 48.91399], [2.257828, 48.913975], [2.256592, 48.913914], [2.25557, 48.913834], [2.25421, 48.913712], [2.253336, 48.913601], [2.253, 48.913551], [2.252594, 48.913475], [2.25192, 48.913326], [2.250332, 48.912922], [2.249216, 48.912624], [2.248507, 48.912422], [2.247282, 48.912056], [2.243535, 48.910839], [2.242666, 48.910576], [2.240595, 48.909966], [2.239753, 48.909698], [2.239753, 48.909698], [2.23704, 48.908779], [2.235943, 48.908394], [2.234436, 48.907848], [2.233807, 48.907631], [2.232702, 48.907284], [2.232008, 48.907082], [2.2315, 48.906956], [2.230946, 48.906837], [2.230452, 48.90675], [2.22959, 48.906631], [2.228737, 48.906532], [2.227568, 48.906418], [2.226989, 48.906376], [2.226108, 48.906342], [2.223429, 48.906307], [2.222502, 48.906307], [2.221709, 48.906322], [2.221117, 48.906345], [2.220354, 48.906387], [2.219789, 48.906429], [2.218932, 48.906509], [2.217974, 48.90662], [2.217541, 48.906677], [2.216576, 48.906822], [2.215783, 48.90696], [2.214641, 48.9072], [2.213616, 48.907444], [2.212811, 48.907654], [2.212388, 48.907772], [2.211492, 48.908043], [2.211048, 48.908184], [2.210237, 48.908463], [2.209224, 48.908844], [2.208456, 48.909161], [2.207701, 48.909512], [2.192958, 48.916695], [2.191492, 48.917397], [2.1894, 48.918373], [2.187781, 48.919159], [2.187029, 48.919502], [2.186208, 48.919865], [2.185322, 48.920284], [2.185322, 48.920284], [2.184854, 48.920525], [2.184294, 48.920818], [2.182839, 48.921612], [2.182239, 48.921913], [2.180573, 48.922722], [2.17976, 48.923138], [2.178802, 48.923668], [2.178334, 48.923943], [2.177726, 48.924316], [2.177577, 48.924419], [2.177272, 48.924603], [2.175257, 48.925907], [2.174663, 48.926281], [2.174095, 48.92662], [2.172609, 48.927479], [2.17239, 48.927616], [2.169541, 48.929462], [2.168832, 48.929935], [2.168116, 48.930431], [2.16712, 48.931145], [2.16642, 48.931625], [2.16368, 48.933403], [2.162645, 48.934063], [2.161308, 48.934891], [2.158588, 48.936649], [2.157902, 48.937069], [2.157124, 48.937534], [2.157124, 48.937534], [2.154805, 48.938915], [2.1538, 48.939526], [2.151409, 48.941044], [2.150414, 48.941708], [2.149467, 48.942356], [2.147662, 48.943691], [2.147214, 48.944004], [2.146369, 48.9445], [2.145128, 48.945278], [2.144475, 48.945694], [2.143883, 48.94611], [2.143883, 48.94611], [2.143482, 48.946377], [2.14229, 48.947201], [2.140782, 48.948212], [2.140037, 48.948681], [2.139437, 48.949081], [2.137458, 48.950359], [2.137037, 48.950619], [2.136322, 48.951092], [2.135593, 48.951546], [2.131735, 48.954021], [2.13039, 48.954834], [2.129928, 48.955093], [2.129167, 48.955498], [2.128729, 48.955711], [2.128031, 48.956028], [2.127218, 48.956387], [2.126176, 48.956806], [2.125352, 48.957111], [2.124578, 48.957367], [2.124148, 48.9575], [2.123082, 48.957798], [2.122396, 48.95797], [2.121541, 48.958164], [2.120585, 48.958378], [2.119551, 48.958595], [2.118304, 48.958824], [2.117026, 48.959026], [2.116064, 48.959156], [2.115247, 48.959248], [2.114583, 48.959316], [2.114186, 48.959351], [2.113492, 48.959389], [2.112822, 48.959408], [2.112468, 48.959404], [2.111959, 48.959396], [2.111581, 48.959377], [2.110877, 48.959328], [2.110551, 48.959297], [2.109995, 48.959229], [2.109457, 48.959152], [2.10868, 48.959007], [2.108051, 48.95887], [2.106321, 48.958466], [2.105869, 48.95837], [2.103672, 48.957939], [2.102855, 48.957764], [2.102451, 48.957664], [2.10206, 48.957558], [2.101417, 48.957367], [2.100814, 48.957169], [2.098783, 48.956474], [2.098213, 48.956291], [2.097674, 48.956131], [2.096895, 48.955936], [2.09622, 48.955795], [2.095556, 48.955681], [2.092621, 48.95525], [2.092621, 48.95525], [2.091694, 48.955086], [2.091168, 48.954971], [2.090303, 48.95475], [2.089694, 48.954571], [2.089375, 48.954464], [2.088711, 48.954227], [2.088177, 48.954014], [2.084971, 48.952614], [2.075008, 48.948242], [2.060786, 48.941963], [2.040735, 48.933098], [2.040735, 48.933098], [2.033386, 48.929855], [2.032894, 48.929649], [2.032297, 48.929413], [2.031638, 48.929169], [2.031231, 48.929024], [2.030696, 48.928848], [2.030043, 48.92865], [2.029064, 48.928387], [2.02823, 48.928188], [2.02759, 48.928055], [2.026947, 48.927937], [2.026146, 48.927807], [2.025192, 48.927685], [2.024442, 48.927608], [2.023957, 48.92757], [2.023237, 48.927525], [2.02262, 48.927498], [2.021726, 48.927483], [2.021375, 48.927483], [2.020536, 48.927502], [2.019128, 48.927582], [2.017987, 48.927692], [2.01699, 48.927826], [2.016153, 48.927963], [2.015707, 48.928047], [2.015262, 48.928135], [2.014069, 48.928398], [2.012985, 48.928677], [2.012074, 48.928936], [2.011336, 48.929169], [2.010228, 48.92955], [2.009709, 48.929745], [2.009199, 48.929947], [2.00852, 48.930225], [2.007992, 48.930458], [2.007471, 48.930698], [2.006947, 48.930954], [2.006367, 48.931252], [2.005807, 48.931553], [2.005196, 48.931911], [2.004805, 48.932159], [2.004364, 48.932461], [2.004014, 48.932716], [2.003462, 48.933163], [2.003062, 48.933517], [2.002643, 48.933918], [2.002312, 48.934265], [2.00205, 48.934559], [2.001758, 48.934898], [2.001281, 48.935524], [2.001048, 48.93586], [2.000871, 48.936134], [2.000547, 48.936687], [2.000378, 48.937016], [2.000232, 48.937321], [2.000029, 48.937801], [1.999929, 48.938076], [1.999856, 48.938301], [1.999743, 48.938713], [1.999643, 48.939167], [1.999588, 48.939461], [1.999588, 48.939461], [1.999449, 48.940178], [1.999069, 48.94202], [1.995543, 48.959557], [1.994826, 48.963066], [1.994535, 48.964611], [1.994261, 48.965958], [1.994156, 48.966419], [1.993855, 48.967907], [1.993641, 48.969017], [1.993522, 48.969547], [1.993441, 48.969864], [1.993281, 48.970413], [1.993187, 48.970703], [1.992996, 48.971245], [1.992755, 48.971828], [1.992532, 48.972301], [1.99196, 48.973381], [1.991641, 48.973892], [1.991284, 48.974419], [1.991145, 48.974613], [1.990711, 48.975174], [1.990168, 48.975819], [1.989898, 48.97612], [1.989349, 48.976692], [1.98892, 48.977108], [1.98849, 48.977505], [1.987861, 48.978035], [1.987247, 48.978516], [1.986823, 48.978828], [1.986258, 48.979214], [1.985691, 48.979614], [1.984777, 48.980278], [1.983145, 48.981373], [1.983145, 48.981373], [1.981798, 48.982277], [1.980606, 48.983063], [1.980284, 48.983269], [1.979119, 48.983974], [1.978528, 48.984318], [1.977265, 48.98502], [1.976101, 48.985626], [1.974945, 48.986206], [1.973589, 48.986839], [1.973127, 48.987045], [1.972462, 48.987335], [1.971135, 48.987896], [1.970051, 48.988342], [1.969447, 48.988579], [1.968858, 48.9888], [1.968255, 48.989017], [1.967479, 48.989281], [1.965969, 48.989769], [1.964399, 48.990238], [1.96361, 48.990463], [1.961861, 48.990929], [1.957291, 48.992119], [1.955155, 48.992661], [1.955155, 48.992661], [1.951761, 48.993515], [1.943312, 48.995724], [1.942855, 48.995838], [1.941563, 48.996117], [1.940796, 48.996265], [1.939947, 48.996403], [1.939116, 48.996529], [1.938256, 48.996632], [1.937011, 48.996754], [1.936314, 48.996807], [1.935352, 48.996861], [1.934716, 48.99688], [1.93361, 48.996895], [1.932815, 48.996895], [1.931909, 48.996868], [1.930672, 48.996799], [1.929684, 48.996723], [1.928661, 48.996613], [1.927935, 48.996521], [1.927458, 48.996452], [1.926556, 48.9963], [1.925603, 48.996101], [1.924802, 48.995914], [1.92142, 48.995037], [1.920532, 48.994774], [1.918439, 48.994102], [1.917723, 48.993862], [1.916038, 48.993275], [1.913999, 48.992619], [1.913999, 48.992619], [1.912788, 48.992249], [1.910734, 48.991665], [1.90642, 48.990341], [1.902149, 48.989002], [1.895388, 48.986866], [1.890634, 48.985394], [1.848305, 48.972111], [1.848305, 48.972111], [1.835974, 48.968239], [1.83489, 48.967903], [1.832729, 48.967278], [1.831038, 48.966816], [1.830149, 48.966591], [1.829196, 48.966354], [1.828327, 48.966148], [1.827109, 48.96587], [1.825183, 48.965458], [1.823828, 48.965187], [1.822972, 48.965027], [1.821647, 48.964794], [1.819571, 48.964451], [1.816919, 48.96405], [1.81588, 48.963917], [1.814207, 48.963734], [1.813131, 48.963631], [1.810836, 48.963444], [1.808349, 48.963268], [1.808349, 48.963268], [1.806087, 48.963158], [1.804806, 48.963116], [1.803227, 48.963078], [1.801126, 48.963058], [1.799693, 48.963066], [1.775928, 48.963512], [1.773577, 48.963577], [1.772335, 48.963627], [1.771402, 48.963669], [1.770262, 48.96373], [1.768357, 48.963844], [1.766276, 48.964001], [1.765148, 48.964092], [1.762955, 48.964298], [1.7621, 48.964394], [1.761235, 48.9645], [1.760405, 48.964615], [1.759567, 48.964741], [1.757344, 48.965103], [1.755241, 48.965527], [1.753836, 48.965843], [1.752588, 48.966152], [1.751585, 48.966427], [1.750906, 48.966629], [1.750092, 48.966888], [1.749556, 48.967068], [1.748376, 48.967503], [1.747045, 48.968044], [1.742497, 48.969959], [1.741678, 48.970314], [1.741147, 48.970554], [1.740665, 48.970787], [1.740175, 48.971035], [1.739604, 48.97134], [1.738903, 48.971745], [1.738099, 48.97224], [1.737694, 48.972507], [1.737038, 48.972965], [1.736701, 48.973213], [1.736118, 48.973663], [1.734928, 48.974613], [1.734207, 48.975151], [1.733554, 48.975594], [1.733069, 48.975906], [1.732196, 48.976429], [1.730312, 48.977505], [1.72959, 48.977901], [1.728733, 48.978344], [1.727954, 48.978725], [1.727255, 48.979034], [1.726789, 48.979229], [1.72632, 48.979412], [1.723086, 48.980564], [1.722309, 48.980862], [1.721081, 48.981365], [1.719931, 48.981808], [1.719336, 48.982021], [1.716075, 48.983124], [1.715163, 48.983459], [1.715163, 48.983459], [1.714704, 48.983646], [1.714124, 48.983906], [1.71347, 48.984219], [1.711861, 48.985046], [1.711433, 48.985275], [1.707447, 48.987576], [1.7069, 48.987873], [1.706619, 48.98801], [1.706403, 48.988106], [1.70596, 48.988277], [1.705485, 48.98843], [1.70476, 48.988644], [1.704317, 48.988792], [1.703398, 48.989166], [1.703398, 48.989166], [1.701602, 48.989929], [1.701177, 48.990097], [1.70098, 48.990166], [1.700663, 48.990257], [1.70032, 48.990341], [1.700052, 48.990391], [1.699695, 48.990437], [1.699255, 48.990471], [1.698586, 48.990471], [1.697169, 48.990398], [1.696971, 48.990383], [1.696342, 48.990307], [1.695637, 48.990265], [1.695276, 48.990227], [1.694829, 48.990166], [1.693669, 48.989983], [1.693352, 48.989941], [1.69287, 48.989895], [1.692367, 48.989876], [1.691896, 48.989887], [1.691661, 48.989902], [1.691156, 48.98996], [1.690696, 48.990036], [1.690213, 48.990154], [1.689971, 48.990223], [1.689372, 48.990444], [1.689162, 48.990536], [1.688926, 48.990654], [1.688577, 48.990849], [1.688294, 48.991035], [1.687652, 48.991516], [1.686006, 48.992783], [1.685525, 48.993134], [1.685237, 48.993324], [1.684963, 48.993477], [1.684716, 48.993599], [1.684348, 48.993759], [1.68402, 48.993881], [1.683651, 48.993992], [1.683341, 48.994064], [1.682998, 48.994133], [1.682499, 48.994202], [1.680897, 48.994404], [1.6804, 48.994442], [1.668621, 48.994781], [1.667479, 48.994808], [1.66565, 48.994869], [1.640653, 48.995594], [1.639604, 48.995647], [1.63903, 48.995689], [1.637675, 48.995815], [1.636672, 48.995941], [1.635596, 48.996101], [1.634615, 48.996273], [1.633857, 48.996422], [1.633155, 48.996574], [1.632305, 48.996777], [1.631441, 48.997002], [1.630412, 48.997299], [1.630412, 48.997299], [1.62955, 48.99757], [1.62876, 48.997845], [1.628437, 48.997963], [1.627202, 48.998455], [1.626453, 48.998795], [1.625942, 48.999035], [1.625524, 48.999245], [1.625041, 48.999496], [1.624123, 49.000011], [1.623662, 49.000294], [1.623177, 49.000614], [1.622579, 49.00103], [1.622016, 49.001442], [1.621223, 49.002071], [1.620309, 49.002861], [1.619988, 49.003159], [1.619419, 49.003723], [1.614759, 49.008575], [1.614455, 49.008923], [1.614254, 49.009171], [1.61406, 49.009422], [1.613792, 49.009789], [1.612254, 49.012032], [1.611714, 49.01284], [1.611395, 49.013363], [1.611224, 49.013618], [1.610735, 49.014305], [1.60917, 49.016182], [1.608024, 49.017532], [1.607285, 49.018463], [1.60629, 49.019672], [1.604295, 49.021992], [1.601323, 49.025562], [1.600284, 49.026871], [1.59914, 49.02821], [1.597073, 49.03072], [1.595755, 49.032261], [1.593305, 49.035221], [1.593103, 49.035461], [1.592888, 49.035702], [1.592674, 49.035919], [1.592426, 49.036148], [1.592168, 49.036366], [1.59191, 49.036564], [1.591333, 49.036976], [1.591018, 49.037167], [1.590701, 49.037346], [1.590376, 49.037514], [1.590045, 49.03767], [1.589385, 49.037949], [1.588778, 49.038177], [1.588503, 49.038265], [1.587872, 49.038448], [1.587424, 49.038555], [1.586852, 49.038677], [1.586372, 49.038757], [1.585783, 49.038834], [1.585225, 49.038887], [1.584502, 49.038929], [1.583708, 49.038937], [1.583002, 49.03891], [1.582368, 49.038857], [1.581673, 49.038765], [1.581444, 49.038727], [1.581444, 49.038727], [1.581087, 49.038673], [1.58086, 49.038628], [1.580389, 49.038525], [1.580049, 49.038441], [1.579675, 49.038338], [1.579181, 49.038177], [1.578652, 49.037987], [1.578241, 49.037823], [1.577881, 49.037655], [1.57625, 49.03688], [1.574978, 49.036263], [1.57449, 49.036034], [1.573969, 49.035778], [1.573152, 49.035404], [1.572468, 49.035118], [1.571681, 49.034813], [1.570814, 49.034508], [1.569993, 49.034248], [1.569196, 49.034023], [1.56849, 49.033844], [1.567558, 49.033638], [1.566817, 49.033493], [1.566122, 49.033375], [1.565416, 49.033272], [1.564658, 49.033184], [1.563863, 49.033104], [1.563065, 49.033047], [1.562289, 49.033005], [1.56158, 49.032986], [1.560976, 49.032978], [1.560262, 49.032986], [1.559612, 49.033009], [1.558774, 49.033051], [1.557356, 49.033127], [1.556088, 49.033207], [1.555016, 49.033295], [1.554073, 49.033409], [1.55365, 49.033466], [1.553184, 49.033543], [1.551822, 49.033821], [1.551092, 49.033989], [1.550313, 49.03418], [1.549623, 49.034363], [1.549192, 49.034492], [1.548767, 49.03463], [1.54558, 49.035759], [1.544444, 49.036167], [1.543304, 49.036594], [1.542319, 49.037003], [1.541893, 49.037201], [1.541464, 49.037411], [1.54047, 49.03793], [1.539381, 49.038555], [1.538359, 49.039192], [1.537612, 49.039715], [1.536852, 49.040302], [1.535887, 49.041107], [1.535121, 49.041805], [1.534106, 49.042774], [1.533171, 49.043758], [1.53279, 49.044189], [1.532421, 49.04464], [1.532123, 49.045036], [1.531779, 49.045525], [1.531197, 49.046383], [1.530334, 49.047722], [1.529647, 49.048885], [1.529297, 49.049515], [1.528965, 49.050182], [1.528675, 49.050819], [1.527833, 49.052944], [1.525769, 49.058254], [1.525336, 49.059341], [1.524995, 49.060123], [1.524889, 49.060333], [1.52478, 49.060535], [1.524181, 49.061531], [1.523882, 49.061977], [1.523638, 49.062317], [1.523395, 49.062649], [1.523115, 49.063011], [1.521052, 49.065598], [1.519197, 49.06789], [1.518777, 49.068451], [1.518523, 49.068775], [1.517865, 49.06955], [1.517355, 49.070118], [1.517025, 49.070473], [1.516662, 49.070843], [1.516386, 49.071148], [1.516083, 49.071442], [1.515489, 49.071995], [1.514617, 49.072746], [1.512805, 49.074284], [1.512409, 49.074608], [1.511362, 49.075508], [1.507844, 49.078487], [1.507077, 49.079094], [1.506865, 49.079254], [1.506429, 49.079563], [1.505763, 49.080009], [1.505358, 49.080261], [1.504931, 49.080517], [1.501027, 49.082645], [1.497717, 49.084457], [1.496973, 49.084858], [1.496365, 49.085155], [1.495514, 49.085564], [1.494945, 49.085812], [1.49437, 49.086052], [1.493815, 49.086269], [1.492592, 49.086716], [1.490795, 49.08728], [1.489143, 49.087723], [1.488069, 49.087963], [1.487649, 49.088043], [1.486824, 49.088188], [1.485107, 49.088509], [1.484525, 49.088638], [1.483716, 49.088844], [1.483296, 49.088963], [1.48272, 49.089146], [1.482014, 49.089382], [1.481213, 49.089703], [1.480694, 49.089924], [1.480142, 49.090195], [1.479493, 49.090527], [1.478752, 49.090942], [1.478316, 49.091209]]}, "properties": {"id": "transilien-j", "branchId": "transilien-j::0", "termini": "Gare Saint-Lazare - Vernon - Giverny", "source": "Ile-de-France Mobilites GTFS (data.iledefrance-mobilites.fr), Mobility License"}}, {"type": "Feature", "geometry": {"type": "LineString", "coordinates": [[1.785004, 49.285404], [1.785617, 49.284885], [1.786471, 49.284084], [1.786956, 49.283684], [1.787248, 49.283466], [1.788117, 49.28286], [1.788631, 49.282509], [1.789053, 49.282246], [1.789375, 49.282066], [1.789743, 49.281883], [1.790086, 49.281731], [1.790577, 49.281544], [1.790921, 49.281429], [1.791272, 49.281322], [1.791505, 49.281261], [1.792075, 49.281132], [1.792543, 49.281044], [1.793005, 49.280979], [1.793541, 49.280926], [1.79401, 49.280899], [1.79464, 49.280888], [1.795138, 49.280903], [1.795566, 49.28093], [1.796274, 49.28101], [1.79679, 49.281097], [1.797276, 49.2812], [1.797509, 49.281258], [1.798102, 49.281429], [1.798484, 49.281559], [1.804821, 49.283836], [1.805672, 49.284122], [1.806195, 49.284271], [1.806529, 49.284359], [1.807097, 49.284485], [1.807656, 49.284588], [1.808171, 49.284664], [1.808712, 49.284725], [1.809285, 49.284771], [1.809818, 49.284794], [1.810279, 49.284801], [1.810806, 49.284794], [1.811376, 49.284767], [1.811895, 49.284729], [1.812558, 49.284653], [1.813296, 49.284534], [1.813823, 49.284431], [1.814453, 49.284279], [1.815148, 49.284077], [1.81555, 49.283943], [1.815972, 49.283787], [1.816361, 49.283627], [1.816747, 49.283455], [1.817168, 49.283249], [1.817481, 49.283077], [1.817814, 49.282883], [1.818045, 49.282734], [1.818045, 49.282734], [1.819985, 49.281418], [1.821794, 49.280167], [1.825374, 49.277603], [1.825654, 49.277409], [1.826173, 49.277069], [1.826416, 49.27692], [1.826932, 49.276627], [1.82755, 49.27631], [1.8279, 49.276138], [1.82838, 49.275925], [1.828857, 49.275726], [1.829391, 49.275524], [1.829954, 49.27533], [1.830505, 49.275162], [1.831367, 49.274918], [1.832071, 49.274742], [1.832467, 49.274651], [1.833143, 49.274517], [1.833636, 49.274433], [1.834235, 49.274349], [1.834965, 49.274265], [1.835377, 49.274227], [1.835807, 49.274193], [1.836339, 49.274166], [1.836838, 49.274147], [1.837511, 49.274132], [1.840297, 49.27409], [1.840998, 49.274071], [1.841323, 49.274055], [1.841659, 49.274033], [1.842187, 49.273972], [1.842437, 49.273937], [1.842731, 49.273888], [1.843259, 49.273777], [1.843851, 49.273621], [1.844324, 49.273468], [1.844607, 49.273365], [1.845124, 49.273151], [1.845433, 49.273006], [1.845922, 49.272747], [1.846321, 49.272503], [1.846693, 49.27224], [1.846949, 49.272034], [1.847174, 49.271839], [1.847335, 49.271687], [1.847525, 49.271492], [1.8477, 49.27129], [1.847861, 49.271088], [1.848095, 49.270748], [1.84819, 49.270588], [1.848312, 49.270359], [1.848458, 49.270027], [1.848536, 49.269806], [1.848593, 49.269619], [1.848662, 49.269344], [1.848755, 49.268856], [1.849047, 49.267082], [1.849122, 49.266712], [1.849183, 49.266487], [1.849236, 49.266319], [1.849324, 49.26609], [1.849422, 49.265881], [1.849499, 49.265736], [1.84963, 49.265507], [1.84982, 49.265228], [1.850066, 49.264919], [1.85033, 49.264633], [1.850504, 49.264465], [1.850817, 49.264191], [1.851184, 49.263908], [1.851439, 49.263733], [1.85186, 49.263477], [1.852068, 49.263363], [1.852538, 49.26313], [1.852994, 49.262939], [1.853512, 49.262753], [1.85379, 49.262661], [1.854337, 49.262512], [1.854569, 49.262455], [1.854865, 49.262394], [1.855359, 49.262306], [1.855688, 49.26226], [1.85613, 49.262215], [1.856919, 49.262161], [1.859443, 49.262012], [1.861598, 49.26189], [1.862075, 49.261871], [1.862805, 49.261868], [1.863271, 49.261879], [1.864982, 49.261951], [1.865683, 49.261974], [1.866271, 49.261978], [1.866875, 49.261959], [1.867223, 49.261936], [1.867693, 49.261894], [1.868444, 49.261803], [1.870344, 49.261471], [1.870907, 49.261383], [1.871458, 49.261322], [1.871716, 49.261299], [1.872693, 49.261238], [1.872693, 49.261238], [1.876564, 49.261005], [1.877612, 49.260967], [1.879969, 49.260902], [1.880474, 49.260876], [1.880935, 49.26083], [1.881462, 49.260761], [1.881818, 49.2607], [1.882117, 49.260639], [1.882458, 49.260559], [1.882726, 49.26049], [1.883285, 49.260319], [1.883836, 49.260113], [1.884084, 49.26001], [1.884395, 49.259865], [1.884638, 49.259743], [1.885031, 49.259525], [1.885237, 49.259399], [1.885406, 49.259289], [1.885771, 49.259026], [1.886068, 49.258778], [1.886218, 49.258644], [1.88641, 49.258453], [1.886798, 49.258038], [1.889632, 49.254803], [1.890179, 49.254169], [1.890378, 49.253933], [1.89064, 49.253582], [1.890756, 49.253407], [1.89087, 49.25322], [1.891017, 49.252945], [1.891195, 49.252544], [1.8913, 49.252232], [1.891353, 49.252037], [1.891389, 49.251877], [1.891445, 49.25153], [1.891465, 49.251331], [1.891474, 49.251118], [1.891466, 49.250771], [1.891375, 49.249866], [1.891351, 49.249538], [1.891345, 49.249359], [1.891349, 49.249165], [1.891385, 49.248806], [1.891419, 49.248611], [1.891508, 49.248264], [1.891585, 49.248035], [1.891724, 49.247696], [1.891816, 49.247513], [1.891988, 49.247215], [1.892117, 49.247021], [1.892244, 49.246853], [1.892501, 49.246548], [1.892678, 49.246365], [1.892872, 49.246181], [1.893147, 49.245941], [1.89339, 49.245754], [1.893705, 49.245533], [1.893917, 49.245396], [1.894154, 49.245255], [1.894456, 49.245094], [1.894697, 49.244972], [1.895021, 49.244827], [1.895678, 49.244549], [1.89627, 49.244312], [1.896779, 49.244095], [1.897082, 49.243958], [1.897539, 49.243721], [1.897784, 49.24358], [1.898022, 49.243431], [1.89831, 49.243233], [1.898576, 49.243031], [1.898753, 49.242886], [1.898947, 49.24271], [1.899135, 49.242527], [1.899366, 49.242275], [1.899608, 49.241974], [1.899726, 49.241802], [1.899927, 49.241474], [1.900068, 49.241196], [1.900187, 49.240902], [1.900289, 49.240574], [1.900365, 49.240204], [1.900405, 49.239784], [1.900533, 49.233612], [1.900549, 49.233227], [1.90057, 49.232944], [1.900613, 49.232544], [1.900672, 49.232166], [1.900742, 49.231804], [1.900816, 49.231491], [1.900903, 49.231174], [1.900999, 49.230869], [1.901115, 49.230541], [1.901237, 49.230232], [1.90138, 49.229893], [1.905439, 49.220825], [1.905439, 49.220825], [1.906978, 49.217388], [1.907192, 49.216949], [1.907391, 49.216587], [1.907611, 49.216228], [1.907864, 49.215855], [1.90814, 49.215488], [1.908311, 49.215279], [1.908539, 49.215012], [1.908824, 49.214703], [1.909173, 49.214352], [1.909377, 49.214157], [1.909716, 49.21386], [1.910053, 49.213585], [1.910573, 49.213192], [1.910816, 49.21302], [1.91128, 49.212711], [1.911945, 49.212315], [1.912456, 49.212032], [1.912866, 49.211823], [1.917224, 49.209667], [1.917778, 49.20937], [1.918062, 49.209206], [1.918522, 49.2089], [1.918868, 49.208641], [1.919079, 49.208469], [1.919278, 49.208294], [1.919483, 49.208099], [1.919678, 49.207897], [1.919993, 49.207531], [1.920219, 49.207226], [1.920353, 49.207024], [1.920489, 49.206799], [1.920673, 49.20644], [1.920762, 49.206238], [1.920856, 49.205986], [1.920918, 49.205791], [1.920975, 49.205578], [1.921043, 49.205231], [1.921074, 49.204994], [1.921092, 49.204601], [1.921085, 49.204388], [1.92104, 49.203979], [1.920989, 49.203716], [1.92091, 49.203396], [1.920658, 49.202465], [1.920658, 49.202465], [1.918891, 49.195984], [1.918784, 49.19556], [1.918694, 49.195103], [1.918653, 49.194767], [1.918631, 49.194443], [1.918631, 49.194054], [1.918664, 49.193619], [1.918713, 49.193268], [1.918753, 49.193062], [1.918818, 49.192783], [1.918909, 49.192448], [1.919963, 49.18877], [1.920141, 49.188171], [1.920253, 49.187859], [1.92036, 49.187607], [1.920423, 49.187473], [1.920609, 49.187126], [1.920839, 49.186764], [1.921019, 49.186512], [1.921205, 49.186275], [1.921471, 49.18597], [1.92174, 49.185696], [1.922117, 49.185349], [1.922411, 49.185104], [1.922748, 49.184853], [1.923175, 49.184563], [1.923794, 49.184189], [1.926489, 49.182663], [1.926964, 49.182373], [1.927306, 49.182144], [1.927521, 49.181992], [1.927797, 49.181786], [1.928241, 49.181423], [1.928614, 49.181087], [1.928956, 49.180748], [1.929132, 49.180561], [1.929378, 49.180279], [1.929527, 49.180096], [1.929678, 49.179901], [1.929975, 49.179474], [1.930121, 49.179241], [1.930305, 49.178913], [1.930478, 49.178566], [1.930612, 49.178253], [1.930789, 49.177784], [1.932462, 49.173046], [1.932644, 49.172585], [1.932796, 49.172268], [1.932867, 49.172138], [1.933043, 49.171864], [1.933152, 49.171711], [1.93326, 49.17157], [1.933427, 49.171375], [1.933741, 49.171043], [1.93451, 49.170303], [1.934758, 49.170052], [1.934899, 49.169895], [1.935048, 49.16972], [1.935194, 49.169529], [1.935311, 49.169361], [1.935422, 49.169186], [1.935583, 49.168896], [1.935701, 49.16864], [1.935797, 49.168392], [1.935914, 49.168037], [1.936252, 49.166916], [1.936688, 49.165459], [1.936766, 49.165176], [1.936842, 49.164852], [1.936891, 49.164593], [1.936928, 49.164349], [1.936959, 49.164055], [1.936974, 49.163822], [1.936982, 49.163483], [1.936979, 49.163269], [1.936949, 49.162647], [1.936949, 49.162647], [1.936913, 49.162102], [1.936856, 49.161636], [1.936773, 49.161179], [1.936516, 49.159939], [1.936486, 49.159763], [1.936444, 49.159435], [1.936429, 49.159164], [1.936429, 49.159016], [1.936444, 49.158688], [1.936494, 49.158325], [1.936539, 49.158108], [1.936606, 49.157856], [1.936751, 49.157448], [1.936931, 49.157051], [1.937163, 49.156651], [1.937365, 49.156357], [1.93763, 49.156021], [1.937777, 49.155853], [1.9382, 49.155407], [1.938745, 49.154854], [1.939036, 49.154537], [1.939227, 49.154308], [1.939422, 49.154041], [1.939499, 49.153923], [1.939581, 49.153782], [1.939726, 49.153515], [1.939852, 49.153233], [1.939938, 49.153], [1.939978, 49.152874], [1.940054, 49.152573], [1.940079, 49.152454], [1.940112, 49.152203], [1.940126, 49.15202], [1.94013, 49.151855], [1.940118, 49.1516], [1.940084, 49.151321], [1.940023, 49.151035], [1.939936, 49.150738], [1.939801, 49.150375], [1.939596, 49.149891], [1.939277, 49.149174], [1.939124, 49.148781], [1.939011, 49.148434], [1.938954, 49.14822], [1.938904, 49.147987], [1.938874, 49.147793], [1.938853, 49.147587], [1.938835, 49.14716], [1.938837, 49.1469], [1.938934, 49.139889], [1.938958, 49.139492], [1.939009, 49.139095], [1.939072, 49.138771], [1.939115, 49.138592], [1.9392, 49.138294], [1.939316, 49.137951], [1.939446, 49.13763], [1.939606, 49.137287], [1.939824, 49.136879], [1.940069, 49.136478], [1.940224, 49.13625], [1.940439, 49.135967], [1.940645, 49.135712], [1.940972, 49.135345], [1.941549, 49.134766], [1.944706, 49.131672], [1.945593, 49.130791], [1.945824, 49.130531], [1.946047, 49.130264], [1.946345, 49.129864], [1.94662, 49.129444], [1.946753, 49.129215], [1.946892, 49.12896], [1.947045, 49.128658], [1.947264, 49.128181], [1.9485, 49.125393], [1.949062, 49.124107], [1.949062, 49.124107], [1.949657, 49.122761], [1.949792, 49.122437], [1.950132, 49.121681], [1.950315, 49.121296], [1.950563, 49.120831], [1.950769, 49.120502], [1.951019, 49.120159], [1.951164, 49.11998], [1.951397, 49.11972], [1.951644, 49.119465], [1.95181, 49.119305], [1.952138, 49.119019], [1.952567, 49.118679], [1.952939, 49.11842], [1.953271, 49.118206], [1.953716, 49.11795], [1.954341, 49.117619], [1.959506, 49.11499], [1.960396, 49.114513], [1.961073, 49.114117], [1.961461, 49.113865], [1.961932, 49.113541], [1.96234, 49.113243], [1.962854, 49.112839], [1.963248, 49.112499], [1.963567, 49.112213], [1.963886, 49.111912], [1.964357, 49.111423], [1.964529, 49.111233], [1.964832, 49.110882], [1.965163, 49.110466], [1.965456, 49.110058], [1.965783, 49.109554], [1.96602, 49.109146], [1.966127, 49.108948], [1.966355, 49.108482], [1.967494, 49.106091], [1.97065, 49.099438], [1.97065, 49.099438], [1.972355, 49.095863], [1.972526, 49.095539], [1.972615, 49.095387], [1.972702, 49.095245], [1.972909, 49.094933], [1.973074, 49.094719], [1.973386, 49.094357], [1.973765, 49.093975], [1.974126, 49.093651], [1.974474, 49.093372], [1.974869, 49.09309], [1.975081, 49.092953], [1.975502, 49.092697], [1.976072, 49.092384], [1.976517, 49.092171], [1.977037, 49.091946], [1.977294, 49.091846], [1.977804, 49.091663], [1.978402, 49.09148], [1.979064, 49.091309], [1.981107, 49.090858], [1.981528, 49.090759], [1.982048, 49.090626], [1.982598, 49.090462], [1.983284, 49.090233], [1.983853, 49.090012], [1.984135, 49.089893], [1.984838, 49.089573], [1.985284, 49.089359], [2.002258, 49.081154], [2.002939, 49.080833], [2.002939, 49.080833], [2.003312, 49.080673], [2.003795, 49.080479], [2.004271, 49.080315], [2.004614, 49.080204], [2.005184, 49.080032], [2.005518, 49.079945], [2.005918, 49.079845], [2.006386, 49.079739], [2.025118, 49.075813], [2.025118, 49.075813], [2.027609, 49.075287], [2.028426, 49.075085], [2.028911, 49.074947], [2.029524, 49.074753], [2.029824, 49.074646], [2.030208, 49.074493], [2.030555, 49.074333], [2.030814, 49.074203], [2.031279, 49.073944], [2.031657, 49.073704], [2.031974, 49.073471], [2.032314, 49.0732], [2.032638, 49.072903], [2.032817, 49.072723], [2.033563, 49.071915], [2.033982, 49.071491], [2.034338, 49.071091], [2.034684, 49.070679], [2.035167, 49.070141], [2.03538, 49.06992], [2.035743, 49.069569], [2.036083, 49.069267], [2.036311, 49.06908], [2.03673, 49.068756], [2.037257, 49.06839], [2.037703, 49.068108], [2.037969, 49.067955], [2.03848, 49.067677], [2.039052, 49.067394], [2.03931, 49.06728], [2.039831, 49.067059], [2.040515, 49.066799], [2.040962, 49.06665], [2.041581, 49.066463], [2.041904, 49.066376], [2.042591, 49.066212], [2.046463, 49.065392], [2.05362, 49.063892], [2.056338, 49.063332], [2.057705, 49.063034], [2.057705, 49.063034], [2.059598, 49.062637], [2.060639, 49.062401], [2.061669, 49.062141], [2.062619, 49.061882], [2.063033, 49.061764], [2.064564, 49.061295], [2.065609, 49.060951], [2.067175, 49.060417], [2.067648, 49.060242], [2.068054, 49.060066], [2.068392, 49.05991], [2.068575, 49.059814], [2.069059, 49.059532], [2.069387, 49.059315], [2.069554, 49.059193], [2.069823, 49.058979], [2.070064, 49.058769], [2.070396, 49.058441], [2.070624, 49.058201], [2.072039, 49.056644], [2.072383, 49.056293], [2.072775, 49.055935], [2.073252, 49.055561], [2.073482, 49.055401], [2.073938, 49.055103], [2.074384, 49.054844], [2.074837, 49.054607], [2.075249, 49.054409], [2.075636, 49.054245], [2.076064, 49.054077], [2.076598, 49.053894], [2.079798, 49.052925], [2.081258, 49.052467], [2.081812, 49.052273], [2.082199, 49.05212], [2.082566, 49.05196], [2.082947, 49.051777], [2.083359, 49.051563], [2.083541, 49.051464], [2.084033, 49.051163], [2.08445, 49.050873], [2.084848, 49.050579], [2.085333, 49.050198], [2.085751, 49.049881], [2.086166, 49.049587], [2.086639, 49.049297], [2.086838, 49.049183], [2.087335, 49.04892], [2.087887, 49.048668], [2.088165, 49.04855], [2.088599, 49.048393], [2.089016, 49.048256], [2.089355, 49.048153], [2.089779, 49.048038], [2.091369, 49.047665], [2.091941, 49.047512], [2.092507, 49.047291], [2.093099, 49.047047], [2.093488, 49.046921], [2.093739, 49.046856], [2.095114, 49.046558], [2.095114, 49.046558], [2.095555, 49.046471], [2.096085, 49.046379], [2.096797, 49.046272], [2.098689, 49.046021], [2.100077, 49.045757], [2.102041, 49.045372], [2.102485, 49.045258], [2.102654, 49.045204], [2.102904, 49.045109], [2.103162, 49.044991], [2.103339, 49.044895], [2.103572, 49.044746], [2.103754, 49.044613], [2.103894, 49.044498], [2.104066, 49.044334], [2.104226, 49.044144], [2.104371, 49.043941], [2.104484, 49.043747], [2.104573, 49.043568], [2.104654, 49.04335], [2.104708, 49.043152], [2.104748, 49.042873], [2.104749, 49.042648], [2.104729, 49.042431], [2.104708, 49.042309], [2.104653, 49.04208], [2.104569, 49.041817], [2.103792, 49.039742], [2.103792, 49.039742], [2.10234, 49.035934], [2.102021, 49.035015], [2.10192, 49.034676], [2.101733, 49.033943], [2.100496, 49.028633], [2.100408, 49.028347], [2.100233, 49.027863], [2.100103, 49.02755], [2.099942, 49.027229], [2.099798, 49.026981], [2.099593, 49.026665], [2.099286, 49.026222], [2.099007, 49.025867], [2.098678, 49.025501], [2.098529, 49.025349], [2.098098, 49.024929], [2.097864, 49.024719], [2.090691, 49.01812], [2.090691, 49.01812], [2.089559, 49.017086], [2.089291, 49.016853], [2.088903, 49.016544], [2.088517, 49.016273], [2.08722, 49.015438], [2.086755, 49.015106], [2.086483, 49.014877], [2.08638, 49.014782], [2.08618, 49.014565], [2.086023, 49.014366], [2.085866, 49.01413], [2.085744, 49.013897], [2.085635, 49.013603], [2.085586, 49.01342], [2.085567, 49.013306], [2.08555, 49.013115], [2.085544, 49.012852], [2.085573, 49.012581], [2.08569, 49.011955], [2.086441, 49.008522], [2.088732, 48.997967], [2.088837, 48.99762], [2.088945, 48.997337], [2.089031, 48.997166], [2.089122, 48.997005], [2.089168, 48.996941], [2.089298, 48.996784], [2.0895, 48.996582], [2.089663, 48.996437], [2.089898, 48.996269], [2.090211, 48.996086], [2.090556, 48.995918], [2.090882, 48.995792], [2.091175, 48.995697], [2.091458, 48.995625], [2.091942, 48.995533], [2.092093, 48.995514], [2.092506, 48.995483], [2.092881, 48.995483], [2.093036, 48.995491], [2.09335, 48.995522], [2.09389, 48.995605], [2.094331, 48.995697], [2.095108, 48.995895], [2.096539, 48.996338], [2.098463, 48.996983], [2.098924, 48.997135], [2.09938, 48.997272], [2.09938, 48.997272], [2.099806, 48.997395], [2.100387, 48.997547], [2.102263, 48.997997], [2.105317, 48.998783], [2.106914, 48.99918], [2.107582, 48.999317], [2.109061, 48.999561], [2.10967, 48.999641], [2.110398, 48.999722], [2.111605, 48.999794], [2.11261, 48.999836], [2.113357, 48.999836], [2.114096, 48.999817], [2.114963, 48.999771], [2.116282, 48.999676], [2.117764, 48.999489], [2.119197, 48.999256], [2.128636, 48.997635], [2.13063, 48.997314], [2.152498, 48.993576], [2.154017, 48.993313], [2.154617, 48.993198], [2.155523, 48.992992], [2.156184, 48.992821], [2.156487, 48.992729], [2.157343, 48.992435], [2.158219, 48.992069], [2.158803, 48.991798], [2.161912, 48.990311], [2.161912, 48.990311], [2.163609, 48.989502], [2.16429, 48.989151], [2.164645, 48.988949], [2.164829, 48.988838], [2.16524, 48.988571], [2.166627, 48.987663], [2.169352, 48.985859], [2.170003, 48.985455], [2.170501, 48.98518], [2.171152, 48.984856], [2.171865, 48.984547], [2.172434, 48.984329], [2.173269, 48.984028], [2.173487, 48.983963], [2.175299, 48.983292], [2.175899, 48.983047], [2.176631, 48.982708], [2.176967, 48.982536], [2.177349, 48.982334], [2.177676, 48.98214], [2.178285, 48.981754], [2.178439, 48.981647], [2.178796, 48.981388], [2.179027, 48.981209], [2.179433, 48.980873], [2.179959, 48.980343], [2.180132, 48.980152], [2.180132, 48.980152], [2.18029, 48.97998], [2.180642, 48.979549], [2.181064, 48.978947], [2.182218, 48.977081], [2.182612, 48.976501], [2.182888, 48.976139], [2.183071, 48.97591], [2.183258, 48.975704], [2.184117, 48.974873], [2.186671, 48.972656], [2.187694, 48.971798], [2.188303, 48.971321], [2.188685, 48.971043], [2.189194, 48.970695], [2.18964, 48.970417], [2.190062, 48.970177], [2.190696, 48.969833], [2.191275, 48.969543], [2.193438, 48.968517], [2.193438, 48.968517], [2.194295, 48.968105], [2.198697, 48.966042], [2.203001, 48.964001], [2.203341, 48.963837], [2.203804, 48.963589], [2.204394, 48.963242], [2.204643, 48.963085], [2.205092, 48.962776], [2.205395, 48.962551], [2.206066, 48.962009], [2.213137, 48.956066], [2.216726, 48.953064], [2.216992, 48.952866], [2.217447, 48.952557], [2.217843, 48.952301], [2.21838, 48.951992], [2.219044, 48.951653], [2.219534, 48.951427], [2.219994, 48.951233], [2.22064, 48.950989], [2.221343, 48.95076], [2.221768, 48.950638], [2.222481, 48.950451], [2.22293, 48.950352], [2.223647, 48.950211], [2.224159, 48.95013], [2.224727, 48.950054], [2.225584, 48.94997], [2.226312, 48.949932], [2.227436, 48.949921], [2.227791, 48.949932], [2.228437, 48.94997], [2.229131, 48.95002], [2.230103, 48.950142], [2.230815, 48.950256], [2.231771, 48.950462], [2.231991, 48.950516], [2.231991, 48.950516], [2.232678, 48.950695], [2.232977, 48.950787], [2.233576, 48.950993], [2.234233, 48.951248], [2.235378, 48.951725], [2.236215, 48.95208], [2.243882, 48.955303], [2.244332, 48.955471], [2.244659, 48.955582], [2.245139, 48.955715], [2.245673, 48.955833], [2.246001, 48.955894], [2.246271, 48.955933], [2.24678, 48.955994], [2.247144, 48.956024], [2.247776, 48.956051], [2.248109, 48.956047], [2.248675, 48.956024], [2.24933, 48.955963], [2.249586, 48.955929], [2.249931, 48.955868], [2.250498, 48.95575], [2.251099, 48.955574], [2.251366, 48.955486], [2.25165, 48.955379], [2.251926, 48.955257], [2.252168, 48.955143], [2.252674, 48.954872], [2.252936, 48.954712], [2.253135, 48.954575], [2.253336, 48.954426], [2.253674, 48.954136], [2.253833, 48.953983], [2.254009, 48.953796], [2.254189, 48.953575], [2.254422, 48.953247], [2.25454, 48.953033], [2.254704, 48.952698], [2.254802, 48.952408], [2.254847, 48.952248], [2.254954, 48.951645], [2.255003, 48.951248], [2.255041, 48.951027], [2.255097, 48.950775], [2.255155, 48.950569], [2.255224, 48.950386], [2.255354, 48.9501], [2.255618, 48.949657], [2.255889, 48.949245], [2.256305, 48.948681], [2.256608, 48.948338], [2.257268, 48.947617], [2.257874, 48.946861], [2.257874, 48.946861], [2.257944, 48.946774], [2.258489, 48.94603], [2.258726, 48.945679], [2.259124, 48.945057], [2.259299, 48.944801], [2.259488, 48.94455], [2.261456, 48.942017], [2.261805, 48.94154], [2.262026, 48.941257], [2.262401, 48.940712], [2.262643, 48.940289], [2.262793, 48.939968], [2.262935, 48.939617], [2.263005, 48.939396], [2.263125, 48.938923], [2.26318, 48.938641], [2.263202, 48.938454], [2.263224, 48.938042], [2.263214, 48.937683], [2.26319, 48.937454], [2.263124, 48.937061], [2.263056, 48.936794], [2.262927, 48.936378], [2.262298, 48.934654], [2.262167, 48.934311], [2.261803, 48.933475], [2.26081, 48.931118], [2.26081, 48.931118], [2.260677, 48.930817], [2.260517, 48.930485], [2.259966, 48.92947], [2.259696, 48.928928], [2.259453, 48.928379], [2.259245, 48.927811], [2.259109, 48.927349], [2.259078, 48.927219], [2.258995, 48.926769], [2.258973, 48.926559], [2.258957, 48.926086], [2.25896, 48.925797], [2.258999, 48.925484], [2.25906, 48.925121], [2.259137, 48.924763], [2.259191, 48.924576], [2.259283, 48.924294], [2.259349, 48.924118], [2.259475, 48.923824], [2.259475, 48.923824], [2.259648, 48.923512], [2.259843, 48.92321], [2.2602, 48.922737], [2.260385, 48.922512], [2.260507, 48.922375], [2.260902, 48.921978], [2.261238, 48.921654], [2.261504, 48.921432], [2.26178, 48.921215], [2.262824, 48.920418], [2.264535, 48.919155], [2.264985, 48.918858], [2.26539, 48.91856], [2.265928, 48.918194], [2.266485, 48.917831], [2.267513, 48.91713], [2.270314, 48.915268], [2.270779, 48.914948], [2.271208, 48.914665], [2.271873, 48.914181], [2.271873, 48.914181], [2.272565, 48.913609], [2.272722, 48.913467], [2.272996, 48.9132], [2.273108, 48.913101], [2.274102, 48.912331], [2.274491, 48.912048], [2.276814, 48.910416], [2.277626, 48.909725], [2.27781, 48.909576], [2.278614, 48.908859], [2.280257, 48.90778], [2.280969, 48.907364], [2.281561, 48.907032], [2.28217, 48.90667], [2.282806, 48.906239], [2.283105, 48.906052], [2.284081, 48.905483], [2.284081, 48.905483], [2.288806, 48.902733], [2.289574, 48.902313], [2.290144, 48.901993], [2.291269, 48.901337], [2.292175, 48.900803], [2.294526, 48.899364], [2.295061, 48.899063], [2.297795, 48.897568], [2.297795, 48.897568], [2.298412, 48.897224], [2.298759, 48.897018], [2.300406, 48.896019], [2.30305, 48.894478], [2.305189, 48.893188], [2.307179, 48.89201], [2.310253, 48.890244], [2.310665, 48.889999], [2.311091, 48.889767], [2.311527, 48.889542], [2.311743, 48.889442], [2.312237, 48.889187], [2.31292, 48.888809], [2.314003, 48.888172], [2.314003, 48.888172], [2.314809, 48.887657], [2.31523, 48.887371], [2.315539, 48.887154], [2.315859, 48.886902], [2.316981, 48.885929], [2.317442, 48.885509], [2.318063, 48.884922], [2.318719, 48.884266], [2.321112, 48.881824], [2.321842, 48.881065], [2.322176, 48.880692], [2.322617, 48.880169], [2.322745, 48.879993], [2.32292, 48.879726], [2.323093, 48.879414], [2.323274, 48.879166], [2.323464, 48.878784], [2.323714, 48.878311], [2.324003, 48.877857], [2.32433, 48.877392]]}, "properties": {"id": "transilien-j", "branchId": "transilien-j::1", "termini": "Gisors - Gare Saint-Lazare", "source": "Ile-de-France Mobilites GTFS (data.iledefrance-mobilites.fr), Mobility License"}}, {"type": "Feature", "geometry": {"type": "LineString", "coordinates": [[2.32433, 48.877392], [2.324003, 48.877857], [2.323714, 48.878311], [2.323464, 48.878784], [2.323274, 48.879166], [2.323093, 48.879414], [2.322632, 48.880077], [2.322117, 48.880699], [2.321797, 48.88105], [2.321069, 48.881805], [2.31868, 48.884251], [2.318024, 48.884907], [2.317408, 48.88549], [2.316948, 48.885906], [2.315829, 48.886879], [2.315403, 48.887203], [2.314978, 48.887493], [2.313924, 48.888115], [2.313924, 48.888115], [2.312379, 48.889011], [2.311479, 48.889511], [2.311261, 48.889618], [2.310629, 48.889973], [2.31022, 48.890221], [2.307143, 48.891991], [2.305156, 48.893166], [2.303565, 48.894131], [2.300878, 48.895699], [2.299508, 48.896523], [2.299088, 48.896767], [2.298684, 48.896984], [2.297649, 48.897522], [2.297649, 48.897522], [2.297135, 48.897812], [2.296091, 48.89843], [2.294487, 48.899334], [2.292504, 48.900558], [2.291815, 48.90097], [2.290112, 48.901966], [2.288766, 48.902714], [2.285203, 48.904793], [2.283441, 48.905807], [2.28275, 48.906227], [2.282466, 48.906422], [2.282466, 48.906422], [2.282137, 48.906647], [2.282001, 48.906727], [2.281473, 48.90704], [2.280912, 48.907352], [2.280222, 48.907757], [2.278662, 48.908779], [2.278555, 48.908859], [2.27772, 48.909603], [2.277536, 48.909748], [2.276783, 48.910397], [2.276148, 48.910824], [2.275426, 48.911327], [2.272918, 48.913097], [2.272429, 48.91349], [2.272134, 48.9137], [2.271617, 48.914093], [2.271617, 48.914093], [2.270423, 48.914955], [2.269662, 48.915562], [2.267593, 48.916946], [2.266521, 48.91769], [2.26627, 48.917873], [2.266039, 48.918056], [2.265666, 48.918308], [2.264918, 48.918854], [2.2645, 48.919136], [2.26388, 48.919586], [2.263187, 48.920101], [2.262916, 48.920292], [2.261908, 48.921036], [2.261658, 48.921227], [2.261232, 48.921581], [2.261029, 48.921768], [2.260727, 48.92207], [2.260522, 48.92226], [2.259948, 48.922825], [2.259867, 48.92292], [2.259788, 48.923023], [2.259592, 48.923309], [2.259488, 48.923473], [2.259309, 48.923805], [2.259309, 48.923805], [2.259109, 48.924286], [2.259052, 48.924465], [2.25897, 48.924824], [2.258905, 48.925274], [2.258875, 48.925739], [2.258867, 48.926189], [2.258909, 48.926708], [2.258993, 48.92717], [2.259038, 48.927372], [2.259184, 48.927872], [2.260487, 48.931171], [2.260487, 48.931171], [2.260736, 48.931778], [2.261255, 48.932961], [2.261757, 48.93396], [2.262426, 48.935524], [2.262708, 48.936302], [2.262799, 48.936615], [2.262849, 48.936848], [2.262893, 48.937103], [2.262933, 48.937508], [2.262941, 48.937763], [2.262929, 48.938248], [2.262877, 48.938717], [2.262828, 48.939022], [2.262753, 48.939342], [2.262665, 48.939659], [2.262573, 48.939938], [2.262462, 48.940205], [2.262356, 48.940449], [2.262236, 48.940697], [2.261981, 48.941151], [2.26173, 48.94154], [2.261448, 48.941936], [2.258735, 48.945446], [2.258584, 48.945633], [2.258107, 48.946194], [2.257641, 48.946781], [2.257641, 48.946781], [2.257319, 48.947197], [2.256789, 48.947906], [2.256042, 48.948944], [2.25558, 48.949615], [2.25531, 48.950089], [2.255182, 48.950371], [2.255077, 48.950668], [2.254994, 48.951023], [2.254825, 48.952126], [2.254756, 48.9524], [2.254653, 48.952705], [2.254501, 48.95303], [2.254387, 48.953232], [2.254269, 48.953396], [2.253962, 48.953777], [2.253788, 48.953964], [2.253629, 48.954117], [2.253294, 48.954403], [2.253095, 48.954552], [2.252898, 48.954685], [2.252638, 48.954845], [2.252399, 48.954979], [2.251895, 48.955227], [2.251621, 48.955349], [2.25134, 48.955452], [2.25076, 48.955635], [2.250478, 48.955715], [2.25016, 48.955784], [2.249573, 48.955891], [2.24932, 48.955929], [2.248887, 48.955971], [2.248458, 48.955997], [2.247777, 48.956013], [2.24715, 48.95599], [2.246788, 48.955959], [2.246283, 48.955898], [2.246015, 48.95586], [2.245688, 48.955799], [2.245159, 48.955681], [2.244682, 48.955547], [2.243912, 48.955273], [2.243039, 48.954918], [2.242362, 48.954624], [2.241972, 48.954468], [2.235897, 48.951908], [2.235647, 48.951809], [2.235403, 48.951698], [2.234554, 48.95134], [2.233918, 48.95108], [2.233606, 48.950962], [2.232891, 48.950729], [2.231928, 48.95047], [2.231928, 48.95047], [2.230977, 48.950256], [2.230105, 48.950108], [2.229522, 48.950031], [2.229125, 48.949989], [2.228469, 48.949936], [2.227793, 48.949898], [2.227101, 48.94989], [2.226534, 48.949902], [2.225801, 48.949936], [2.225003, 48.950001], [2.224149, 48.9501], [2.223638, 48.95018], [2.223168, 48.950268], [2.222693, 48.950367], [2.221957, 48.95055], [2.22155, 48.950665], [2.220854, 48.950882], [2.220206, 48.951115], [2.219523, 48.951393], [2.219005, 48.95163], [2.21849, 48.951893], [2.217812, 48.952282], [2.21741, 48.952538], [2.217111, 48.95274], [2.216844, 48.952934], [2.216484, 48.953213], [2.205681, 48.962276], [2.205354, 48.962536], [2.205055, 48.962757], [2.204589, 48.963078], [2.204094, 48.963383], [2.203648, 48.963638], [2.20298, 48.963974], [2.200236, 48.965263], [2.198684, 48.966003], [2.198547, 48.966061], [2.197864, 48.966393], [2.196662, 48.966927], [2.195751, 48.967316], [2.194906, 48.967686], [2.194218, 48.967995], [2.193315, 48.968422], [2.193315, 48.968422], [2.191801, 48.969131], [2.190751, 48.969654], [2.190223, 48.969944], [2.189534, 48.970356], [2.188841, 48.970818], [2.188574, 48.971012], [2.187629, 48.971771], [2.186822, 48.972469], [2.186641, 48.972641], [2.185488, 48.973644], [2.184082, 48.97485], [2.183218, 48.975693], [2.183033, 48.975891], [2.182846, 48.976116], [2.182709, 48.976292], [2.182401, 48.976723], [2.182174, 48.977074], [2.180914, 48.979099], [2.180765, 48.979317], [2.18043, 48.979759], [2.180093, 48.980141], [2.180093, 48.980141], [2.179919, 48.980331], [2.179392, 48.98085], [2.179171, 48.981045], [2.178766, 48.981369], [2.178262, 48.981739], [2.177944, 48.981941], [2.177319, 48.982311], [2.176619, 48.982681], [2.17613, 48.982906], [2.175597, 48.983135], [2.175271, 48.983261], [2.173458, 48.983929], [2.172415, 48.984303], [2.171849, 48.984516], [2.171393, 48.984699], [2.171106, 48.984829], [2.170887, 48.984936], [2.170458, 48.985161], [2.169977, 48.985424], [2.169697, 48.985592], [2.169317, 48.985832], [2.166856, 48.987453], [2.165208, 48.988548], [2.164623, 48.988918], [2.164268, 48.989113], [2.163572, 48.989475], [2.161886, 48.990284], [2.161886, 48.990284], [2.158187, 48.992043], [2.157878, 48.99218], [2.157329, 48.992405], [2.156787, 48.992596], [2.15616, 48.99279], [2.155512, 48.992958], [2.154608, 48.993168], [2.154, 48.993282], [2.130615, 48.997276], [2.128622, 48.997604], [2.124158, 48.99836], [2.119183, 48.999218], [2.117751, 48.999451], [2.116273, 48.999638], [2.114957, 48.999733], [2.114093, 48.999779], [2.113356, 48.999794], [2.112612, 48.999794], [2.111609, 48.999756], [2.110405, 48.999683], [2.109681, 48.999603], [2.109073, 48.999523], [2.107573, 48.999271], [2.106914, 48.999134], [2.106078, 48.998936], [2.105031, 48.998665], [2.102887, 48.998062], [2.10235, 48.997917], [2.101367, 48.997665], [2.09891, 48.996971], [2.09891, 48.996971], [2.097673, 48.996616], [2.096878, 48.996399], [2.096664, 48.996334], [2.096131, 48.996147], [2.094981, 48.995815], [2.090219, 48.994473], [2.088499, 48.99398], [2.087216, 48.993622], [2.086473, 48.993404], [2.084, 48.992714], [2.08352, 48.992596], [2.083117, 48.992508], [2.082295, 48.992355], [2.081916, 48.992294], [2.081381, 48.992226], [2.080771, 48.992165], [2.080083, 48.992111], [2.078765, 48.992054], [2.077617, 48.992023], [2.075953, 48.991962], [2.074948, 48.991932], [2.074948, 48.991932], [2.071296, 48.991806], [2.069387, 48.991734], [2.068838, 48.991703], [2.068399, 48.991665], [2.068094, 48.991631], [2.067491, 48.991547], [2.066767, 48.991421], [2.066444, 48.991344], [2.065604, 48.991116], [2.064951, 48.990906], [2.064523, 48.990746], [2.064117, 48.990578], [2.063562, 48.990326], [2.063313, 48.990204], [2.062933, 48.989994], [2.062471, 48.989712], [2.06207, 48.989445], [2.061664, 48.98914], [2.061314, 48.988846], [2.061144, 48.988693], [2.060972, 48.988533], [2.060689, 48.988235], [2.060468, 48.987972], [2.060124, 48.987518], [2.059743, 48.986893], [2.059743, 48.986893], [2.058593, 48.984657], [2.057633, 48.98283], [2.057448, 48.982449], [2.056926, 48.981468], [2.056666, 48.981022], [2.056196, 48.98032], [2.055563, 48.979504], [2.055369, 48.979279], [2.055041, 48.978931], [2.054748, 48.978634], [2.05448, 48.978378], [2.05401, 48.977951], [2.053796, 48.977768], [2.053119, 48.977238], [2.052257, 48.976627], [2.051642, 48.976246], [2.050299, 48.975483], [2.049099, 48.974808], [2.049099, 48.974808], [2.047414, 48.973869], [2.045499, 48.972824], [2.044748, 48.972458], [2.044265, 48.972237], [2.043618, 48.971962], [2.042484, 48.971531], [2.041934, 48.971348], [2.040751, 48.970993], [2.039792, 48.970753], [2.039095, 48.970596], [2.038642, 48.970505], [2.03832, 48.970451], [2.037176, 48.970276], [2.03625, 48.970161], [2.035794, 48.970116], [2.034919, 48.970047], [2.034014, 48.969997], [2.033436, 48.969978], [2.032258, 48.969982], [2.031326, 48.970016], [2.030739, 48.970055], [2.030154, 48.970104], [2.027664, 48.970348], [2.027664, 48.970348], [2.021663, 48.970959], [2.019015, 48.971241], [2.018436, 48.971329], [2.017845, 48.971432], [2.017323, 48.971535], [2.0168, 48.971657], [2.016356, 48.971779], [2.015864, 48.97192], [2.015495, 48.972038], [2.0148, 48.97229], [2.014469, 48.972424], [2.014169, 48.972553], [2.013568, 48.972828], [2.012803, 48.973228], [2.012264, 48.973545], [2.011898, 48.973782], [2.011559, 48.974018], [2.011182, 48.974304], [2.010812, 48.974606], [2.010301, 48.97506], [2.009952, 48.975422], [2.009803, 48.975586], [2.009557, 48.975887], [2.009215, 48.976357], [2.009058, 48.976585], [2.007482, 48.979023], [2.007049, 48.979683], [2.006783, 48.980061], [2.006406, 48.980568], [2.006059, 48.980988], [2.006059, 48.980988], [2.005781, 48.9813], [2.005457, 48.981621], [2.005121, 48.981907], [2.004748, 48.982197], [2.004026, 48.982731], [2.003565, 48.983028], [2.000677, 48.984833], [1.995069, 48.988991], [1.989378, 48.993038], [1.986521, 48.995007], [1.982103, 48.998158], [1.981051, 48.998878], [1.979941, 48.99955], [1.972576, 49.003662], [1.971875, 49.004032], [1.970731, 49.004578], [1.9695, 49.00507], [1.968233, 49.005501], [1.96492, 49.006672], [1.963583, 49.007122], [1.963583, 49.007122], [1.960148, 49.008297], [1.959533, 49.008499], [1.959227, 49.008591], [1.958724, 49.008728], [1.957822, 49.008934], [1.957284, 49.009037], [1.95664, 49.009144], [1.952245, 49.009857], [1.951296, 49.009991], [1.950599, 49.010067], [1.950027, 49.010105], [1.949464, 49.010128], [1.948599, 49.010132], [1.947421, 49.010098], [1.934545, 49.009602], [1.934285, 49.009583], [1.933496, 49.009506], [1.93275, 49.009396], [1.93226, 49.009304], [1.93177, 49.009193], [1.930905, 49.008972], [1.92627, 49.007729], [1.925666, 49.007587], [1.925377, 49.00753], [1.924782, 49.007412], [1.924278, 49.007324], [1.922547, 49.007042], [1.921523, 49.006924], [1.919755, 49.006752], [1.919218, 49.00668], [1.919218, 49.00668], [1.917705, 49.006435], [1.916637, 49.006302], [1.915784, 49.006222], [1.91533, 49.006199], [1.914848, 49.006184], [1.913825, 49.006187], [1.912642, 49.006233], [1.911368, 49.006294], [1.909073, 49.006443], [1.908589, 49.006458], [1.907437, 49.006451], [1.906639, 49.00642], [1.906261, 49.006397], [1.905269, 49.006306], [1.904274, 49.006176], [1.903493, 49.006058], [1.901872, 49.005756], [1.901872, 49.005756], [1.901052, 49.005592], [1.900383, 49.005436], [1.899785, 49.005272], [1.89895, 49.005009], [1.898215, 49.004738], [1.897847, 49.004593], [1.897212, 49.004318], [1.896894, 49.004158], [1.896611, 49.004002], [1.895228, 49.00317], [1.894123, 49.002468], [1.893581, 49.002159], [1.892757, 49.001755], [1.89202, 49.001438], [1.891307, 49.001171], [1.890784, 49.000999], [1.890351, 49.00087], [1.890003, 49.000774], [1.889385, 49.000622], [1.887533, 49.000233], [1.886893, 49.000088], [1.886321, 48.999947], [1.885998, 48.999855], [1.877248, 48.997269], [1.869418, 48.994968], [1.867323, 48.994419], [1.866013, 48.994118], [1.8574, 48.99226], [1.856133, 48.992001], [1.855904, 48.991955], [1.85505, 48.991821], [1.854478, 48.991753], [1.854098, 48.991714], [1.853609, 48.991676], [1.853143, 48.99165], [1.852551, 48.991631], [1.851954, 48.991627], [1.851336, 48.991646], [1.850884, 48.991673], [1.850343, 48.991714], [1.849481, 48.99181], [1.846864, 48.99213], [1.845866, 48.992218], [1.845545, 48.992229], [1.845545, 48.992229], [1.844625, 48.992226], [1.844045, 48.992199], [1.843692, 48.992168], [1.842807, 48.992062], [1.842156, 48.991951], [1.841508, 48.991817], [1.840564, 48.991562], [1.840318, 48.991489], [1.839893, 48.991341], [1.83913, 48.991047], [1.837491, 48.990307], [1.836976, 48.990078], [1.836263, 48.989784], [1.835864, 48.989635], [1.835271, 48.989437], [1.834531, 48.989216], [1.833693, 48.989002], [1.808873, 48.982944], [1.808873, 48.982944], [1.80025, 48.980839], [1.799707, 48.980713], [1.798659, 48.980488], [1.797493, 48.980259], [1.796516, 48.980083], [1.795949, 48.979992], [1.794772, 48.979816], [1.793679, 48.979675], [1.792623, 48.979561], [1.791242, 48.979435], [1.789945, 48.979343], [1.78847, 48.979275], [1.787219, 48.979244], [1.786261, 48.979244], [1.785155, 48.979252], [1.783762, 48.97929]]}, "properties": {"id": "transilien-j", "branchId": "transilien-j::2", "termini": "Gare Saint-Lazare - Issou - Porcheville", "source": "Ile-de-France Mobilites GTFS (data.iledefrance-mobilites.fr), Mobility License"}}, {"type": "Feature", "geometry": {"type": "LineString", "coordinates": [[2.32433, 48.877392], [2.324003, 48.877857], [2.323714, 48.878311], [2.323464, 48.878784], [2.323274, 48.879166], [2.323093, 48.879414], [2.322632, 48.880077], [2.322117, 48.880699], [2.321797, 48.88105], [2.321069, 48.881805], [2.31868, 48.884251], [2.318024, 48.884907], [2.317408, 48.88549], [2.316948, 48.885906], [2.315829, 48.886879], [2.315403, 48.887203], [2.314978, 48.887493], [2.313924, 48.888115], [2.313924, 48.888115], [2.312379, 48.889011], [2.311479, 48.889511], [2.311261, 48.889618], [2.310629, 48.889973], [2.31022, 48.890221], [2.307143, 48.891991], [2.305156, 48.893166], [2.303565, 48.894131], [2.300878, 48.895699], [2.299508, 48.896523], [2.299088, 48.896767], [2.298684, 48.896984], [2.297649, 48.897522], [2.297649, 48.897522], [2.297135, 48.897812], [2.296091, 48.89843], [2.294487, 48.899334], [2.292504, 48.900558], [2.291815, 48.90097], [2.290112, 48.901966], [2.288766, 48.902714], [2.285203, 48.904793], [2.283441, 48.905807], [2.28275, 48.906227], [2.282466, 48.906422], [2.282466, 48.906422], [2.282137, 48.906647], [2.282001, 48.906727], [2.281473, 48.90704], [2.280912, 48.907352], [2.280222, 48.907757], [2.278662, 48.908779], [2.278555, 48.908859], [2.27772, 48.909603], [2.277536, 48.909748], [2.276783, 48.910397], [2.276148, 48.910824], [2.275426, 48.911327], [2.272918, 48.913097], [2.272429, 48.91349], [2.272134, 48.9137], [2.271617, 48.914093], [2.271617, 48.914093], [2.270423, 48.914955], [2.269662, 48.915562], [2.267593, 48.916946], [2.266521, 48.91769], [2.26627, 48.917873], [2.266039, 48.918056], [2.265666, 48.918308], [2.264918, 48.918854], [2.2645, 48.919136], [2.26388, 48.919586], [2.263187, 48.920101], [2.262916, 48.920292], [2.261908, 48.921036], [2.261658, 48.921227], [2.261232, 48.921581], [2.261029, 48.921768], [2.260727, 48.92207], [2.260522, 48.92226], [2.259948, 48.922825], [2.259867, 48.92292], [2.259788, 48.923023], [2.259592, 48.923309], [2.259488, 48.923473], [2.259309, 48.923805], [2.259309, 48.923805], [2.259109, 48.924286], [2.259052, 48.924465], [2.25897, 48.924824], [2.258905, 48.925274], [2.258875, 48.925739], [2.258867, 48.926189], [2.258909, 48.926708], [2.258993, 48.92717], [2.259038, 48.927372], [2.259184, 48.927872], [2.260487, 48.931171], [2.260487, 48.931171], [2.260736, 48.931778], [2.261255, 48.932961], [2.26158, 48.933601], [2.261663, 48.933758], [2.262012, 48.934357], [2.262107, 48.934566], [2.262691, 48.936028], [2.262824, 48.93642], [2.262926, 48.93679], [2.26299, 48.937119], [2.263035, 48.937412], [2.263064, 48.93779], [2.263072, 48.938049], [2.263058, 48.938442], [2.263003, 48.938911], [2.262875, 48.939678], [2.262843, 48.939785], [2.262762, 48.940136], [2.262647, 48.940456], [2.262552, 48.94067], [2.262471, 48.940823], [2.26232, 48.941059], [2.261472, 48.942192], [2.259809, 48.944336], [2.259493, 48.944752], [2.259217, 48.945145], [2.259056, 48.945393], [2.258725, 48.94595], [2.258486, 48.946312], [2.258169, 48.946735], [2.258024, 48.946911], [2.258024, 48.946911], [2.257586, 48.94746], [2.257327, 48.947716], [2.257047, 48.947971], [2.256654, 48.948368], [2.256501, 48.94854], [2.256262, 48.948826], [2.256082, 48.949062], [2.255753, 48.949524], [2.255568, 48.949821], [2.255479, 48.949986], [2.25536, 48.950233], [2.255235, 48.950573], [2.25518, 48.950768], [2.255121, 48.951027], [2.255081, 48.951256], [2.25503, 48.951656], [2.255013, 48.952103], [2.255026, 48.952404], [2.255056, 48.95266], [2.255105, 48.952938], [2.255197, 48.953342], [2.255292, 48.95364], [2.255398, 48.953922], [2.255549, 48.954273], [2.255682, 48.95454], [2.25597, 48.955025], [2.256178, 48.955326], [2.256314, 48.955505], [2.256545, 48.955845], [2.258213, 48.958359], [2.258436, 48.958664], [2.260947, 48.962418], [2.262047, 48.96397], [2.262571, 48.964741], [2.262933, 48.965324], [2.263182, 48.965744], [2.263472, 48.966282], [2.263649, 48.966702], [2.26378, 48.967064], [2.263954, 48.96769], [2.264045, 48.968487], [2.264059, 48.968933], [2.264055, 48.969402], [2.264017, 48.96986], [2.26395, 48.970222], [2.26395, 48.970222], [2.263851, 48.970734], [2.263388, 48.97298], [2.263317, 48.973267], [2.262925, 48.975235], [2.262888, 48.975727], [2.262918, 48.976093], [2.263012, 48.976536], [2.26308, 48.97673], [2.263186, 48.976978], [2.263345, 48.977287], [2.263445, 48.977455], [2.263673, 48.977776], [2.263892, 48.978031], [2.264157, 48.978302], [2.264296, 48.978432], [2.264451, 48.978561], [2.264724, 48.978771], [2.265024, 48.978973], [2.265353, 48.979172], [2.265731, 48.979366], [2.266094, 48.97953], [2.266465, 48.979675], [2.266659, 48.979744], [2.266924, 48.979828], [2.267326, 48.979939], [2.267528, 48.979984], [2.268223, 48.980118], [2.270298, 48.980427]]}, "properties": {"id": "transilien-j", "branchId": "transilien-j::3", "termini": "Gare Saint-Lazare - Ermont - Eaubonne", "source": "Ile-de-France Mobilites GTFS (data.iledefrance-mobilites.fr), Mobility License"}}, {"type": "Feature", "geometry": {"type": "Point", "coordinates": [2.3244386552397684, 48.87747568635212]}, "properties": {"name": "Gare Saint-Lazare"}}, {"type": "Feature", "geometry": {"type": "Point", "coordinates": [2.1851757042018707, 48.92034757911033]}, "properties": {"name": "Houilles - Carrières-sur-Seine"}}, {"type": "Feature", "geometry": {"type": "Point", "coordinates": [2.040804469960689, 48.93324983956547]}, "properties": {"name": "Poissy"}}, {"type": "Feature", "geometry": {"type": "Point", "coordinates": [1.999557321396041, 48.93983138477974]}, "properties": {"name": "Villennes-sur-Seine"}}, {"type": "Feature", "geometry": {"type": "Point", "coordinates": [1.9829377621754614, 48.981645855003116]}, "properties": {"name": "Vernouillet - Verneuil"}}, {"type": "Feature", "geometry": {"type": "Point", "coordinates": [1.9552440340828119, 48.99266997269272]}, "properties": {"name": "Les Clairières de Verneuil"}}, {"type": "Feature", "geometry": {"type": "Point", "coordinates": [1.9134674211236111, 48.99259097971094]}, "properties": {"name": "Les Mureaux"}}, {"type": "Feature", "geometry": {"type": "Point", "coordinates": [1.8489603900783327, 48.97233225408568]}, "properties": {"name": "Aubergenville Élisabethville"}}, {"type": "Feature", "geometry": {"type": "Point", "coordinates": [1.809133387838305, 48.96340497197892]}, "properties": {"name": "Épône - Mézières"}}, {"type": "Feature", "geometry": {"type": "Point", "coordinates": [1.7151334567152097, 48.98360892717879]}, "properties": {"name": "Mantes Station"}}, {"type": "Feature", "geometry": {"type": "Point", "coordinates": [1.703836824856348, 48.989295021419494]}, "properties": {"name": "Mantes-la-Jolie"}}, {"type": "Feature", "geometry": {"type": "Point", "coordinates": [1.6298170882272784, 48.99751746396684]}, "properties": {"name": "Rosny-sur-Seine"}}, {"type": "Feature", "geometry": {"type": "Point", "coordinates": [1.5820546885594051, 49.03882194566387]}, "properties": {"name": "Bonnières"}}, {"type": "Feature", "geometry": {"type": "Point", "coordinates": [1.477776772218189, 49.091626659828435]}, "properties": {"name": "Vernon - Giverny"}}, {"type": "Feature", "geometry": {"type": "Point", "coordinates": [1.7847679942171768, 49.285504693998305]}, "properties": {"name": "Gisors"}}, {"type": "Feature", "geometry": {"type": "Point", "coordinates": [1.818497020989674, 49.2824007109848]}, "properties": {"name": "Trie-Château"}}, {"type": "Feature", "geometry": {"type": "Point", "coordinates": [1.8732362595841847, 49.26118959499568]}, "properties": {"name": "Chaumont-en-Vexin"}}, {"type": "Feature", "geometry": {"type": "Point", "coordinates": [1.9054790812050526, 49.22054256178432]}, "properties": {"name": "Liancourt-Saint-Pierre"}}, {"type": "Feature", "geometry": {"type": "Point", "coordinates": [1.9205792747729, 49.20238205277644]}, "properties": {"name": "Lavilletertre"}}, {"type": "Feature", "geometry": {"type": "Point", "coordinates": [1.936865953454158, 49.16300140123273]}, "properties": {"name": "Chars"}}, {"type": "Feature", "geometry": {"type": "Point", "coordinates": [1.949406923865895, 49.12334471123142]}, "properties": {"name": "Santeuil - Le Perchay"}}, {"type": "Feature", "geometry": {"type": "Point", "coordinates": [1.9705444983242866, 49.09955483034093]}, "properties": {"name": "Us"}}, {"type": "Feature", "geometry": {"type": "Point", "coordinates": [2.0029460458068105, 49.080811910011626]}, "properties": {"name": "Montgeroult - Courcelles"}}, {"type": "Feature", "geometry": {"type": "Point", "coordinates": [2.025386064104548, 49.07572135804642]}, "properties": {"name": "Boissy-l'Aillerie"}}, {"type": "Feature", "geometry": {"type": "Point", "coordinates": [2.0581556508746317, 49.06281914403825]}, "properties": {"name": "Osny"}}, {"type": "Feature", "geometry": {"type": "Point", "coordinates": [2.0957859968423524, 49.04673337596684]}, "properties": {"name": "Pontoise"}}, {"type": "Feature", "geometry": {"type": "Point", "coordinates": [2.09871661352047, 48.996919424234726]}, "properties": {"name": "Conflans-Sainte-Honorine"}}, {"type": "Feature", "geometry": {"type": "Point", "coordinates": [2.1622316587721904, 48.990136140429954]}, "properties": {"name": "Herblay"}}, {"type": "Feature", "geometry": {"type": "Point", "coordinates": [2.2326940500534516, 48.95065749524003]}, "properties": {"name": "Val d'Argenteuil"}}, {"type": "Feature", "geometry": {"type": "Point", "coordinates": [2.257913508915154, 48.9468952901277]}, "properties": {"name": "Argenteuil"}}, {"type": "Feature", "geometry": {"type": "Point", "coordinates": [2.1930511780913897, 48.9686435877584]}, "properties": {"name": "Cormeilles-en-Parisis"}}, {"type": "Feature", "geometry": {"type": "Point", "coordinates": [2.180341866372171, 48.97988373233732]}, "properties": {"name": "La Frette - Montigny"}}, {"type": "Feature", "geometry": {"type": "Point", "coordinates": [2.0746499245710193, 48.991156287258484]}, "properties": {"name": "Conflans Fin d'Oise"}}, {"type": "Feature", "geometry": {"type": "Point", "coordinates": [2.059634534011659, 48.986862412057214]}, "properties": {"name": "Maurecourt"}}, {"type": "Feature", "geometry": {"type": "Point", "coordinates": [2.0486677678528, 48.974620752632916]}, "properties": {"name": "Andrésy"}}, {"type": "Feature", "geometry": {"type": "Point", "coordinates": [2.0276211497651646, 48.97035707590211]}, "properties": {"name": "Chanteloup-les-Vignes"}}, {"type": "Feature", "geometry": {"type": "Point", "coordinates": [2.005709444143668, 48.98141600700941]}, "properties": {"name": "Triel-sur-Seine"}}, {"type": "Feature", "geometry": {"type": "Point", "coordinates": [1.9630264473162566, 49.0073550143858]}, "properties": {"name": "Vaux-sur-Seine"}}, {"type": "Feature", "geometry": {"type": "Point", "coordinates": [1.919170589720022, 49.006673442207415]}, "properties": {"name": "Thun le Paradis"}}, {"type": "Feature", "geometry": {"type": "Point", "coordinates": [1.9021289902435004, 49.00581615609435]}, "properties": {"name": "Meulan - Hardricourt"}}, {"type": "Feature", "geometry": {"type": "Point", "coordinates": [1.8449525722587152, 48.99224048747195]}, "properties": {"name": "Juziers"}}, {"type": "Feature", "geometry": {"type": "Point", "coordinates": [1.8090110590166268, 48.983003872761415]}, "properties": {"name": "Gargenville"}}, {"type": "Feature", "geometry": {"type": "Point", "coordinates": [1.7838404356830648, 48.9793069192499]}, "properties": {"name": "Issou - Porcheville"}}, {"type": "Feature", "geometry": {"type": "Point", "coordinates": [2.2832114335873186, 48.90587474197106]}, "properties": {"name": "Asnières-sur-Seine"}}, {"type": "Feature", "geometry": {"type": "Point", "coordinates": [2.2716490888242244, 48.91419560591249]}, "properties": {"name": "Bois-Colombes"}}, {"type": "Feature", "geometry": {"type": "Point", "coordinates": [2.2593187577109575, 48.92395845032284]}, "properties": {"name": "Colombes"}}, {"type": "Feature", "geometry": {"type": "Point", "coordinates": [2.260948512567054, 48.93172049557505]}, "properties": {"name": "Le Stade"}}, {"type": "Feature", "geometry": {"type": "Point", "coordinates": [2.263820283806777, 48.970881176549405]}, "properties": {"name": "Sannois"}}, {"type": "Feature", "geometry": {"type": "Point", "coordinates": [2.2707541014797794, 48.98049890628609]}, "properties": {"name": "Ermont - Eaubonne"}}]}