{"type": "FeatureCollection", "features": [{"type": "Feature", "geometry": {"type": "LineString", "coordinates": [[2.323813, 48.87706], [2.323733, 48.877178], [2.323503, 48.877659], [2.323431, 48.877857], [2.323357, 48.878109], [2.323275, 48.878345], [2.323169, 48.878563], [2.322734, 48.879162], [2.322537, 48.879555], [2.322264, 48.880135], [2.322118, 48.880383], [2.322004, 48.88055], [2.321877, 48.880714], [2.321462, 48.881153], [2.321107, 48.881504], [2.320832, 48.881741], [2.320646, 48.881916], [2.320177, 48.882469], [2.319243, 48.883415], [2.318803, 48.883846], [2.318139, 48.884514], [2.317217, 48.885406], [2.317018, 48.885612], [2.316549, 48.886059], [2.316272, 48.886303], [2.315975, 48.886551], [2.31582, 48.886665], [2.315653, 48.886776], [2.3153, 48.886993], [2.314933, 48.887188], [2.314696, 48.887299], [2.314164, 48.887527], [2.313891, 48.88763], [2.31339, 48.887833], [2.31339, 48.887833], [2.313034, 48.887993], [2.312524, 48.888252], [2.309245, 48.890133], [2.308566, 48.890541], [2.308196, 48.890793], [2.307172, 48.891594], [2.306872, 48.891815], [2.306499, 48.892063], [2.305341, 48.892765], [2.303549, 48.893925], [2.302624, 48.894482], [2.300722, 48.895588], [2.299422, 48.896362], [2.299167, 48.896503], [2.298733, 48.896721], [2.297515, 48.89727], [2.297191, 48.897438], [2.296887, 48.897625], [2.296887, 48.897625], [2.296781, 48.897694], [2.296012, 48.898239], [2.295666, 48.898472], [2.293869, 48.899525], [2.292453, 48.90041], [2.291087, 48.901199], [2.290524, 48.901539], [2.289407, 48.902184], [2.288589, 48.902637], [2.285665, 48.904331], [2.284945, 48.904758], [2.2843, 48.905117], [2.284016, 48.905262], [2.28386, 48.905331], [2.283437, 48.905499], [2.281921, 48.906055], [2.281921, 48.906055], [2.281488, 48.906204], [2.281055, 48.906326], [2.280662, 48.906418], [2.280036, 48.906528], [2.27928, 48.906689], [2.278843, 48.906757], [2.278264, 48.906803], [2.277606, 48.906834], [2.276754, 48.906845], [2.276307, 48.906837], [2.275162, 48.906784], [2.274271, 48.906727], [2.273756, 48.906673], [2.273323, 48.906612], [2.273, 48.906555], [2.272416, 48.906437], [2.271772, 48.906284], [2.270174, 48.905834], [2.269823, 48.90575], [2.269351, 48.905663], [2.269024, 48.905624], [2.26881, 48.905605], [2.26881, 48.905605], [2.268525, 48.905594], [2.268119, 48.905602], [2.26777, 48.905628], [2.267437, 48.905678], [2.267004, 48.905766], [2.266273, 48.905975], [2.265914, 48.906105], [2.265491, 48.906296], [2.265179, 48.906487], [2.264894, 48.906689], [2.264681, 48.906857], [2.264525, 48.907017], [2.264415, 48.907143], [2.264242, 48.907417], [2.264169, 48.907555], [2.264001, 48.908028], [2.263686, 48.909298], [2.263406, 48.910217], [2.263206, 48.910648], [2.263008, 48.911026], [2.262844, 48.91127], [2.262632, 48.911518], [2.262381, 48.911762], [2.262136, 48.911961], [2.261852, 48.912132], [2.261578, 48.912281], [2.260759, 48.912697], [2.260384, 48.912868], [2.260063, 48.913002], [2.25989, 48.913071], [2.259494, 48.913212], [2.258818, 48.913403], [2.25849, 48.913464], [2.258003, 48.91354], [2.25761, 48.913589], [2.257302, 48.913616], [2.256979, 48.913639], [2.256211, 48.913666], [2.256211, 48.913666], [2.25567, 48.913658], [2.255122, 48.913624], [2.254649, 48.913578], [2.253448, 48.913437], [2.252568, 48.913307], [2.252021, 48.913216], [2.251086, 48.913033], [2.250656, 48.912933], [2.250051, 48.912781], [2.248867, 48.912457], [2.247363, 48.91201], [2.243864, 48.910873], [2.242814, 48.910542], [2.241489, 48.910133], [2.238671, 48.909214], [2.238671, 48.909214], [2.236989, 48.908665], [2.236497, 48.908489], [2.234188, 48.907562], [2.233609, 48.907352], [2.23316, 48.907207], [2.232883, 48.90712], [2.232276, 48.906948], [2.22987, 48.906315], [2.229108, 48.906097], [2.228573, 48.90593], [2.220875, 48.903423], [2.218351, 48.902596], [2.217482, 48.902321], [2.216022, 48.901894], [2.214184, 48.901302], [2.21383, 48.901203], [2.213525, 48.901127], [2.213525, 48.901127], [2.213013, 48.901016], [2.212385, 48.900925], [2.211616, 48.900845], [2.210991, 48.90081], [2.210499, 48.900803], [2.210072, 48.900814], [2.209646, 48.900841], [2.209157, 48.90089], [2.208494, 48.900986], [2.208256, 48.901028], [2.207705, 48.901142], [2.207246, 48.901264], [2.206763, 48.901405], [2.200391, 48.903461], [2.199895, 48.903652], [2.19968, 48.903744], [2.199279, 48.903934], [2.199094, 48.90403], [2.198682, 48.904266], [2.198364, 48.904476], [2.197896, 48.904835], [2.197557, 48.905151], [2.197328, 48.905388], [2.197178, 48.905571], [2.196943, 48.905891], [2.196787, 48.906128], [2.196683, 48.9063], [2.196495, 48.906643], [2.196362, 48.906902], [2.196151, 48.907368], [2.196013, 48.907726], [2.195882, 48.908108], [2.195762, 48.908543], [2.195695, 48.90884], [2.195624, 48.909233], [2.195606, 48.909363], [2.195565, 48.909855], [2.19556, 48.910023], [2.195587, 48.910477], [2.19561, 48.910629], [2.195704, 48.911076], [2.195799, 48.911419], [2.195894, 48.911812], [2.19594, 48.912067], [2.195984, 48.912445], [2.195988, 48.912567], [2.195984, 48.9128], [2.195961, 48.913059], [2.195937, 48.913212], [2.195889, 48.913425], [2.19579, 48.913757], [2.195692, 48.914005], [2.195586, 48.914223], [2.195389, 48.914562], [2.195121, 48.914936], [2.194789, 48.915306], [2.19453, 48.915558], [2.194158, 48.915855], [2.193721, 48.916168], [2.19338, 48.916374], [2.193024, 48.916561], [2.192569, 48.916786], [2.189629, 48.918163], [2.188, 48.918938], [2.187239, 48.919277], [2.186482, 48.91959], [2.185723, 48.919922], [2.185113, 48.920223], [2.185113, 48.920223], [2.184644, 48.920467], [2.18387, 48.920914], [2.183227, 48.921291], [2.182808, 48.921524], [2.18225, 48.921822], [2.180166, 48.92284], [2.179275, 48.923309], [2.178271, 48.923862], [2.177932, 48.924057], [2.177624, 48.924236], [2.177098, 48.924557], [2.176713, 48.924816], [2.174602, 48.926174], [2.173849, 48.926682], [2.173249, 48.92712], [2.17282, 48.927414], [2.171667, 48.928154], [2.171096, 48.928535], [2.168925, 48.929943], [2.168257, 48.930397], [2.166968, 48.931297], [2.16611, 48.931877], [2.163314, 48.933693], [2.161373, 48.934925], [2.159801, 48.935951], [2.158573, 48.93671], [2.157143, 48.937565], [2.157143, 48.937565], [2.153896, 48.939518], [2.153185, 48.939964], [2.151458, 48.941071], [2.150171, 48.941914], [2.149502, 48.942379], [2.148283, 48.943295], [2.147265, 48.944019], [2.146113, 48.944775], [2.143905, 48.94619], [2.143905, 48.94619], [2.142741, 48.946945], [2.141247, 48.947948], [2.140376, 48.948521], [2.137689, 48.95026], [2.137163, 48.950588], [2.13438, 48.9524], [2.13187, 48.954018], [2.131488, 48.954258], [2.130247, 48.954983], [2.129807, 48.955231], [2.129223, 48.955544], [2.128565, 48.95586], [2.126875, 48.956604], [2.126177, 48.956947], [2.125209, 48.957485], [2.124644, 48.957787], [2.124448, 48.957882], [2.124061, 48.958057], [2.123577, 48.958252], [2.123049, 48.958443], [2.1222, 48.958706], [2.121462, 48.958904], [2.120634, 48.959099], [2.119787, 48.959278], [2.116873, 48.95985], [2.116483, 48.959915], [2.115776, 48.960026], [2.115323, 48.960087], [2.114727, 48.960152], [2.112871, 48.960331], [2.112069, 48.960384], [2.111397, 48.960403], [2.110274, 48.960403], [2.109335, 48.960373], [2.106228, 48.960201], [2.105956, 48.960178], [2.105458, 48.960121], [2.10504, 48.960056], [2.104358, 48.95993], [2.103932, 48.959877], [2.101827, 48.959454], [2.101486, 48.95937], [2.100819, 48.959183], [2.099485, 48.958767], [2.096569, 48.957825], [2.095937, 48.957607], [2.095641, 48.957485], [2.095253, 48.957314], [2.093601, 48.956467], [2.093404, 48.956379], [2.092993, 48.956223], [2.092624, 48.956097], [2.090887, 48.95562], [2.090631, 48.955566], [2.089557, 48.955395], [2.08932, 48.955364], [2.088928, 48.95533], [2.088447, 48.955318], [2.088236, 48.955322], [2.087803, 48.955345], [2.087366, 48.955391], [2.086847, 48.955467], [2.086489, 48.95554], [2.086066, 48.955643], [2.085665, 48.955765], [2.085221, 48.955929], [2.084849, 48.956097], [2.084449, 48.956303], [2.084072, 48.95652], [2.083643, 48.956787], [2.083299, 48.957016], [2.082972, 48.957264], [2.082702, 48.957504], [2.082423, 48.957787], [2.082246, 48.957996], [2.081982, 48.958351], [2.081698, 48.958763], [2.08129, 48.959385], [2.080919, 48.960003], [2.079099, 48.963116], [2.078932, 48.963406], [2.078699, 48.963844], [2.078593, 48.964058], [2.078428, 48.964428], [2.078262, 48.96484], [2.07817, 48.965099], [2.078062, 48.965435], [2.077919, 48.965965], [2.077677, 48.967129], [2.077641, 48.967445], [2.077621, 48.967976], [2.077624, 48.968311], [2.077712, 48.970642], [2.077712, 48.970642], [2.078018, 48.97897], [2.078013, 48.979538], [2.077976, 48.980064], [2.07793, 48.980515], [2.077892, 48.980793], [2.077812, 48.981266], [2.077771, 48.981468], [2.077601, 48.982155], [2.077486, 48.982571], [2.077299, 48.983147], [2.077114, 48.983624], [2.076852, 48.984196], [2.07412, 48.989746], [2.073976, 48.990082], [2.073912, 48.990246], [2.073819, 48.990536], [2.073716, 48.990959], [2.073627, 48.991512], [2.073627, 48.991512], [2.073316, 48.993881], [2.073282, 48.994267], [2.07327, 48.994537], [2.073279, 48.994968], [2.073293, 48.995171], [2.073448, 48.996834], [2.073466, 48.997215], [2.073457, 48.997604], [2.073442, 48.997791], [2.073353, 48.998589], [2.073229, 48.999611], [2.073175, 49.000206], [2.073165, 49.000401], [2.073165, 49.000721], [2.073186, 49.001114], [2.073231, 49.001499], [2.073376, 49.002335], [2.073472, 49.002796], [2.073572, 49.003407], [2.073716, 49.004467], [2.073823, 49.005085], [2.073892, 49.005394], [2.074, 49.005775], [2.07417, 49.006264], [2.074286, 49.00655], [2.074512, 49.00703], [2.074743, 49.007454], [2.074948, 49.007793], [2.075201, 49.008171], [2.075348, 49.008369], [2.075503, 49.008575], [2.07576, 49.008884], [2.076099, 49.00927], [2.077269, 49.010509], [2.077612, 49.010906], [2.077714, 49.011044], [2.077944, 49.011417], [2.078062, 49.01165], [2.07818, 49.011944], [2.07827, 49.012245], [2.078318, 49.012489], [2.078348, 49.012768], [2.078355, 49.01302], [2.07835, 49.01318], [2.078289, 49.013954], [2.078289, 49.013954], [2.078266, 49.014248], [2.078269, 49.01458], [2.078284, 49.014778], [2.078335, 49.01511], [2.078402, 49.015358], [2.078442, 49.015472], [2.078573, 49.015789], [2.078645, 49.015934], [2.078727, 49.016075], [2.078858, 49.016277], [2.079052, 49.016537], [2.079269, 49.016792], [2.079437, 49.01696], [2.079609, 49.017124], [2.079785, 49.017273], [2.080094, 49.017509], [2.080462, 49.017754], [2.080999, 49.018078], [2.082823, 49.019142], [2.083634, 49.01963], [2.084474, 49.020107], [2.085388, 49.020638], [2.086412, 49.021149], [2.087335, 49.021622], [2.087506, 49.021717], [2.087908, 49.021969], [2.088241, 49.022209], [2.088578, 49.022495], [2.088841, 49.022758], [2.089089, 49.023045], [2.089333, 49.023384], [2.089534, 49.023705], [2.090196, 49.024868], [2.090482, 49.025391], [2.09072, 49.025864], [2.09087, 49.026184], [2.090983, 49.026447], [2.091067, 49.02668], [2.09117, 49.027016], [2.091229, 49.027309], [2.091245, 49.027443], [2.091261, 49.027737], [2.091257, 49.027905], [2.091246, 49.028042], [2.091221, 49.028217], [2.091165, 49.028492], [2.091125, 49.028633], [2.091058, 49.028824], [2.090949, 49.029083], [2.090846, 49.029278], [2.090784, 49.029388], [2.090607, 49.029663], [2.09051, 49.029793], [2.09041, 49.029911], [2.090229, 49.030113], [2.090003, 49.030342], [2.089661, 49.030632], [2.089209, 49.030956], [2.088791, 49.031212], [2.088576, 49.031334], [2.088071, 49.031574], [2.083673, 49.033875], [2.083019, 49.034222], [2.08096, 49.035351], [2.080508, 49.035622], [2.078738, 49.036865], [2.078738, 49.036865], [2.076507, 49.038521], [2.074749, 49.039856], [2.07315, 49.041012], [2.072994, 49.041138], [2.07246, 49.041607], [2.072186, 49.041893], [2.071544, 49.042606], [2.071273, 49.042942], [2.070234, 49.044121], [2.069971, 49.044388], [2.069676, 49.044655], [2.069421, 49.044853], [2.06912, 49.045067], [2.068857, 49.045242], [2.068524, 49.045444], [2.068291, 49.04557], [2.067926, 49.04575], [2.067577, 49.045891], [2.067167, 49.046047], [2.066773, 49.046173], [2.066239, 49.046322], [2.064956, 49.046635], [2.064314, 49.046776], [2.063703, 49.046883], [2.063312, 49.046936], [2.06292, 49.04697], [2.062352, 49.046997], [2.060506, 49.047058], [2.059868, 49.047096], [2.059347, 49.047142], [2.033257, 49.049728], [2.033257, 49.049728], [2.020986, 49.050945], [2.020352, 49.050999], [2.019696, 49.051029], [2.019323, 49.051033], [2.018924, 49.051025], [2.01826, 49.050995], [2.017795, 49.050949], [2.017462, 49.050911], [2.017027, 49.050842], [2.016684, 49.050774], [2.01628, 49.050682], [2.015844, 49.050564], [2.015585, 49.050484], [2.014918, 49.050247], [2.014463, 49.050049], [2.014181, 49.049911], [2.013857, 49.04974], [2.013214, 49.049351], [2.01175, 49.04834]]}, "properties": {"id": "transilien-l", "branchId": "transilien-l::0", "termini": "Gare Saint-Lazare - Cergy le Haut", "source": "Ile-de-France Mobilites GTFS (data.iledefrance-mobilites.fr), Mobility License"}}, {"type": "Feature", "geometry": {"type": "LineString", "coordinates": [[2.323813, 48.87706], [2.323733, 48.877178], [2.323503, 48.877659], [2.323431, 48.877857], [2.323357, 48.878109], [2.323275, 48.878345], [2.323169, 48.878563], [2.322734, 48.879162], [2.322537, 48.879555], [2.322264, 48.880135], [2.322118, 48.880383], [2.322004, 48.88055], [2.321877, 48.880714], [2.321462, 48.881153], [2.321107, 48.881504], [2.320832, 48.881741], [2.320646, 48.881916], [2.320177, 48.882469], [2.319243, 48.883415], [2.318803, 48.883846], [2.318139, 48.884514], [2.317217, 48.885406], [2.317018, 48.885612], [2.316549, 48.886059], [2.316272, 48.886303], [2.315975, 48.886551], [2.31582, 48.886665], [2.315653, 48.886776], [2.3153, 48.886993], [2.314933, 48.887188], [2.314696, 48.887299], [2.314164, 48.887527], [2.313891, 48.88763], [2.31339, 48.887833], [2.31339, 48.887833], [2.313034, 48.887993], [2.312524, 48.888252], [2.309245, 48.890133], [2.308566, 48.890541], [2.308196, 48.890793], [2.307172, 48.891594], [2.306872, 48.891815], [2.306499, 48.892063], [2.305341, 48.892765], [2.303549, 48.893925], [2.302624, 48.894482], [2.300722, 48.895588], [2.299422, 48.896362], [2.299167, 48.896503], [2.298733, 48.896721], [2.297515, 48.89727], [2.297191, 48.897438], [2.296887, 48.897625], [2.296887, 48.897625], [2.296781, 48.897694], [2.296012, 48.898239], [2.295666, 48.898472], [2.293869, 48.899525], [2.292453, 48.90041], [2.291087, 48.901199], [2.290524, 48.901539], [2.289407, 48.902184], [2.288589, 48.902637], [2.285665, 48.904331], [2.284945, 48.904758], [2.2843, 48.905117], [2.284016, 48.905262], [2.28386, 48.905331], [2.283437, 48.905499], [2.281921, 48.906055], [2.281921, 48.906055], [2.281488, 48.906204], [2.281055, 48.906326], [2.280662, 48.906418], [2.280036, 48.906528], [2.279543, 48.906605], [2.27901, 48.90667], [2.27823, 48.906738], [2.277909, 48.906757], [2.277301, 48.90678], [2.276744, 48.906784], [2.276318, 48.906776], [2.275475, 48.906719], [2.274321, 48.906609], [2.273965, 48.906567], [2.27336, 48.906475], [2.27248, 48.906303], [2.271779, 48.906139], [2.271183, 48.905979], [2.269695, 48.905537], [2.268869, 48.905281], [2.268869, 48.905281], [2.266369, 48.904461], [2.252748, 48.899944], [2.251186, 48.89941], [2.250929, 48.899315], [2.249721, 48.898827], [2.248269, 48.89822], [2.248269, 48.89822], [2.244469, 48.896637], [2.243485, 48.896217], [2.241532, 48.895363], [2.24121, 48.895214], [2.2402, 48.894711], [2.239793, 48.894497], [2.239064, 48.894066], [2.23861, 48.893772], [2.238361, 48.8936], [2.238022, 48.89333], [2.237718, 48.893066], [2.237526, 48.892876], [2.237309, 48.892639], [2.237309, 48.892639], [2.237093, 48.892376], [2.236862, 48.892052], [2.23651, 48.891491], [2.236337, 48.891174], [2.236125, 48.890667], [2.235782, 48.889809], [2.235678, 48.889465], [2.235537, 48.88876], [2.235474, 48.888279], [2.235449, 48.887337], [2.235428, 48.887077], [2.235382, 48.886715], [2.235337, 48.886494], [2.235281, 48.886276], [2.23519, 48.885979], [2.235093, 48.8857], [2.234967, 48.88538], [2.234805, 48.885014], [2.234631, 48.884655], [2.234457, 48.884354], [2.234353, 48.88419], [2.234238, 48.884029], [2.234133, 48.883888], [2.233966, 48.883678], [2.233611, 48.883266], [2.233371, 48.883018], [2.233092, 48.882748], [2.232935, 48.882607], [2.232935, 48.882607], [2.232495, 48.882206], [2.23132, 48.881191], [2.22787, 48.878174], [2.227079, 48.87746], [2.226583, 48.877029], [2.226341, 48.876827], [2.225729, 48.876301], [2.223027, 48.873947], [2.222443, 48.873417], [2.222077, 48.873047], [2.22183, 48.872772], [2.221564, 48.872448], [2.221343, 48.872147], [2.221095, 48.87178], [2.221095, 48.87178], [2.220913, 48.871479], [2.220767, 48.871208], [2.220667, 48.871006], [2.220512, 48.870663], [2.220336, 48.870209], [2.220215, 48.869747], [2.220136, 48.869495], [2.219909, 48.868919], [2.219628, 48.868267], [2.219407, 48.867695], [2.21724, 48.861897], [2.216997, 48.86121], [2.21687, 48.86079], [2.216717, 48.860199], [2.216617, 48.859718], [2.216532, 48.859234], [2.216487, 48.858894], [2.216468, 48.858635], [2.21646, 48.858379], [2.216464, 48.858135], [2.216484, 48.857796], [2.216596, 48.856392], [2.216596, 48.856392], [2.216745, 48.854595], [2.216796, 48.854168], [2.216853, 48.853745], [2.217316, 48.850739], [2.217385, 48.85041], [2.21745, 48.850159], [2.217705, 48.849377], [2.217816, 48.848965], [2.217839, 48.848854], [2.217865, 48.848652], [2.217869, 48.848396], [2.217837, 48.847813], [2.217818, 48.847084], [2.217801, 48.846848], [2.217771, 48.846638], [2.217706, 48.846344], [2.217648, 48.84613], [2.217648, 48.84613], [2.217506, 48.845734], [2.217412, 48.845501], [2.217257, 48.845188], [2.216937, 48.844646], [2.216602, 48.84417], [2.216336, 48.843845], [2.216021, 48.843536], [2.215254, 48.842815], [2.214931, 48.842594], [2.214375, 48.842232], [2.213936, 48.841976], [2.213429, 48.841709], [2.212866, 48.841446], [2.212474, 48.841282], [2.21197, 48.841099], [2.210696, 48.84071], [2.209968, 48.840466], [2.209609, 48.84034], [2.209238, 48.840195], [2.208911, 48.840057], [2.208599, 48.839909], [2.208363, 48.839783], [2.208195, 48.839684], [2.207905, 48.839497], [2.207545, 48.839211], [2.206603, 48.838352], [2.206318, 48.838127], [2.206148, 48.838005], [2.205849, 48.837818], [2.20562, 48.837688], [2.205316, 48.837543], [2.204912, 48.837383], [2.204446, 48.837234], [2.204026, 48.837124], [2.203779, 48.837074], [2.203462, 48.837025], [2.203113, 48.836987], [2.202778, 48.836956], [2.202413, 48.836941], [2.202033, 48.836941], [2.201585, 48.836956], [2.201189, 48.837006], [2.200761, 48.83707], [2.200426, 48.837143], [2.2001, 48.837223], [2.199732, 48.837345], [2.199332, 48.83749], [2.199036, 48.837627], [2.198738, 48.837788], [2.198152, 48.838158], [2.197241, 48.83876], [2.196969, 48.838917], [2.196345, 48.839218], [2.195846, 48.83939], [2.195692, 48.839439], [2.195352, 48.839523], [2.1949, 48.839611], [2.194498, 48.839668], [2.193962, 48.83971], [2.193411, 48.839718], [2.192004, 48.839687], [2.191577, 48.839668], [2.191222, 48.839638], [2.190861, 48.839596], [2.190383, 48.839512], [2.190061, 48.839436], [2.1896, 48.83931], [2.1889, 48.839088], [2.18856, 48.838963], [2.188307, 48.838856], [2.187667, 48.838562], [2.187148, 48.838284], [2.187148, 48.838284], [2.186256, 48.837807], [2.185333, 48.837261], [2.185072, 48.837132], [2.184811, 48.837021], [2.184238, 48.836811], [2.183878, 48.836697], [2.183609, 48.836624], [2.183099, 48.836506], [2.182747, 48.836441], [2.182446, 48.836395], [2.181223, 48.836246], [2.178888, 48.835983], [2.170534, 48.834988], [2.165916, 48.834427], [2.1613, 48.833881], [2.160597, 48.833839], [2.160176, 48.833839], [2.159814, 48.833855], [2.159366, 48.833889], [2.1589, 48.833946], [2.158387, 48.834038], [2.15797, 48.834129], [2.157566, 48.834236], [2.15723, 48.834347], [2.15668, 48.834564], [2.156329, 48.834732], [2.156098, 48.83485], [2.155607, 48.835129], [2.154518, 48.8358], [2.154256, 48.83593], [2.152407, 48.836735], [2.152407, 48.836735], [2.151718, 48.837032], [2.150653, 48.837463], [2.150384, 48.837566], [2.150156, 48.837643], [2.149823, 48.837738], [2.148806, 48.837967], [2.144635, 48.838806], [2.143881, 48.839012], [2.143403, 48.839184], [2.143013, 48.839348], [2.142723, 48.839489], [2.142401, 48.839664], [2.141744, 48.840092], [2.14077, 48.840786], [2.139771, 48.841522], [2.138139, 48.842678], [2.138139, 48.842678], [2.132852, 48.846458], [2.132576, 48.846676], [2.132392, 48.846828], [2.132157, 48.847054], [2.131987, 48.847233], [2.131841, 48.847408], [2.131638, 48.847687], [2.131545, 48.847836], [2.131434, 48.848034], [2.131333, 48.848248], [2.13124, 48.84848], [2.131144, 48.848782], [2.131106, 48.848949], [2.131085, 48.849083], [2.131069, 48.84943], [2.131077, 48.849594], [2.131128, 48.849949], [2.131252, 48.850525], [2.131816, 48.852966], [2.132102, 48.854252], [2.13216, 48.854542], [2.13216, 48.854542], [2.132187, 48.854771], [2.132189, 48.854988], [2.132159, 48.855301], [2.132117, 48.855507], [2.131999, 48.856007], [2.13167, 48.857323], [2.131541, 48.85788], [2.13141, 48.858303], [2.131371, 48.858402], [2.13132, 48.858524], [2.131189, 48.858784], [2.130986, 48.859093], [2.130774, 48.859344], [2.130701, 48.859425], [2.130378, 48.859718], [2.130173, 48.859879], [2.129931, 48.860043], [2.129636, 48.860222], [2.129384, 48.860352], [2.129014, 48.860519], [2.128721, 48.860634], [2.128322, 48.860767], [2.127962, 48.860874], [2.127636, 48.860954], [2.127286, 48.861027], [2.12698, 48.861065], [2.126603, 48.861095], [2.126011, 48.861099], [2.12473, 48.861076], [2.124188, 48.861092], [2.123611, 48.86113], [2.123016, 48.861206], [2.122568, 48.861282], [2.122165, 48.861362], [2.121505, 48.861534], [2.121505, 48.861534], [2.121294, 48.861595], [2.120811, 48.861763], [2.120255, 48.861984], [2.119686, 48.862263], [2.118549, 48.862896], [2.11829, 48.863029], [2.118081, 48.863136], [2.117718, 48.8633], [2.117547, 48.863373], [2.117213, 48.863499], [2.115824, 48.863972], [2.115551, 48.864079], [2.115185, 48.864235], [2.115021, 48.864311], [2.114712, 48.864471], [2.114302, 48.864712], [2.114037, 48.864895], [2.113722, 48.865139], [2.11352, 48.865318], [2.113357, 48.865471], [2.113173, 48.865662], [2.113009, 48.865864], [2.112854, 48.866081], [2.112777, 48.866203], [2.112716, 48.866322], [2.112664, 48.866447], [2.112559, 48.866806], [2.112472, 48.86721], [2.112367, 48.867756], [2.112259, 48.868214], [2.112214, 48.868347], [2.112119, 48.868584], [2.111939, 48.868889], [2.111747, 48.86916], [2.111479, 48.869442], [2.11132, 48.869587], [2.111049, 48.869816], [2.110865, 48.869946], [2.110569, 48.87014], [2.110391, 48.870239], [2.110073, 48.870407], [2.109777, 48.870541], [2.109202, 48.870754], [2.108884, 48.870842], [2.108547, 48.870922], [2.108196, 48.870987], [2.107825, 48.871037], [2.107325, 48.871071], [2.106453, 48.871086], [2.104242, 48.871067], [2.100394, 48.871067], [2.099582, 48.871105], [2.098966, 48.87117], [2.095493, 48.871609], [2.095493, 48.871609], [2.08836, 48.872501], [2.087873, 48.872551], [2.087567, 48.872566], [2.087197, 48.872574], [2.086697, 48.872566], [2.086203, 48.872532], [2.085931, 48.872501], [2.085284, 48.872406], [2.084779, 48.872295], [2.084578, 48.872242], [2.083913, 48.87204], [2.083642, 48.871941], [2.083358, 48.871822], [2.083112, 48.871708], [2.08285, 48.871574], [2.080695, 48.870338], [2.079126, 48.86945], [2.078791, 48.869251], [2.076995, 48.868217], [2.076675, 48.868015], [2.076388, 48.867809], [2.076201, 48.867664], [2.076201, 48.867664], [2.075919, 48.867416], [2.075791, 48.86729], [2.075538, 48.867008], [2.075316, 48.866722], [2.075242, 48.866608], [2.074541, 48.865421], [2.074238, 48.865028], [2.073889, 48.864693], [2.073547, 48.864418], [2.073052, 48.864109], [2.072621, 48.863892], [2.07235, 48.86377], [2.071678, 48.863548], [2.071196, 48.863434], [2.070779, 48.86335], [2.0678, 48.862915], [2.067276, 48.862854], [2.066741, 48.862816], [2.066179, 48.862812], [2.065694, 48.862835], [2.065004, 48.862904], [2.064441, 48.862995], [2.063943, 48.863106], [2.063449, 48.863243], [2.063031, 48.863384], [2.062552, 48.863579], [2.062208, 48.863747], [2.061885, 48.863918], [2.061577, 48.864109], [2.060438, 48.864857], [2.060269, 48.864956], [2.059876, 48.86517], [2.059514, 48.865334], [2.059203, 48.865452], [2.059018, 48.865517], [2.058407, 48.865673], [2.058113, 48.86573], [2.057732, 48.865791], [2.057224, 48.865841], [2.05681, 48.86586], [2.056386, 48.865856], [2.055918, 48.865826], [2.054932, 48.86573], [2.054706, 48.865715], [2.054422, 48.865711], [2.053987, 48.865738], [2.05362, 48.865791], [2.05319, 48.865891], [2.053046, 48.865929], [2.052621, 48.866085], [2.052348, 48.866219], [2.052052, 48.866402], [2.051837, 48.866566], [2.051655, 48.866726], [2.051521, 48.866871], [2.051459, 48.866947], [2.051321, 48.867153], [2.051239, 48.867302], [2.051191, 48.867409]]}, "properties": {"id": "transilien-l", "branchId": "transilien-l::1", "termini": "Gare Saint-Lazare - Saint-Nom-la-Bretèche - Forêt de Marly", "source": "Ile-de-France Mobilites GTFS (data.iledefrance-mobilites.fr), Mobility License"}}, {"type": "Feature", "geometry": {"type": "LineString", "coordinates": [[2.323813, 48.87706], [2.323733, 48.877178], [2.323503, 48.877659], [2.323431, 48.877857], [2.323357, 48.878109], [2.323275, 48.878345], [2.323169, 48.878563], [2.322734, 48.879162], [2.322537, 48.879555], [2.322264, 48.880135], [2.322118, 48.880383], [2.322004, 48.88055], [2.321877, 48.880714], [2.321462, 48.881153], [2.321107, 48.881504], [2.320832, 48.881741], [2.320646, 48.881916], [2.320177, 48.882469], [2.319243, 48.883415], [2.318803, 48.883846], [2.318139, 48.884514], [2.317217, 48.885406], [2.317018, 48.885612], [2.316549, 48.886059], [2.316272, 48.886303], [2.315975, 48.886551], [2.31582, 48.886665], [2.315653, 48.886776], [2.3153, 48.886993], [2.314933, 48.887188], [2.314696, 48.887299], [2.314164, 48.887527], [2.313891, 48.88763], [2.31339, 48.887833], [2.31339, 48.887833], [2.313034, 48.887993], [2.312524, 48.888252], [2.309245, 48.890133], [2.308566, 48.890541], [2.308196, 48.890793], [2.307172, 48.891594], [2.306872, 48.891815], [2.306499, 48.892063], [2.305341, 48.892765], [2.303549, 48.893925], [2.302624, 48.894482], [2.300722, 48.895588], [2.299422, 48.896362], [2.299167, 48.896503], [2.298733, 48.896721], [2.297515, 48.89727], [2.297191, 48.897438], [2.296887, 48.897625], [2.296887, 48.897625], [2.296781, 48.897694], [2.296012, 48.898239], [2.295666, 48.898472], [2.293869, 48.899525], [2.292453, 48.90041], [2.291087, 48.901199], [2.290524, 48.901539], [2.289407, 48.902184], [2.288589, 48.902637], [2.285665, 48.904331], [2.284945, 48.904758], [2.2843, 48.905117], [2.284016, 48.905262], [2.28386, 48.905331], [2.283437, 48.905499], [2.281921, 48.906055], [2.281921, 48.906055], [2.281488, 48.906204], [2.281055, 48.906326], [2.280662, 48.906418], [2.280036, 48.906528], [2.279543, 48.906605], [2.27901, 48.90667], [2.27823, 48.906738], [2.277909, 48.906757], [2.277301, 48.90678], [2.276744, 48.906784], [2.276318, 48.906776], [2.275475, 48.906719], [2.274321, 48.906609], [2.273965, 48.906567], [2.27336, 48.906475], [2.27248, 48.906303], [2.271779, 48.906139], [2.271183, 48.905979], [2.269695, 48.905537], [2.268869, 48.905281], [2.268869, 48.905281], [2.266369, 48.904461], [2.252748, 48.899944], [2.251186, 48.89941], [2.250929, 48.899315], [2.249721, 48.898827], [2.248269, 48.89822], [2.248269, 48.89822], [2.244469, 48.896637], [2.243485, 48.896217], [2.241532, 48.895363], [2.24121, 48.895214], [2.2402, 48.894711], [2.239793, 48.894497], [2.239064, 48.894066], [2.23861, 48.893772], [2.238361, 48.8936], [2.238022, 48.89333], [2.237718, 48.893066], [2.237526, 48.892876], [2.237309, 48.892639], [2.237309, 48.892639], [2.237093, 48.892376], [2.236862, 48.892052], [2.23651, 48.891491], [2.236337, 48.891174], [2.236125, 48.890667], [2.235782, 48.889809], [2.235678, 48.889465], [2.235537, 48.88876], [2.235474, 48.888279], [2.235449, 48.887337], [2.235428, 48.887077], [2.235382, 48.886715], [2.235337, 48.886494], [2.235281, 48.886276], [2.23519, 48.885979], [2.235093, 48.8857], [2.234967, 48.88538], [2.234805, 48.885014], [2.234631, 48.884655], [2.234457, 48.884354], [2.234353, 48.88419], [2.234238, 48.884029], [2.234133, 48.883888], [2.233966, 48.883678], [2.233611, 48.883266], [2.233371, 48.883018], [2.233092, 48.882748], [2.232935, 48.882607], [2.232935, 48.882607], [2.232495, 48.882206], [2.23132, 48.881191], [2.22787, 48.878174], [2.227079, 48.87746], [2.226583, 48.877029], [2.226341, 48.876827], [2.225729, 48.876301], [2.223027, 48.873947], [2.222443, 48.873417], [2.222077, 48.873047], [2.22183, 48.872772], [2.221564, 48.872448], [2.221343, 48.872147], [2.221095, 48.87178], [2.221095, 48.87178], [2.220913, 48.871479], [2.220767, 48.871208], [2.220667, 48.871006], [2.220512, 48.870663], [2.220336, 48.870209], [2.220215, 48.869747], [2.220136, 48.869495], [2.219909, 48.868919], [2.219628, 48.868267], [2.219407, 48.867695], [2.21724, 48.861897], [2.216997, 48.86121], [2.21687, 48.86079], [2.216717, 48.860199], [2.216617, 48.859718], [2.216532, 48.859234], [2.216487, 48.858894], [2.216468, 48.858635], [2.21646, 48.858379], [2.216464, 48.858135], [2.216484, 48.857796], [2.216596, 48.856392], [2.216596, 48.856392], [2.216745, 48.854595], [2.216796, 48.854168], [2.216853, 48.853745], [2.217316, 48.850739], [2.217385, 48.85041], [2.21745, 48.850159], [2.217705, 48.849377], [2.217816, 48.848965], [2.217839, 48.848854], [2.217865, 48.848652], [2.217869, 48.848396], [2.217837, 48.847813], [2.217818, 48.847084], [2.217801, 48.846848], [2.217771, 48.846638], [2.217706, 48.846344], [2.217648, 48.84613], [2.217648, 48.84613], [2.217506, 48.845734], [2.217412, 48.845501], [2.217257, 48.845188], [2.216937, 48.844646], [2.216712, 48.844318], [2.216602, 48.84417], [2.216336, 48.843845], [2.216021, 48.843536], [2.215254, 48.842815], [2.214931, 48.842594], [2.214375, 48.842232], [2.213936, 48.841976], [2.213429, 48.841709], [2.212866, 48.841446], [2.212474, 48.841282], [2.21197, 48.841099], [2.208268, 48.839966], [2.207387, 48.839668], [2.206884, 48.839462], [2.206538, 48.839306], [2.206068, 48.839073], [2.205578, 48.838799], [2.204896, 48.838375], [2.204554, 48.838116], [2.204069, 48.837711], [2.203804, 48.837467], [2.203385, 48.837036], [2.203022, 48.836544], [2.202668, 48.836006], [2.202369, 48.835396], [2.202098, 48.834595], [2.201849, 48.833397], [2.20105, 48.828892], [2.200779, 48.827408], [2.200779, 48.827408], [2.200611, 48.826447], [2.200351, 48.825115], [2.200078, 48.823605], [2.19985, 48.822937], [2.199555, 48.822269], [2.199397, 48.821987], [2.199207, 48.821705], [2.198783, 48.821159], [2.198501, 48.820847], [2.198173, 48.820549], [2.19744, 48.819946], [2.196572, 48.819366], [2.193741, 48.817837], [2.193175, 48.817516], [2.192745, 48.817257], [2.192205, 48.816891], [2.191603, 48.816425], [2.191084, 48.815952], [2.190374, 48.815231], [2.189754, 48.814453], [2.189379, 48.813961], [2.188217, 48.812489], [2.188089, 48.812336], [2.188089, 48.812336], [2.187191, 48.811214], [2.186606, 48.810455], [2.186212, 48.809978], [2.186015, 48.809757], [2.185811, 48.809563], [2.185463, 48.809254], [2.185037, 48.808895], [2.18461, 48.808571], [2.183921, 48.808113], [2.183081, 48.807613], [2.18159, 48.806915], [2.181134, 48.806736], [2.180647, 48.806557], [2.180373, 48.806465], [2.179465, 48.80619], [2.179094, 48.806095], [2.178594, 48.805981], [2.177974, 48.805855], [2.177482, 48.805771], [2.177006, 48.805702], [2.176233, 48.805611], [2.174577, 48.805553], [2.171995, 48.805534], [2.168326, 48.80547], [2.168326, 48.80547], [2.158113, 48.805317], [2.15745, 48.805321], [2.157081, 48.805332], [2.156555, 48.805363], [2.155779, 48.805431], [2.155401, 48.805473], [2.154619, 48.805588], [2.153843, 48.805729], [2.15311, 48.805901], [2.15283, 48.805977], [2.15283, 48.805977], [2.152006, 48.806206], [2.151567, 48.806347], [2.150842, 48.80661], [2.150532, 48.80674], [2.148966, 48.807426], [2.148203, 48.807777], [2.147698, 48.807972], [2.147045, 48.808189], [2.146521, 48.808346], [2.145788, 48.808548], [2.145034, 48.808716], [2.144404, 48.808842], [2.143725, 48.808945], [2.1435, 48.808975], [2.142709, 48.809048], [2.139991, 48.80925], [2.139715, 48.809246], [2.138991, 48.809265], [2.138513, 48.809292], [2.136881, 48.80941]]}, "properties": {"id": "transilien-l", "branchId": "transilien-l::2", "termini": "Gare Saint-Lazare - Versailles Rive Droite", "source": "Ile-de-France Mobilites GTFS (data.iledefrance-mobilites.fr), Mobility License"}}, {"type": "Feature", "geometry": {"type": "Point", "coordinates": [2.3244386552397684, 48.87747568635212]}, "properties": {"name": "Gare Saint-Lazare"}}, {"type": "Feature", "geometry": {"type": "Point", "coordinates": [2.312950431098551, 48.88839532721545]}, "properties": {"name": "Pont Cardinet"}}, {"type": "Feature", "geometry": {"type": "Point", "coordinates": [2.2974715210323566, 48.897501127112044]}, "properties": {"name": "Clichy - Levallois"}}, {"type": "Feature", "geometry": {"type": "Point", "coordinates": [2.2832114335873186, 48.90587474197106]}, "properties": {"name": "Asnières-sur-Seine"}}, {"type": "Feature", "geometry": {"type": "Point", "coordinates": [2.268790065027107, 48.90549079769296]}, "properties": {"name": "Bécon les Bruyères"}}, {"type": "Feature", "geometry": {"type": "Point", "coordinates": [2.2572045759752384, 48.91365276270651]}, "properties": {"name": "Les Vallées"}}, {"type": "Feature", "geometry": {"type": "Point", "coordinates": [2.2397947530458273, 48.90957685679064]}, "properties": {"name": "La Garenne-Colombes"}}, {"type": "Feature", "geometry": {"type": "Point", "coordinates": [2.213536495127317, 48.90112974604822]}, "properties": {"name": "Nanterre Université"}}, {"type": "Feature", "geometry": {"type": "Point", "coordinates": [2.1851757042018707, 48.92034757911033]}, "properties": {"name": "Houilles - Carrières-sur-Seine"}}, {"type": "Feature", "geometry": {"type": "Point", "coordinates": [2.1572200388507317, 48.93769529363442]}, "properties": {"name": "Sartrouville"}}, {"type": "Feature", "geometry": {"type": "Point", "coordinates": [2.1446722659338855, 48.94574060746957]}, "properties": {"name": "Maisons-Laffitte"}}, {"type": "Feature", "geometry": {"type": "Point", "coordinates": [2.0777265246565433, 48.970643570814424]}, "properties": {"name": "Achères Ville"}}, {"type": "Feature", "geometry": {"type": "Point", "coordinates": [2.0746499245710193, 48.991156287258484]}, "properties": {"name": "Conflans Fin d'Oise"}}, {"type": "Feature", "geometry": {"type": "Point", "coordinates": [2.078348820578231, 49.01374275942672]}, "properties": {"name": "Neuville - Université"}}, {"type": "Feature", "geometry": {"type": "Point", "coordinates": [2.0797809490013073, 49.036306683133965]}, "properties": {"name": "Cergy Préfecture"}}, {"type": "Feature", "geometry": {"type": "Point", "coordinates": [2.0345219282999176, 49.049642166828754]}, "properties": {"name": "Cergy Saint-Christophe"}}, {"type": "Feature", "geometry": {"type": "Point", "coordinates": [2.011579068023536, 49.04823262405815]}, "properties": {"name": "Cergy le Haut"}}, {"type": "Feature", "geometry": {"type": "Point", "coordinates": [2.249189818087758, 48.89861561377405]}, "properties": {"name": "Courbevoie"}}, {"type": "Feature", "geometry": {"type": "Point", "coordinates": [2.238418596250407, 48.892229801568206]}, "properties": {"name": "La Défense"}}, {"type": "Feature", "geometry": {"type": "Point", "coordinates": [2.2336164976472146, 48.8833721630466]}, "properties": {"name": "Puteaux"}}, {"type": "Feature", "geometry": {"type": "Point", "coordinates": [2.2165513289937904, 48.85625374079433]}, "properties": {"name": "Le Val d'Or"}}, {"type": "Feature", "geometry": {"type": "Point", "coordinates": [2.2176312182469986, 48.846058536430505]}, "properties": {"name": "Saint-Cloud"}}, {"type": "Feature", "geometry": {"type": "Point", "coordinates": [2.187092668770097, 48.838254440887944]}, "properties": {"name": "Garches - Marnes-la-Coquette"}}, {"type": "Feature", "geometry": {"type": "Point", "coordinates": [2.152674671677768, 48.836684490249404]}, "properties": {"name": "Vaucresson"}}, {"type": "Feature", "geometry": {"type": "Point", "coordinates": [2.138236726142033, 48.84262523059504]}, "properties": {"name": "La Celle-Saint-Cloud"}}, {"type": "Feature", "geometry": {"type": "Point", "coordinates": [2.132028029856739, 48.85379323051655]}, "properties": {"name": "Bougival"}}, {"type": "Feature", "geometry": {"type": "Point", "coordinates": [2.1227777344789676, 48.8612602848357]}, "properties": {"name": "Louveciennes"}}, {"type": "Feature", "geometry": {"type": "Point", "coordinates": [2.0965372930677657, 48.87152941199376]}, "properties": {"name": "Marly-le-Roi"}}, {"type": "Feature", "geometry": {"type": "Point", "coordinates": [2.076893601882248, 48.86818814962987]}, "properties": {"name": "L'Étang-la-Ville"}}, {"type": "Feature", "geometry": {"type": "Point", "coordinates": [2.051299627156171, 48.867096240827834]}, "properties": {"name": "Saint-Nom-la-Bretèche - Forêt de Marly"}}, {"type": "Feature", "geometry": {"type": "Point", "coordinates": [2.2210567895582143, 48.871689522026664]}, "properties": {"name": "Suresnes Mont Valérien"}}, {"type": "Feature", "geometry": {"type": "Point", "coordinates": [2.2007294495659546, 48.827253206930806]}, "properties": {"name": "Sèvres - Ville-d'Avray"}}, {"type": "Feature", "geometry": {"type": "Point", "coordinates": [2.1885894806735937, 48.81299614830529]}, "properties": {"name": "Chaville Rive Droite"}}, {"type": "Feature", "geometry": {"type": "Point", "coordinates": [2.1676545647835206, 48.805472581494975]}, "properties": {"name": "Viroflay - Rive Droite"}}, {"type": "Feature", "geometry": {"type": "Point", "coordinates": [2.1528278413582385, 48.805965217521]}, "properties": {"name": "Montreuil"}}, {"type": "Feature", "geometry": {"type": "Point", "coordinates": [2.1368871000602927, 48.80949051640336]}, "properties": {"name": "Versailles Rive Droite"}}]}